{"type":"FeatureCollection", "features": [
{"type":"Feature","geometry":{"type":"Polygon","coordinates":[[[33.7805,35.2081],[34.4582,35.6446],[32.1437,35.0425],[32.9145,34.5413],[33.9247,34.9532],[33.7805,35.2081]]]},"properties":{"NAME":"Cyprus","SUBJECTO":"Cyprus","PARTOF":"Cyprus","BORDERPRECISION":1,"LINK":null}},
{"type":"Feature","geometry":{"type":"MultiPolygon","coordinates":[[[[130.5793,30.9065],[131.831,32.6931],[131.5688,33.4861],[130.6444,33.7],[129.3434,33.1514],[129.7337,32.638],[130.1075,32.9308],[130.4965,32.557],[130.0601,31.2166],[130.7325,31.4783],[130.5793,30.9065]]],[[[132.5676,32.6375],[133.241,33.2991],[133.9986,33.1483],[134.5404,34.0127],[132.7843,33.9075],[132.1211,33.3475],[132.5676,32.6375]]],[[[136.8108,37.3107],[135.7271,35.4505],[132.6629,35.3806],[130.7793,33.9669],[131.995,33.8043],[132.1835,34.2872],[135.2057,34.6171],[135.0629,33.69],[135.7557,33.3423],[136.8986,34.2587],[136.7339,34.8741],[138.1491,34.5279],[138.6837,34.9923],[138.8638,34.5674],[139.9137,35.5544],[139.8301,34.836],[140.3166,35.0338],[140.8343,35.6771],[140.8722,37.9174],[141.9985,39.4489],[141.4369,41.2694],[141.087,41.4416],[141.1526,40.8654],[140.3864,40.9855],[139.9152,40.575],[139.8961,38.9985],[138.699,37.4482],[137.1762,36.6431],[137.3096,37.4327],[136.8108,37.3107]]]]},"properties":{"NAME":"Imperial Japan (Fujiwara)","SUBJECTO":"Imperial Japan (Fujiwara)","PARTOF":"Imperial Japan (Fujiwara)","BORDERPRECISION":1,"LINK":null}},
{"type":"Feature","geometry":{"type":"Polygon","coordinates":[[[44.6722,-16.2356],[43.9716,-17.5527],[44.5171,-20.0239],[43.2913,-22.4098],[44.0368,-24.9887],[45.2105,-25.66],[47.2585,-24.7658],[49.8982,-16.4595],[49.6203,-15.4623],[50.1873,-15.9568],[50.4863,-15.4795],[49.8805,-12.9196],[49.1763,-12.2665],[48.7513,-13.4177],[48.3496,-13.838],[47.9425,-13.5847],[47.8837,-14.7161],[47.1993,-15.0163],[47.2446,-15.3657],[46.4192,-15.9395],[44.6722,-16.2356]],[[48.0147,-17.0228],[48.4882,-20.0411],[47.1862,-23.1186],[45.529,-23.5921],[45.2923,-22.6452],[46.6535,-17.733],[47.4821,-16.9044],[48.0147,-17.0228]]]},"properties":{"NAME":"Madagascar","SUBJECTO":"Madagascar","PARTOF":"Madagascar","BORDERPRECISION":1,"LINK":null}},
{"type":"Feature","geometry":{"type":"MultiPolygon","coordinates":[[[[14.3437,62.9481],[18.9848,69.3154],[13.3832,66.679],[11.3641,64.416],[5.1011,61.6986],[5.0962,60.2641],[6.1854,59.8243],[5.0866,59.5092],[6.2375,59.2837],[5.6155,58.4552],[6.9586,57.9717],[8.1537,58.0895],[10.5697,59.5805],[11.7364,57.6982],[12.4879,58.5629],[12.174,60.9564],[14.3437,62.9481]]],[[[-24.2189,65.5337],[-21.7938,65.2985],[-23.6746,64.6593],[-21.4885,64.3761],[-22.3729,63.7732],[-18.9608,63.3375],[-14.8212,64.195],[-13.5574,65.0094],[-16.3852,66.4544],[-17.8838,65.7568],[-18.6763,66.0912],[-19.336,65.6739],[-19.9733,66.1107],[-21.0797,65.2054],[-21.4432,66.1299],[-22.6764,66.3913],[-22.6093,65.9231],[-23.4656,66.1334],[-24.2189,65.5337]]]]},"properties":{"NAME":"Norway","SUBJECTO":"Norway","PARTOF":"Norway","BORDERPRECISION":1,"LINK":null}},
{"type":"Feature","geometry":{"type":"Polygon","coordinates":[[[48.0147,-17.0228],[47.4821,-16.9044],[46.6535,-17.733],[45.2923,-22.6452],[45.529,-23.5921],[47.1862,-23.1186],[48.4882,-20.0411],[48.0147,-17.0228]]]},"properties":{"NAME":"Expansionist Kingdom of Merina","SUBJECTO":"Expansionist Kingdom of Merina","PARTOF":"Expansionist Kingdom of Merina","BORDERPRECISION":1,"LINK":null}},
{"type":"Feature","geometry":{"type":"Polygon","coordinates":[[[8.8196,38.9769],[9.6483,39.4572],[9.7937,40.5637],[9.3062,41.1844],[8.1595,40.7847],[8.8196,38.9769]]]},"properties":{"NAME":"Sardinia","SUBJECTO":"Sardinia","PARTOF":"Sardinia","BORDERPRECISION":1,"LINK":null}},
{"type":"Feature","geometry":{"type":"Polygon","coordinates":[[[109.4297,18.0966],[110.3615,18.7656],[110.8854,19.7068],[110.6174,20.0175],[109.5503,19.9136],[108.5769,19.1874],[108.6519,18.4824],[109.4297,18.0966]]]},"properties":{"NAME":"Hainan","SUBJECTO":"Hainan","PARTOF":"Hainan","BORDERPRECISION":1,"LINK":null}},
{"type":"Feature","geometry":{"type":"Polygon","coordinates":[[[33.3953,-20.0221],[33.3953,-19.1732],[32.6896,-18.6439],[29.6904,-18.8204],[28.6319,-19.8789],[28.4555,-22.5252],[29.3376,-23.0545],[31.1018,-23.0545],[32.866,-21.996],[33.3953,-20.0221]]]},"properties":{"NAME":"Great Zimbabwe","SUBJECTO":"Great Zimbabwe","PARTOF":"Great Zimbabwe","BORDERPRECISION":1,"LINK":null}},
{"type":"Feature","geometry":{"type":"Polygon","coordinates":[[[40.4004,-11.2304],[40.6195,-10.766],[39.6576,-9.7957],[39.3918,-8.735],[39.5664,-7.0442],[38.8724,-6.0925],[39.1225,-5.037],[40.9154,-2.0781],[41.6099,-1.8767],[43.7243,0.8003],[45.5413,1.9671],[47.6365,4.096],[44.2814,3.3578],[43.4149,2.5148],[39.4166,-1.375],[37.7322,-4.5755],[38.2375,-9.292],[39.2482,-11.1449],[40.4004,-11.2304]]]},"properties":{"NAME":"Islamic city-states","SUBJECTO":"Islamic city-states","PARTOF":"Islamic city-states","BORDERPRECISION":1,"LINK":null}},
{"type":"Feature","geometry":{"type":"Polygon","coordinates":[[[16.4816,48.1958],[16.5353,46.3647],[15.9117,45.631],[16.8077,44.9351],[22.6645,44.6423],[26.5175,45.8178],[27.4488,46.5255],[24.132,48.8111],[22.9485,48.9704],[22.8815,49.2245],[21.3169,49.864],[20.0159,49.8035],[19.8949,49.4707],[19.3805,49.8035],[16.4816,48.1958]]]},"properties":{"NAME":"Hungary","SUBJECTO":"Hungary","PARTOF":"Hungary","BORDERPRECISION":1,"LINK":null}},
{"type":"Feature","geometry":{"type":"MultiPolygon","coordinates":[[[[13.3677,45.6945],[13.0809,45.9804],[12.1448,45.7628],[12.1762,45.2143],[13.3677,45.6945]]],[[[14.1746,45.0104],[13.8,45.5664],[13.8951,44.7592],[14.1746,45.0104]]]]},"properties":{"NAME":"Venice","SUBJECTO":"Venice","PARTOF":"Venice","BORDERPRECISION":1,"LINK":null}},
{"type":"Feature","geometry":{"type":"Polygon","coordinates":[[[9.4322,42.7941],[8.5004,42.3598],[9.173,41.3499],[9.4322,42.7941]]]},"properties":{"NAME":"Corsica","SUBJECTO":"Corsica","PARTOF":"Corsica","BORDERPRECISION":1,"LINK":null}},
{"type":"Feature","geometry":{"type":"MultiPolygon","coordinates":[[[[115.9559,-3.1993],[114.6347,-1.6592],[112.8011,-1.8749],[111.3329,-1.3698],[110.1023,-3.0785],[111.5872,-2.7957],[111.7395,-3.647],[112.7954,-2.971],[113.6084,-3.6111],[114.2185,-3.4319],[114.5809,-4.2954],[115.9559,-3.1993]]],[[[109.217,-7.0144],[109.1153,-7.7388],[114.3293,-8.783],[114.2308,-7.9315],[112.6784,-7.7188],[112.2748,-7.0269],[110.8146,-6.5343],[110.2426,-7.0313],[109.217,-7.0144]]],[[[117.9377,-8.54],[117.8172,-8.8136],[116.9584,-8.5293],[116.6632,-9.0593],[118.9705,-8.881],[118.7608,-8.3793],[118.462,-8.5961],[117.8062,-8.178],[117.9377,-8.54]]],[[[115.0724,-8.7814],[115.5005,-8.469],[114.4575,-8.3314],[115.0724,-8.7814]]]]},"properties":{"NAME":"East Java","SUBJECTO":"East Java","PARTOF":"East Java","BORDERPRECISION":1,"LINK":null}},
{"type":"Feature","geometry":{"type":"Polygon","coordinates":[[[102.0437,37.7381],[109.8888,37.9418],[110.5001,39.8776],[109.3794,41.2021],[108.3605,41.5078],[101.4324,41.2021],[98.9872,41.8134],[96.2364,41.5078],[92.2629,42.1191],[86.9111,41.4059],[85.233,40.9984],[85.1311,40.1833],[85.8443,39.572],[88.2895,38.9607],[96.2364,38.7569],[99.8023,37.84],[102.0437,37.7381]]]},"properties":{"NAME":"Xixia","SUBJECTO":"Xixia","PARTOF":"Xixia","BORDERPRECISION":1,"LINK":null}},
{"type":"Feature","geometry":{"type":"MultiPolygon","coordinates":[[[[80.5629,5.9317],[81.4339,6.2703],[81.8662,7.0846],[80.1096,9.6866],[79.6746,8.8049],[79.8541,7.0612],[80.5629,5.9317]]],[[[75.4399,11.7498],[76.7035,8.7064],[77.3414,8.0533],[77.8998,8.2578],[78.3138,8.9958],[79.1596,9.2772],[79.2225,10.1922],[79.7899,10.2506],[79.7107,11.4449],[80.3135,13.1045],[80.0894,15.1752],[80.4598,15.7731],[78.203,14.8143],[75.4399,11.7498]]]]},"properties":{"NAME":"Chola state","SUBJECTO":"Chola state","PARTOF":"Chola state","BORDERPRECISION":1,"LINK":null}},
{"type":"Feature","geometry":{"type":"Polygon","coordinates":[[[88.2895,38.9607],[87.6782,38.655],[88.0857,38.1456],[79.8331,35.4966],[79.8076,33.0578],[79.8076,30.7092],[80.6735,29.6829],[81.1079,30.1914],[82.0355,30.1914],[85.862,28.2009],[85.088,27.6921],[89.5749,27.2988],[94.1529,27.6685],[94.4917,26.5069],[96.4276,26.7005],[98.6372,27.4787],[100.6816,28.691],[100.6866,31.3951],[103.1549,33.2826],[103.2033,34.1053],[102.088,34.8657],[101.6876,36.3074],[102.0437,37.7381],[99.8023,37.84],[96.2364,38.7569],[88.2895,38.9607]]]},"properties":{"NAME":"Tibet","SUBJECTO":"Tibet","PARTOF":"Tibet","BORDERPRECISION":1,"LINK":null}},
{"type":"Feature","geometry":{"type":"Polygon","coordinates":[[[102.0437,37.7381],[101.6876,36.3074],[102.088,34.8657],[103.2033,34.1053],[103.1549,33.2826],[100.6866,31.3951],[100.6816,28.691],[101.219,26.9909],[102.9613,26.7973],[105.1876,25.8294],[106.5854,22.9189],[107.4178,21.1858],[108.555,21.8234],[109.1174,21.399],[109.5161,21.5968],[109.7116,20.5682],[110.2713,20.3153],[110.2388,21.2807],[112.7495,21.7561],[113.3777,22.1639],[113.4626,22.7739],[114.5587,22.4649],[116.3406,22.9133],[117.8491,24.0471],[117.9249,24.5617],[118.8129,24.8494],[119.4286,25.6509],[119.4289,26.5908],[121.2597,28.1823],[121.7703,29.8343],[119.9437,30.1162],[121.5689,30.7101],[121.2683,31.4523],[121.606,31.8276],[119.0032,34.9395],[119.9138,36.1434],[122.2556,36.7337],[122.3929,37.3006],[120.6581,37.7365],[118.9546,37.0771],[118.8752,37.9494],[117.5895,38.2845],[117.5101,38.7656],[115.6962,39.572],[111.417,39.572],[110.5001,39.8776],[109.8888,37.9418],[102.0437,37.7381]]]},"properties":{"NAME":"Song Empire","SUBJECTO":"Song Empire","PARTOF":"Song Empire","BORDERPRECISION":1,"LINK":null}},
{"type":"Feature","geometry":{"type":"Polygon","coordinates":[[[101.219,26.9909],[98.6272,25.2042],[99.4823,21.6588],[103.7869,20.2218],[104.5584,20.1668],[104.8488,21.7639],[106.5854,22.9189],[105.1876,25.8294],[102.9613,26.7973],[101.219,26.9909]]]},"properties":{"NAME":"Nan Chao","SUBJECTO":"Nan Chao","PARTOF":"Nan Chao","BORDERPRECISION":1,"LINK":null}},
{"type":"Feature","geometry":{"type":"Polygon","coordinates":[[[106.5854,22.9189],[104.8488,21.7639],[104.5584,20.1668],[103.7869,20.2218],[103.0581,17.9987],[104.1113,17.9987],[104.933,17.4509],[105.3997,16.331],[106.4515,16.188],[107.3753,16.6915],[105.5326,18.8442],[105.9649,19.8805],[107.4178,21.1858],[106.5854,22.9189]]]},"properties":{"NAME":"Đại Việt","SUBJECTO":"Đại Việt","PARTOF":"Đại Việt","BORDERPRECISION":1,"LINK":null}},
{"type":"Feature","geometry":{"type":"Polygon","coordinates":[[[106.4515,16.188],[107.8978,13.6815],[107.8978,12.5684],[106.9299,11.8424],[106.7732,10.6392],[107.412,10.3674],[108.6959,11.1452],[109.3071,12.9063],[108.7861,15.0906],[107.3753,16.6915],[106.4515,16.188]]]},"properties":{"NAME":"Champa City States","SUBJECTO":"Champa City States","PARTOF":"Champa","BORDERPRECISION":1,"LINK":null}},
{"type":"Feature","geometry":{"type":"Polygon","coordinates":[[[97.4185,16.4828],[97.5318,18.8825],[96.6993,19.1243],[94.2441,18.5869],[94.1444,16.0057],[94.8193,16.2105],[95.3298,15.6779],[96.6629,16.6972],[96.7704,17.3327],[97.4185,16.4828]]]},"properties":{"NAME":"Mon state","SUBJECTO":"Mon state","PARTOF":"Mon state","BORDERPRECISION":1,"LINK":null}},
{"type":"Feature","geometry":{"type":"Polygon","coordinates":[[[99.4823,21.6588],[97.5318,18.8825],[97.4185,16.4828],[97.9898,14.2066],[101.6061,15.5691],[103.0581,17.9987],[103.7869,20.2218],[99.4823,21.6588]]]},"properties":{"NAME":"Harapunchai","SUBJECTO":"Harapunchai","PARTOF":"Harapunchai","BORDERPRECISION":1,"LINK":null}},
{"type":"Feature","geometry":{"type":"Polygon","coordinates":[[[96.6993,19.1243],[96.476,21.7639],[95.4596,22.7319],[94.2981,22.2963],[93.9656,19.1944],[94.2441,18.5869],[96.6993,19.1243]]]},"properties":{"NAME":"Pyu state","SUBJECTO":"Pyu state","PARTOF":"Pyu state","BORDERPRECISION":1,"LINK":null}},
{"type":"Feature","geometry":{"type":"Polygon","coordinates":[[[140.8698,-2.7948],[137.7039,-1.6333],[135.2464,-3.5389],[134.557,-2.7078],[134.2831,-2.8546],[133.9073,-1.0061],[132.254,-0.5267],[131.2114,-1.0246],[131.0644,-1.5397],[131.8156,-1.6652],[132.219,-2.3443],[133.855,-2.2454],[133.7808,-2.7222],[132.0158,-2.8214],[132.8272,-3.506],[132.9316,-4.2684],[133.7525,-3.1862],[134.0406,-3.9482],[137.8236,-5.4272],[139.0283,-7.0199],[138.6496,-7.1415],[139.1561,-7.7251],[138.917,-8.3167],[139.9769,-8.2382],[140.9476,-9.2739],[142.6074,-9.3766],[143.3311,-9],[142.2489,-8.3095],[143.4368,-8.3578],[143.6648,-7.6709],[144.6274,-7.7832],[145.8196,-8.0984],[147.6155,-10.084],[150.4946,-10.7389],[150.4176,-10.2941],[149.5674,-9.9273],[149.8299,-9.7106],[149.1757,-9.5531],[149.1977,-9.1208],[148.4588,-9.097],[147.1512,-7.5617],[146.9091,-6.8948],[147.7386,-6.7405],[147.3765,-6.1248],[145.6081,-5.5248],[145.7282,-4.997],[144.5427,-3.9954],[140.8698,-2.7948]]]},"properties":{"NAME":"Papuans","SUBJECTO":"Papuans","PARTOF":"Papuans","BORDERPRECISION":1,"LINK":null}},
{"type":"Feature","geometry":{"type":"Polygon","coordinates":[[[110.5001,39.8776],[111.417,39.572],[115.6962,39.572],[117.5101,38.7656],[117.9101,39.2602],[118.9776,39.2241],[121.0106,40.8507],[122.1079,40.3537],[121.0653,38.7503],[124.1108,39.8754],[129.8247,41.8614],[131.8652,43.2904],[133.709,45.4144],[133.0277,46.5292],[131.9129,46.5292],[127.5775,44.4235],[123.6138,43.9899],[113.8283,43.2467],[108.3605,41.5078],[109.3794,41.2021],[110.5001,39.8776]]]},"properties":{"NAME":"Liao","SUBJECTO":"Liao","PARTOF":"Liao","BORDERPRECISION":1,"LINK":null}},
{"type":"Feature","geometry":{"type":"Polygon","coordinates":[[[99.8584,2.9044],[98.1455,4.0699],[97.3841,5.1801],[95.2832,5.5505],[95.5609,4.5345],[97.2545,3.1402],[97.5971,2.2514],[98.7103,2.8537],[99.8584,2.9044]]]},"properties":{"NAME":"minor Hindu and Buddhist states","SUBJECTO":"minor Hindu and Buddhist states","PARTOF":"minor Hindu and Buddhist states","BORDERPRECISION":1,"LINK":null}},
{"type":"Feature","geometry":{"type":"Polygon","coordinates":[[[47.0639,15.7482],[46.2769,17.1178],[45.2404,17.6937],[42.7637,16.6455],[43.4836,12.93],[44.4405,12.6398],[48.8793,14.1687],[47.0639,15.7482]]]},"properties":{"NAME":"Yemen","SUBJECTO":"Yemen","PARTOF":"Yemen","BORDERPRECISION":1,"LINK":null}},
{"type":"Feature","geometry":{"type":"Polygon","coordinates":[[[48.8793,14.1687],[51.9504,15.5405],[52.8943,16.61],[54.9106,16.9701],[55.3895,17.8097],[56.4576,18.0916],[57.1862,18.9381],[53.9385,19.1546],[50.5111,17.1467],[47.8376,16.4217],[47.0639,15.7482],[48.8793,14.1687]]]},"properties":{"NAME":"Hadramaut","SUBJECTO":"Hadramaut","PARTOF":"Hadramaut","BORDERPRECISION":1,"LINK":null}},
{"type":"Feature","geometry":{"type":"Polygon","coordinates":[[[59.8373,22.2792],[58.6285,23.4583],[56.7942,24.2676],[56.1613,25.4733],[56.3671,26.2361],[54.7708,24.7335],[55.5544,23.5191],[57.7165,22.1893],[59.8373,22.2792]]]},"properties":{"NAME":"Muscat","SUBJECTO":"Muscat","PARTOF":"Muscat","BORDERPRECISION":1,"LINK":null}},
{"type":"Feature","geometry":{"type":"Polygon","coordinates":[[[68.0722,23.6752],[68.8645,24.4809],[71.1561,28.8782],[71.3196,31.2903],[71.4038,32.5322],[65.0247,28.3208],[63.6002,28.073],[64.1576,26.7724],[64.0592,25.401],[66.4323,25.4886],[66.6542,24.7839],[68.0722,23.6752]]]},"properties":{"NAME":"Kwarizm-Shah","SUBJECTO":"Kwarizm-Shah","PARTOF":"Kwarizm-Shah","BORDERPRECISION":1,"LINK":null}},
{"type":"Feature","geometry":{"type":"Polygon","coordinates":[[[71.4038,32.5322],[72.2104,33.3721],[69.3334,35.686],[67.3422,37.2129],[66.7099,37.2129],[66.5293,38.1162],[63.1215,39.8087],[54.9295,39.1591],[54.8676,36.8057],[55.6108,35.9386],[56.5398,35.9386],[62.857,28.4446],[63.6002,28.073],[65.0247,28.3208],[71.4038,32.5322]]]},"properties":{"NAME":"Ghaznavid Emirate","SUBJECTO":"Ghaznavid Emirate","PARTOF":"Ghaznavid Emirate","BORDERPRECISION":1,"LINK":null}},
{"type":"Feature","geometry":{"type":"Polygon","coordinates":[[[41.6805,41.7933],[43.1143,41.7118],[43.325,40.9533],[45.4319,41.459],[45.2598,42.4385],[41.1226,43.0191],[41.6805,41.7933]]]},"properties":{"NAME":"Georgia","SUBJECTO":"Georgia","PARTOF":"Georgia","BORDERPRECISION":1,"LINK":null}},
{"type":"Feature","geometry":{"type":"Polygon","coordinates":[[[43.325,40.9533],[42.6929,40.7005],[41.808,38.6779],[41.0074,38.3408],[44.842,36.7816],[46.8225,37.6666],[46.1483,39.6892],[45.4319,41.459],[43.325,40.9533]]]},"properties":{"NAME":"Armenia","SUBJECTO":"Armenia","PARTOF":"Armenia","BORDERPRECISION":1,"LINK":null}},
{"type":"Feature","geometry":{"type":"Polygon","coordinates":[[[63.6002,28.073],[62.857,28.4446],[56.5398,35.9386],[55.6108,35.9386],[54.8676,36.8057],[54.0674,36.9415],[51.417,36.4557],[48.8372,37.511],[49.5733,40.1765],[50.4668,40.3254],[48.2217,42.2794],[46.7382,41.7118],[46.7382,40.0263],[46.1483,39.6892],[46.8225,37.6666],[44.842,36.7816],[41.0074,38.3408],[37.5942,37.1609],[37.0263,35.7499],[38.3722,35.1409],[40.0291,34.391],[44.0832,30.337],[48.6172,25.687],[50.8573,23.8804],[51.5859,24.0032],[51.5059,25.8453],[51.0688,25.9455],[50.7783,24.4709],[49.9369,25.9558],[50.1218,26.7376],[48.855,27.5227],[48.1291,29.2682],[47.614,29.2722],[47.9572,29.9476],[49.2222,30.4775],[49.3214,30.1029],[50.1324,30.0664],[51.6113,27.827],[54.6461,26.3913],[56.4309,27.1066],[57.2548,25.7933],[57.9005,25.5409],[61.344,25.0269],[64.0592,25.401],[64.1576,26.7724],[63.6002,28.073]]]},"properties":{"NAME":"Buwayhid Emirates","SUBJECTO":"Buwayhid Emirates","PARTOF":"Buwayhid Emirates","BORDERPRECISION":1,"LINK":null}},
{"type":"Feature","geometry":{"type":"MultiPolygon","coordinates":[[[[41.6805,41.7933],[40.361,40.9634],[38.314,40.9209],[36.3829,41.2375],[35.0019,42.0432],[33.1555,41.9496],[31.2177,41.0541],[29.1612,41.2164],[29.3204,40.7411],[29.8827,40.7464],[28.9016,40.6201],[29.0524,40.3347],[27.0561,40.4297],[26.186,39.9972],[26.0641,39.4555],[26.9575,39.5483],[26.6022,39.2557],[27.0349,38.8211],[26.3932,38.1044],[27.1398,37.8891],[27.3081,36.9207],[27.9988,36.9094],[28.0142,36.5272],[29.0023,36.6948],[29.4719,36.0907],[30.3949,36.118],[30.9053,36.7942],[33.1713,35.9709],[35.8909,36.7711],[35.8519,34.4929],[37.0263,35.7499],[37.5942,37.1609],[41.0074,38.3408],[41.808,38.6779],[42.6929,40.7005],[43.325,40.9533],[43.1143,41.7118],[41.6805,41.7933]]],[[[27.4947,42.4009],[23.2672,42.0489],[22.4921,40.4983],[23.9066,39.9972],[23.6272,40.3453],[24.2954,40.1765],[23.6347,40.7728],[25.0189,41.0171],[26.5565,40.4983],[26.1409,40.0447],[27.4742,40.9628],[28.8278,40.9147],[29.0811,41.2005],[27.4947,42.4009]]],[[[24.6935,34.9405],[26.2735,35.3127],[23.5294,35.5696],[24.6935,34.9405]]],[[[22.6951,39.8345],[20.0908,39.6025],[21.1595,39.0048],[20.7718,38.8509],[21.1724,38.3478],[23.1163,38.1574],[21.2284,37.9049],[21.5882,36.9814],[22.3903,36.5244],[22.9826,36.6148],[22.6423,37.5849],[23.4181,37.4693],[22.8981,37.9],[23.9873,37.7634],[23.8039,38.3465],[22.4905,38.8769],[22.8509,39.3661],[23.2361,39.2032],[22.6951,39.8345]]],[[[15.4486,41.8567],[15.6662,40.0919],[16.2122,38.778],[15.7852,37.9097],[17.1807,39.0222],[16.5321,39.6975],[16.9487,40.4811],[18.3649,39.7467],[18.5226,40.0941],[15.991,41.4061],[16.1874,41.8409],[15.4486,41.8567]]]]},"properties":{"NAME":"Byzantine Empire","SUBJECTO":"Byzantine Empire","PARTOF":"Byzantine Empire","BORDERPRECISION":1,"LINK":null}},
{"type":"Feature","geometry":{"type":"MultiPolygon","coordinates":[[[[15.4486,41.8567],[14.7385,42.0472],[13.5691,41.8564],[13.5973,41.7998],[14.029,41.4013],[13.4984,41.3019],[15.6662,40.0919],[15.4486,41.8567]]],[[[14.622,36.7761],[15.3013,37.0579],[15.3867,38.2055],[12.5166,37.9192],[14.622,36.7761]]]]},"properties":{"NAME":"Dutchy of Benevento","SUBJECTO":"Dutchy of Benevento","PARTOF":"Dutchy of Benevento","BORDERPRECISION":1,"LINK":null}},
{"type":"Feature","geometry":{"type":"Polygon","coordinates":[[[37.0263,35.7499],[35.8519,34.4929],[34.5007,31.6211],[33.7096,30.9957],[32.0765,31.0137],[30.996,31.4689],[28.9664,30.7848],[25.2582,31.4379],[21.6734,32.8156],[20.0684,32.0371],[19.9815,30.7217],[18.915,30.2049],[15.8433,31.285],[15.0098,32.3634],[12.5648,32.7396],[10.4126,33.6311],[10.0195,34.0815],[11.1251,35.2406],[10.5115,36.0862],[11.0238,37.0683],[10.3928,36.7166],[9.7322,37.2824],[7.9132,36.7752],[6.3229,37.0906],[5.3827,36.6745],[2.8099,36.7139],[1.5797,36.5139],[1.2374,35.8864],[0.8706,33.0739],[0.4578,32.5474],[2.4531,32.6687],[7.8923,32.5926],[17.002,28.751],[21.6791,28.0819],[25.4382,28.0082],[27.4283,27.1974],[29.3447,24.028],[32.5142,23.7331],[35.1899,24.3999],[32.4384,29.7755],[34.2412,27.7589],[35.0734,29.4189],[34.7639,28.0967],[36.6693,26.0168],[37.2015,24.6583],[38.4901,23.6127],[39.7641,20.4068],[40.8198,19.6847],[41.9226,20.7665],[41.8125,21.7126],[37.4209,27.8341],[36.5935,29.7873],[37.2119,33.5665],[38.3722,35.1409],[37.0263,35.7499]]]},"properties":{"NAME":"Fatimid Caliphate","SUBJECTO":"Fatimid Caliphate","PARTOF":"Fatimid Caliphate","BORDERPRECISION":1,"LINK":null}},
{"type":"Feature","geometry":{"type":"Polygon","coordinates":[[[8.3428,44.2202],[7.5144,45.3834],[8.4927,46.1171],[8.4111,47.4622],[6.2518,47.9572],[5.2683,46.318],[5.8406,45.3848],[6.9426,44.8687],[6.8857,43.9015],[7.3971,43.7641],[8.3428,44.2202]]]},"properties":{"NAME":"Burgandy","SUBJECTO":"Burgandy","PARTOF":"Burgandy","BORDERPRECISION":1,"LINK":null}},
{"type":"Feature","geometry":{"type":"Polygon","coordinates":[[[15.9117,45.631],[14.88,45.484],[14.7985,45.8645],[14.3545,45.3229],[15.4123,43.9348],[16.6398,43.3897],[16.8077,44.9351],[15.9117,45.631]]]},"properties":{"NAME":"Croatia","SUBJECTO":"Croatia","PARTOF":"Croatia","BORDERPRECISION":1,"LINK":null}},
{"type":"Feature","geometry":{"type":"Polygon","coordinates":[[[16.8077,44.9351],[16.6398,43.3897],[19.607,41.7615],[19.3691,40.2603],[20.0908,39.6025],[22.6951,39.8345],[22.4921,40.4983],[23.2672,42.0489],[27.4947,42.4009],[29.579,45.0575],[28.0186,45.3155],[27.9542,44.2505],[26.4522,44.2505],[25.4726,43.728],[23.5134,44.0546],[22.9257,43.7933],[22.6645,44.6423],[16.8077,44.9351]]]},"properties":{"NAME":"Bulgar Khanate","SUBJECTO":"Bulgar Khanate","PARTOF":"Bulgar Khanate","BORDERPRECISION":1,"LINK":null}},
{"type":"Feature","geometry":{"type":"Polygon","coordinates":[[[39.2089,55.561],[38.3697,58.2636],[36.6221,58.6044],[28.5877,56.7765],[27.6906,54.8805],[24.1694,54.2802],[24.4501,52.9576],[26.5011,52.7364],[27.4185,50.8539],[31.5863,51.2977],[31.6537,50.3407],[36.6578,51.9458],[39.2089,55.561]]]},"properties":{"NAME":"Other Rus Principalities","SUBJECTO":"Other Rus Principalities","PARTOF":"Other Rus Principalities","BORDERPRECISION":1,"LINK":null}},
{"type":"Feature","geometry":{"type":"Polygon","coordinates":[[[22.8815,49.2245],[22.509,50.6366],[23.4795,53.0238],[24.2657,52.9702],[24.1694,54.2802],[14.1341,52.4089],[14.6474,50.7637],[12.7725,50.4376],[12.1203,49.5409],[13.0578,48.5627],[14.892,48.1958],[16.4001,48.4812],[16.4816,48.1958],[19.3805,49.8035],[19.8949,49.4707],[20.0159,49.8035],[21.3169,49.864],[22.8815,49.2245]]]},"properties":{"NAME":"Poland","SUBJECTO":"Poland","PARTOF":"Poland","BORDERPRECISION":1,"LINK":null}},
{"type":"Feature","geometry":{"type":"Polygon","coordinates":[[[17.0972,16.219],[12.8779,16.0598],[12.639,14.4676],[13.8332,13.4327],[15.8193,13.1192],[18.7689,13.5123],[19.4058,14.4676],[19.167,15.1841],[17.0972,16.219]]]},"properties":{"NAME":"Kanem","SUBJECTO":"Kanem","PARTOF":"Kanem","BORDERPRECISION":1,"LINK":null}},
{"type":"Feature","geometry":{"type":"Polygon","coordinates":[[[29.3447,24.028],[29.2774,18.8462],[29.5162,17.652],[30.7899,15.5026],[31.6656,16.6171],[33.8151,16.7763],[35.3277,15.423],[37.0791,17.0947],[37.8951,18.5601],[37.3982,18.915],[36.9035,21.7286],[35.7463,22.9143],[35.7247,23.9118],[35.1899,24.3999],[32.5142,23.7331],[29.3447,24.028]]]},"properties":{"NAME":"Makkura","SUBJECTO":"Makkura","PARTOF":"Makkura","BORDERPRECISION":1,"LINK":null}},
{"type":"Feature","geometry":{"type":"Polygon","coordinates":[[[30.7899,15.5026],[30.4715,13.5123],[30.7899,11.2037],[31.7453,10.2484],[32.847,10.1047],[34.452,10.2484],[35.4073,11.2833],[35.3277,15.423],[33.8151,16.7763],[31.6656,16.6171],[30.7899,15.5026]]]},"properties":{"NAME":"Alwa","SUBJECTO":"Alwa","PARTOF":"Alwa","BORDERPRECISION":1,"LINK":null}},
{"type":"Feature","geometry":{"type":"Polygon","coordinates":[[[-16.1322,15.6023],[-15.6726,13.8558],[-14.6614,13.7639],[-13.7422,14.4074],[-13.6503,15.7862],[-14.3856,16.5216],[-15.7645,16.2458],[-16.1322,15.6023]]]},"properties":{"NAME":"Takrur","SUBJECTO":"Takrur","PARTOF":"Takrur","BORDERPRECISION":1,"LINK":null}},
{"type":"Feature","geometry":{"type":"Polygon","coordinates":[[[-11.6995,17.1137],[-11.804,15.7553],[-8.8783,14.2925],[-6.9976,14.397],[-4.8033,15.5463],[-5.0123,16.6957],[-7.8335,17.6361],[-11.6995,17.1137]]]},"properties":{"NAME":"Ghana","SUBJECTO":"Ghana","PARTOF":"Ghana","BORDERPRECISION":1,"LINK":null}},
{"type":"Feature","geometry":{"type":"Polygon","coordinates":[[[-9.5799,13.3283],[-9.5799,12.3848],[-9.1308,11.9131],[-7.6336,11.347],[-5.0885,11.5357],[-4.6394,12.0074],[-5.0137,13.4227],[-9.0559,13.8945],[-9.5799,13.3283]]]},"properties":{"NAME":"Mali","SUBJECTO":"Mali","PARTOF":"Mali","BORDERPRECISION":1,"LINK":null}},
{"type":"Feature","geometry":{"type":"Polygon","coordinates":[[[-77.9917,-10.2345],[-77.292,-8.9832],[-77.7167,-8.2644],[-79.1476,-8.0929],[-77.9917,-10.2345]]]},"properties":{"NAME":"Chimú Empire","SUBJECTO":"Chimú Empire","PARTOF":"Chimú Empire","BORDERPRECISION":1,"LINK":null}},
{"type":"Feature","geometry":{"type":"Polygon","coordinates":[[[-77.9917,-10.2345],[-75.7853,-14.7272],[-71.6119,-17.2215],[-69.5361,-13.8233],[-75.5764,-10.6126],[-77.5147,-6.9702],[-79.8749,-6.0875],[-80.3428,-6.5261],[-79.1476,-8.0929],[-77.7167,-8.2644],[-77.292,-8.9832],[-77.9917,-10.2345]]]},"properties":{"NAME":"Huari Empire","SUBJECTO":"Huari Empire","PARTOF":"Huari Empire","BORDERPRECISION":1,"LINK":null}},
{"type":"Feature","geometry":{"type":"Polygon","coordinates":[[[-71.6119,-17.2215],[-70.296,-18.629],[-70.1106,-21.7479],[-70.5732,-23.1656],[-70.3981,-25.2489],[-71.4301,-29.1005],[-71.5198,-32.1812],[-70.0275,-30.6778],[-68.0597,-26.4681],[-67.2376,-18.3642],[-67.9423,-15.428],[-69.5361,-13.8233],[-71.6119,-17.2215]]]},"properties":{"NAME":"Tiahuanaco Empire","SUBJECTO":"Tiahuanaco Empire","PARTOF":"Tiahuanaco Empire","BORDERPRECISION":1,"LINK":null}},
{"type":"Feature","geometry":{"type":"Polygon","coordinates":[[[-90,19.3815],[-92.107,18.5159],[-88.327,17.1566],[-88.3114,18.7415],[-87.8771,18.3809],[-87.8582,19.5823],[-86.9216,21.3006],[-88.3337,21.59],[-89.8628,21.2499],[-90,19.3815]]]},"properties":{"NAME":"Maya city-states","SUBJECTO":"Maya city-states","PARTOF":"Maya city-states","BORDERPRECISION":1,"LINK":null}},
{"type":"Feature","geometry":{"type":"Polygon","coordinates":[[[-95.1302,16.2995],[-93.5879,15.7411],[-94.242,18.2402],[-96.0123,18.9293],[-97.7093,21.801],[-100.2548,22.5719],[-100.8917,20.7409],[-105.6873,20.4026],[-103.4939,18.3539],[-101.9926,18.0265],[-100.4126,17.0573],[-96.7517,15.7811],[-95.1302,16.2995]],[[-100.016,21.2981],[-99.0607,21.6166],[-97.5481,20.5816],[-97.7869,19.4671],[-99.2995,18.3526],[-100.4937,18.3526],[-100.6529,18.9098],[-100.016,21.2981]]]},"properties":{"NAME":"Mesoamerican city-states and chiefdoms","SUBJECTO":"Mesoamerican city-states and chiefdoms","PARTOF":"Mesoamerican city-states and chiefdoms","BORDERPRECISION":1,"LINK":null}},
{"type":"Feature","geometry":{"type":"Polygon","coordinates":[[[-100.016,21.2981],[-100.6529,18.9098],[-100.4937,18.3526],[-99.2995,18.3526],[-97.7869,19.4671],[-97.5481,20.5816],[-99.0607,21.6166],[-100.016,21.2981]]]},"properties":{"NAME":"Toltec Empire","SUBJECTO":"Toltec Empire","PARTOF":"Toltec Empire","BORDERPRECISION":1,"LINK":null}},
{"type":"Feature","geometry":{"type":"MultiPolygon","coordinates":[[[[-2.7502,51.644],[-2.9145,53.2671],[-4.4919,52.991],[-4.1236,52.3733],[-5.2488,51.8602],[-2.7502,51.644]]],[[[-7.4275,55.0638],[-8.3454,55.0953],[-8.5901,54.2028],[-10.1597,54.1331],[-9.6965,53.8734],[-10.1598,53.3741],[-8.9236,53.1606],[-9.5258,52.9046],[-9.1926,52.5545],[-10.4692,52.2066],[-9.8191,51.4346],[-6.406,52.2144],[-5.7849,54.7374],[-6.1165,55.1602],[-7.4275,55.0638]]]]},"properties":{"NAME":"Celtic kingdoms","SUBJECTO":"Celtic kingdoms","PARTOF":"Celtic kingdoms","BORDERPRECISION":1,"LINK":null}},
{"type":"Feature","geometry":{"type":"Polygon","coordinates":[[[-2.8859,54.1687],[-1.8969,54.3362],[-1.942,55.5561],[-3.895,55.9851],[-2.7209,56.1782],[-3.1524,56.3368],[-2.1504,57.572],[-4.8314,57.7737],[-4.1216,54.7624],[-3.1525,54.8381],[-3.5692,54.415],[-2.8859,54.1687]]]},"properties":{"NAME":"Scotland","SUBJECTO":"Scotland","PARTOF":"Scotland","BORDERPRECISION":1,"LINK":null}},
{"type":"Feature","geometry":{"type":"MultiPolygon","coordinates":[[[[11.7364,57.6982],[11.8766,57.3252],[12.318,57.6796],[13.4324,56.5239],[15.427,56.7657],[16.0632,56.3962],[16.4429,58.6344],[18.6113,59.3333],[17.5749,59.2141],[16.4076,59.4475],[18.0301,59.3593],[19.0373,59.8632],[17.1885,60.6743],[17.8682,62.7886],[14.3437,62.9481],[12.174,60.9564],[12.4879,58.5629],[11.7364,57.6982]]],[[[22.1487,63.1367],[21.0337,62.4773],[21.4432,60.6936],[22.3921,60.1212],[24.4211,59.8698],[26.5516,60.5707],[27.9659,60.5036],[22.957,61.3893],[22.1487,63.1367]]],[[[18.1689,56.91],[19.0047,57.9086],[18.1192,57.5311],[18.1689,56.91]]]]},"properties":{"NAME":"Sweden","SUBJECTO":"Sweden","PARTOF":"Sweden","BORDERPRECISION":1,"LINK":null}},
{"type":"Feature","geometry":{"type":"MultiPolygon","coordinates":[[[[11.8766,57.3252],[12.8716,56.5115],[12.8024,55.3529],[14.1172,55.3471],[14.6529,56.1206],[15.7705,56.0332],[16.0632,56.3962],[15.427,56.7657],[13.4324,56.5239],[12.318,57.6796],[11.8766,57.3252]]],[[[8.1835,56.7985],[10.2566,57.0059],[10.5581,57.7451],[8.1835,56.7985]]],[[[10.1417,54.3368],[9.5439,55.3513],[10.8887,56.3687],[9.3701,56.8823],[8.1245,56.2075],[8.884,54.2294],[10.1417,54.3368]]],[[[12.0526,55.7031],[11.1019,55.6337],[11.9696,54.9542],[12.444,55.9677],[12.0526,55.7031]]]]},"properties":{"NAME":"Denmark","SUBJECTO":"Denmark","PARTOF":"Denmark","BORDERPRECISION":1,"LINK":null}},
{"type":"Feature","geometry":{"type":"MultiPolygon","coordinates":[[[[16.4816,48.1958],[16.4001,48.4812],[14.892,48.1958],[13.0578,48.5627],[12.1203,49.5409],[12.7725,50.4376],[14.6474,50.7637],[14.1341,52.4089],[11.6719,52.3534],[11.7535,52.8425],[10.5714,53.0463],[10.1417,54.3368],[8.884,54.2294],[9.125,53.7905],[8.175,53.3217],[7.3324,53.6044],[7.1599,53.164],[5.3895,53.1386],[5.4732,52.1766],[4.7188,52.8024],[3.6813,51.3214],[3.8203,50.0394],[5.3611,49.6968],[6.2518,47.9572],[8.4111,47.4622],[8.4927,46.1171],[7.5144,45.3834],[8.3428,44.2202],[9.9093,44.1105],[11.9634,42.0047],[12.6972,43.9348],[12.1762,45.2143],[12.1448,45.7628],[13.0809,45.9804],[13.3677,45.6945],[13.8,45.5664],[14.1746,45.0104],[14.3545,45.3229],[14.7985,45.8645],[14.88,45.484],[15.9117,45.631],[16.5353,46.3647],[16.4816,48.1958]]],[[[14.7385,42.0472],[13.9958,42.6134],[13.4147,42.3644],[13.5641,41.8662],[13.5691,41.8564],[14.7385,42.0472]]]]},"properties":{"NAME":"Holy Roman Empire","SUBJECTO":"Holy Roman Empire","PARTOF":"Holy Roman Empire","BORDERPRECISION":1,"LINK":null}},
{"type":"Feature","geometry":{"type":"Polygon","coordinates":[[[19.3344,57.9558],[19.0375,57.8964],[19.1261,57.8397],[19.3344,57.9558]]]},"properties":{"NAME":"Sweden","SUBJECTO":"Sweden","PARTOF":"Sweden","BORDERPRECISION":1,"LINK":null}},
{"type":"Feature","geometry":{"type":"Polygon","coordinates":[[[-60.9408,14.7408],[-61.2267,14.8322],[-60.855,14.4031],[-60.9408,14.7408]]]},"properties":{"NAME":"Arawaks","SUBJECTO":"Arawaks","PARTOF":"Arawaks","BORDERPRECISION":1,"LINK":null}},
{"type":"Feature","geometry":{"type":"Polygon","coordinates":[[[-58.1277,49.4956],[-57.8142,49.2015],[-58.6805,48.7026],[-58.1395,48.5991],[-59.1566,47.6701],[-54.7826,47.7112],[-55.9039,47.064],[-55.4079,46.9479],[-54.2114,47.8036],[-54.0824,46.9895],[-53.6437,47.1792],[-53.0696,46.7313],[-52.7352,47.5457],[-53.8817,48.1893],[-53.1239,48.5958],[-54.1296,48.8357],[-53.5091,49.2819],[-55.1073,49.2788],[-56.0671,50.1033],[-56.7326,49.6884],[-55.4716,51.5245],[-56.7015,51.1845],[-58.1277,49.4956]]]},"properties":{"NAME":"Boethuk","SUBJECTO":"Boethuk","PARTOF":"Boethuk","BORDERPRECISION":1,"LINK":null}},
{"type":"Feature","geometry":{"type":"MultiPolygon","coordinates":[[[[-155.9313,20.2837],[-155.7828,18.9455],[-154.92,19.5552],[-155.9313,20.2837]]],[[[-156.1185,20.7901],[-156.8225,20.9399],[-156.5067,20.5989],[-156.1185,20.7901]]]]},"properties":{"NAME":"Polynesians","SUBJECTO":"Polynesians","PARTOF":"Polynesians","BORDERPRECISION":1,"LINK":null}},
{"type":"Feature","geometry":{"type":"Polygon","coordinates":[[[-60.2217,53.3249],[-62.4855,54.5131],[-64.3569,50.3063],[-60.1378,50.4117],[-55.659,52.1873],[-56.127,53.4658],[-58.7882,52.5726],[-60.1715,53.2986],[-59.717,53.4313],[-60.2217,53.3249]]]},"properties":{"NAME":"Innu","SUBJECTO":"Innu","PARTOF":"Innu","BORDERPRECISION":1,"LINK":null}},
{"type":"Feature","geometry":{"type":"Polygon","coordinates":[[[-0.5241,42.7578],[-1.9146,43.3054],[-3.3561,43.3953],[-2.5834,41.3585],[-1.0044,41.9188],[-0.5241,42.7578]]]},"properties":{"NAME":"Navarre","SUBJECTO":"Navarre","PARTOF":"Navarre","BORDERPRECISION":1,"LINK":null}},
{"type":"Feature","geometry":{"type":"Polygon","coordinates":[[[-3.3561,43.3953],[-5.0864,43.4949],[-4.4443,40.8943],[-2.5834,41.3585],[-3.3561,43.3953]]]},"properties":{"NAME":"Castilla","SUBJECTO":"Castilla","PARTOF":"Castilla","BORDERPRECISION":1,"LINK":null}},
{"type":"Feature","geometry":{"type":"Polygon","coordinates":[[[17.7312,64.5588],[17.2609,64.2061],[20.8733,64.0328],[22.4898,65.8834],[24.2148,65.7859],[25.3251,64.8024],[23.1306,63.7834],[27.2316,63.3545],[30.604,64.938],[34.6012,65.4839],[32.2194,66.9937],[38.0479,66.0074],[39.9775,66.2009],[41.2553,66.937],[40.8261,67.66],[37.2459,68.7935],[33.3156,69.0713],[32.0716,69.8835],[29.7286,69.6976],[28.7301,70.1359],[30.7542,70.4304],[28.7948,70.8648],[27.8754,70.4251],[28.2112,71.0179],[26.6174,70.392],[26.6065,70.9146],[25.263,70.1065],[25.389,70.9046],[23.2036,69.9428],[22.3064,70.2156],[20.1965,69.3177],[20.1577,69.7478],[17.7312,64.5588]]]},"properties":{"NAME":"Sámi","SUBJECTO":"Sámi","PARTOF":"Sámi","BORDERPRECISION":1,"LINK":null}},
{"type":"Feature","geometry":{"type":"Polygon","coordinates":[[[-81.3628,23.1209],[-83.6904,22.814],[-84.7064,21.7696],[-82.5624,22.7084],[-81.3513,22.1507],[-81.3628,23.1209]]]},"properties":{"NAME":"Guanahatabeyes","SUBJECTO":"Guanahatabeyes","PARTOF":"Guanahatabeyes","BORDERPRECISION":1,"LINK":null}},
{"type":"Feature","geometry":{"type":"MultiPolygon","coordinates":[[[[-81.3513,22.1507],[-78.7279,21.6168],[-78.4504,20.969],[-77.0987,20.5333],[-77.663,19.9028],[-74.1734,20.1899],[-79.9846,22.8791],[-81.3628,23.1209],[-81.3513,22.1507]]],[[[-69.8975,19.5062],[-70.8816,19.9299],[-73.2662,19.9185],[-73.4926,19.7528],[-72.7672,19.5255],[-72.2978,18.662],[-74.4418,18.524],[-73.857,18.112],[-71.9782,18.2622],[-71.4008,17.7041],[-70.6955,18.5192],[-68.6647,18.1994],[-68.4771,18.7147],[-69.8975,19.5062]]],[[[-65.9515,18.4722],[-67.161,18.5141],[-67.152,17.9865],[-65.9674,18.0272],[-65.9515,18.4722]]],[[[-77.7695,18.5105],[-78.3249,18.3504],[-77.4253,17.8311],[-76.3186,17.9034],[-77.7695,18.5105]]],[[[-61.2686,16.3189],[-61.7836,16.3331],[-61.695,15.9492],[-61.2686,16.3189]]]]},"properties":{"NAME":"Taino","SUBJECTO":"Taino","PARTOF":"Taino","BORDERPRECISION":1,"LINK":null}},
{"type":"Feature","geometry":{"type":"MultiPolygon","coordinates":[[[[-116.8132,68.9118],[-119.979,69.3781],[-120.4026,67.9475],[-110.8602,65.9435],[-97.3611,65.1243],[-87.8245,64.347],[-87.1573,65.0596],[-90,65.9736],[-87.5498,65.3495],[-85.9871,66.1628],[-86.739,66.5651],[-83.7405,66.3063],[-84.7139,67.0703],[-83.1387,66.3735],[-81.4992,67.0689],[-82.6873,68.6975],[-81.583,68.602],[-81.4799,69.1886],[-84.5702,69.8333],[-85.4207,69.2944],[-84.6246,68.7539],[-87.3254,67.1689],[-88.5761,69.1],[-90,68.3691],[-90,69.489],[-92.6712,69.7424],[-91.6577,70.2858],[-94.4172,71.8843],[-96.3983,71.2028],[-96.464,70.1542],[-92.9925,69.5146],[-92.9855,68.9638],[-94.3425,69.1119],[-93.4141,68.5425],[-95.3225,68.0603],[-95.2587,67.0284],[-97.5718,68.3699],[-98.4071,68.159],[-97.2607,67.5951],[-98.3549,67.9353],[-101.913,67.7053],[-105.912,68.3394],[-107.662,67.9626],[-107.5276,66.563],[-108.095,67.3596],[-110.1334,67.9058],[-115.5617,67.8957],[-114.1945,68.4962],[-116.8132,68.9118]]],[[[-78.0648,58.4076],[-76.7724,57.6625],[-76.4623,56.5775],[-62.5097,57.9717],[-64.6706,60.1809],[-65.9291,58.4238],[-66.3281,58.8014],[-68.0046,58.1657],[-68.5694,58.7833],[-69.7258,58.5609],[-69.5363,60.9892],[-71.6734,61.2657],[-73.3946,62.355],[-75.3559,62.1816],[-77.3616,62.5175],[-78.1765,60.7418],[-77.3885,60.6943],[-77.2148,59.7475],[-78.4688,58.7095],[-78.0648,58.4076]]],[[[-85.0579,65.6091],[-85.5575,65.8636],[-86.0611,64.1405],[-87.1012,63.5447],[-85.6007,63.7476],[-85.1568,63.1847],[-83.1885,64.1818],[-80.696,63.4996],[-80.1794,63.722],[-81.8721,63.9907],[-82.1096,64.6436],[-84.8423,65.202],[-85.0579,65.6091]]],[[[-76.2692,67.2488],[-75.1463,67.577],[-75.8847,68.3431],[-77.2475,67.6548],[-76.2692,67.2488]]],[[[-97.4074,69.7487],[-99.365,68.9745],[-96.2127,68.5372],[-95.5146,68.8087],[-97.4074,69.7487]]],[[[-110.0794,72.5622],[-111.7255,72.3306],[-112.8389,72.9527],[-114.4727,72.6251],[-114.647,73.3549],[-118.3988,72.4757],[-118.9684,71.9088],[-115.517,71.4234],[-118.4988,71.0528],[-117.7607,70.7217],[-111.5437,70.3254],[-117.1929,70.123],[-116.6562,69.5159],[-113.7168,69.204],[-113.1522,68.5956],[-109.2094,68.8132],[-106.5924,69.4968],[-104.1878,68.8978],[-102.2779,68.954],[-101.8037,69.2413],[-103.3613,69.6391],[-100.9671,69.6284],[-101.0552,70.0308],[-104.5946,71.0479],[-105.6093,72.8711],[-108.1815,73.3829],[-108.0605,71.7571],[-110.4546,73.0127],[-110.0794,72.5622]]],[[[-101.042,72.7688],[-102.2792,73.1472],[-101.6537,72.3731],[-98.3719,71.37],[-98.484,71.8924],[-97.0552,71.7153],[-96.3509,72.5012],[-98.3937,73.1306],[-96.9367,73.7877],[-100.934,73.8603],[-99.963,73.1674],[-101.042,72.7688]]],[[[-95.0685,74.0641],[-94.5424,72.1898],[-94.2658,72.8527],[-92.0006,72.8411],[-90,73.9998],[-95.0685,74.0641]]],[[[-72.73,64.015],[-71.2581,63.5673],[-71.3189,63.0613],[-65.9403,61.79],[-68.8786,63.7503],[-67.6816,63.4527],[-67.7657,63.8025],[-64.7678,62.4774],[-65.2507,63.8716],[-64.4154,63.245],[-64.4739,63.7443],[-68.3757,66.2837],[-67.3055,65.9343],[-67.7491,66.4757],[-66.9128,66.5949],[-63.5406,64.9953],[-63.3809,65.927],[-62.8448,65.6143],[-62.0683,65.9368],[-62.6551,66.3385],[-61.2106,66.635],[-64.6138,67.1153],[-63.933,67.4126],[-64.8289,67.9533],[-66.7447,67.9273],[-68.6653,68.7161],[-68.3907,69.3337],[-66.6681,69.1861],[-68.2072,69.591],[-67.3307,70.0327],[-68.0208,70.2994],[-69.4627,69.9601],[-68.4694,70.5597],[-71.8815,70.9312],[-71.664,71.5133],[-73.2752,71.1608],[-73.886,71.665],[-75.0015,71.4526],[-74.3127,72.0394],[-75.6319,72.6109],[-77.896,72.7014],[-78.6625,71.8747],[-79.3296,72.3676],[-80.8631,72.0115],[-80.4887,73.037],[-81.9064,73.7517],[-85.5057,72.9404],[-84.4884,71.3493],[-85.891,71.1217],[-86.8554,72.8587],[-85.2542,73.7775],[-87.7426,73.7327],[-89.9972,71.5413],[-87.1688,71.0186],[-89.1498,70.9685],[-89.0185,70.6753],[-80.8294,69.7114],[-81.0128,70.1831],[-78.7129,70.0114],[-80.6605,70.7526],[-79.1011,70.6553],[-75.5517,69.2223],[-76.5464,68.7314],[-74.7523,69.043],[-73.1849,68.2958],[-72.3049,67.2636],[-74.3333,66.1626],[-73.4942,65.405],[-75.3676,65.2634],[-75.3559,64.9155],[-77.3584,65.3759],[-78.1034,64.5072],[-75.9355,64.2671],[-74.2555,64.7662],[-72.73,64.015]]],[[[-89.3694,75.6516],[-91.1564,75.9743],[-90,76.5908],[-93.0849,76.527],[-91.8668,74.7889],[-84.5679,74.6161],[-83.4487,75.0823],[-82.373,74.5555],[-80.3493,74.6159],[-79.5766,75.3957],[-81.5316,75.8585],[-86.179,75.4081],[-89.3694,75.6516]]],[[[-87.4533,82.1398],[-91.2186,81.8373],[-89.2355,80.8636],[-85.811,81.3945],[-85.5038,80.6181],[-78.9623,81.0342],[-77.5209,80.7499],[-81.7187,80.3854],[-80.7316,79.6585],[-86.1701,80.279],[-81.5972,78.7546],[-85.8068,78.9062],[-86.9172,78.2452],[-83.3188,77.374],[-87.8125,77.8756],[-87.0992,77.2807],[-89.4181,76.6103],[-85.0371,76.4069],[-84.6219,76.8917],[-80.8135,76.2377],[-77.8243,76.8876],[-82.1024,77.3161],[-78.8554,77.3738],[-78.3668,78.0329],[-76.2906,78.0107],[-74.9631,79.1223],[-77.2388,79.5827],[-73.6739,79.5177],[-74.2455,80.0427],[-70.4205,80.0504],[-65.2998,81.4584],[-67.5852,81.9613],[-61.9894,82.3119],[-70.5843,83.176],[-73.2534,82.7729],[-76.3821,83.1519],[-75.9249,82.5174],[-80.4146,82.8666],[-80.0924,81.9659],[-84.9466,82.3795],[-87.4533,82.1398]]],[[[-95.6285,77.0416],[-95.8734,76.5133],[-93.9376,76.3985],[-95.6285,77.0416]]],[[[-89.042,80.1666],[-93.4347,81.4398],[-96.4334,79.9334],[-95.0394,79.3962],[-90,79.1261],[-94.1893,79.1478],[-91.4238,78.305],[-90,78.6241],[-88.9447,78.3624],[-88.6607,78.9007],[-85.2532,79.2592],[-88.1504,80.4601],[-89.042,80.1666]]]]},"properties":{"NAME":"Dorset","SUBJECTO":"Dorset","PARTOF":"Dorset","BORDERPRECISION":1,"LINK":null}},
{"type":"Feature","geometry":{"type":"Polygon","coordinates":[[[-140.0518,62.4951],[-150.1289,63.324],[-160.9395,63.9849],[-162.9701,63.1025],[-164.2918,63.2498],[-166.1895,61.7489],[-165.8981,61.2703],[-163.6888,60.9233],[-163.627,60.601],[-165.128,60.5422],[-164.0274,59.7982],[-162.3781,60.1631],[-161.9382,58.7233],[-160.4305,59.0022],[-158.9327,58.4328],[-158.6362,58.971],[-157.1394,58.8558],[-157.6653,57.6042],[-158.6173,56.7481],[-160.4573,56.1999],[-160.1694,55.8066],[-154.6493,58.0765],[-153.4886,58.7945],[-154.2982,59.1174],[-153.976,59.5192],[-150.7806,61.2919],[-149.3169,60.9294],[-151.1596,60.6597],[-151.881,59.1635],[-149.5812,59.9852],[-148.4935,59.904],[-148.8397,60.5451],[-147.9401,61.2059],[-144.4064,60.0926],[-141.1354,59.8394],[-140.0518,62.4951]]]},"properties":{"NAME":"Thule","SUBJECTO":"Thule","PARTOF":"Thule","BORDERPRECISION":1,"LINK":null}},
{"type":"Feature","geometry":{"type":"Polygon","coordinates":[[[-141.1354,59.8394],[-139.5726,59.9],[-139.7851,59.5184],[-137.085,58.4468],[-136.3561,58.5239],[-136.9388,58.9432],[-135.3003,58.3745],[-135.3086,59.347],[-132.101,56.3494],[-132.2556,55.85],[-131.1905,56.0348],[-130.5457,54.9097],[-130.0027,55.2885],[-130.0036,53.938],[-129.4339,53.5175],[-128.8141,53.7639],[-127.8665,52.4125],[-122.4911,54.2436],[-111.2842,58.5531],[-118.1977,62.7126],[-124.9355,64.8346],[-132.4349,62.497],[-140.0518,62.4951],[-141.1354,59.8394]]]},"properties":{"NAME":"Athabaskan","SUBJECTO":"Athabaskan","PARTOF":"Athabaskan","BORDERPRECISION":1,"LINK":null}},
{"type":"Feature","geometry":{"type":"Polygon","coordinates":[[[-2.0104,47.7457],[-1.9991,48.677],[-4.762,48.552],[-4.3502,48.3905],[-4.3889,48.2984],[-4.351,48.2046],[-4.3129,48.1013],[-4.3909,47.9418],[-2.4655,47.4944],[-2.0104,47.7457]]]},"properties":{"NAME":"Britany","SUBJECTO":"Britany","PARTOF":"Britany","BORDERPRECISION":1,"LINK":null}},
{"type":"Feature","geometry":{"type":"Polygon","coordinates":[[[33.3953,-20.0221],[34.7195,-20.0428],[36.8923,-18],[39.4713,-16.717],[40.3858,-15.7363],[40.8554,-14.6994],[40.4004,-11.2304],[39.2482,-11.1449],[38.2375,-9.292],[37.7322,-4.5755],[39.4166,-1.375],[43.4149,2.5148],[34.406,2.4905],[22.2245,6.1962],[12.6047,7.732],[5.3546,5.3623],[6.0888,4.3281],[8.1402,4.466],[8.328,4.8413],[9.7802,3.8532],[9.8943,2.1377],[9.3501,0.5352],[9.8833,0.0788],[9.4734,0.116],[8.8152,-0.8958],[9.6564,-2.4191],[11.7726,-4.537],[13.4768,-8.416],[13.0838,-9.2875],[13.8132,-11.6562],[12.5854,-13.4637],[11.782,-15.8675],[11.7947,-17.8439],[12.906,-19.7023],[28.6319,-19.8789],[29.6904,-18.8204],[32.6896,-18.6439],[33.3953,-19.1732],[33.3953,-20.0221]]]},"properties":{"NAME":"Bantou","SUBJECTO":"Bantou","PARTOF":"Bantou","BORDERPRECISION":1,"LINK":null}},
{"type":"Feature","geometry":{"type":"Polygon","coordinates":[[[27.4488,46.5255],[29.579,45.0575],[29.6295,45.7504],[30.8329,46.5766],[28.6418,48.377],[28.6106,48.4026],[27.4892,49.7257],[27.4185,50.8539],[26.5011,52.7364],[24.4501,52.9576],[24.2657,52.9702],[23.4795,53.0238],[22.509,50.6366],[22.8815,49.2245],[22.9485,48.9704],[24.132,48.8111],[27.4488,46.5255]]]},"properties":{"NAME":"Principality of Galicia-Volhynia","SUBJECTO":"Principality of Galicia-Volhynia","PARTOF":"Principality of Galicia-Volhynia","BORDERPRECISION":1,"LINK":null}},
{"type":"Feature","geometry":{"type":"Polygon","coordinates":[[[27.4185,50.8539],[27.4892,49.7257],[28.6106,48.4026],[28.6418,48.377],[28.676,48.4019],[32.5046,48.3599],[32.8225,49.6114],[31.6537,50.3407],[31.5863,51.2977],[27.4185,50.8539]]]},"properties":{"NAME":"Principality of Kyiv","SUBJECTO":"Principality of Kyiv","PARTOF":"Principality of Kyiv","BORDERPRECISION":1,"LINK":null}},
{"type":"Feature","geometry":{"type":"Polygon","coordinates":[[[72.2104,33.3721],[76.8123,33.1817],[76.6113,35.9249],[73.2556,37.2205],[69.3334,35.686],[72.2104,33.3721]]]},"properties":{"NAME":"Buyiids","SUBJECTO":"Buyiids","PARTOF":"Buyiids","BORDERPRECISION":1,"LINK":null}},
{"type":"Feature","geometry":{"type":"Polygon","coordinates":[[[36.6221,58.6044],[36.0165,60.6106],[38.2574,60.9043],[40.1704,59.4087],[41.5482,62.5649],[39.6943,64.4886],[36.8839,65.0677],[36.9967,64.4066],[38.0539,64.1293],[37.4105,63.7495],[34.8846,64.3668],[34.4621,65.062],[31.1447,61.5175],[28.5373,60.5091],[30.1266,59.806],[26.5202,59.4211],[28.5877,56.7765],[36.6221,58.6044]]]},"properties":{"NAME":"Principality of Novgorod","SUBJECTO":"Principality of Novgorod","PARTOF":"Principality of Novgorod","BORDERPRECISION":1,"LINK":null}},
{"type":"Feature","geometry":{"type":"Polygon","coordinates":[[[39.2089,55.561],[42.3199,55.0024],[42.0165,56.7752],[44.9891,57.9735],[47.5179,57.7086],[48.0955,58.3924],[46.7291,62.6108],[41.5482,62.5649],[40.1704,59.4087],[38.2574,60.9043],[36.0165,60.6106],[36.6221,58.6044],[38.3697,58.2636],[39.2089,55.561]]]},"properties":{"NAME":"Principality of Vladimir-Suzdal","SUBJECTO":"Principality of Vladimir-Suzdal","PARTOF":"Principality of Vladimir-Suzdal","BORDERPRECISION":1,"LINK":null}},
{"type":"Feature","geometry":{"type":"Polygon","coordinates":[[[45.4319,41.459],[46.1483,39.6892],[46.7382,40.0263],[46.7382,41.7118],[48.2217,42.2794],[47.5653,43.0077],[47.7361,43.8619],[47.5203,43.5113],[46.81,44.5363],[47.6282,45.7322],[51.1171,47.063],[53.1852,46.8652],[52.8435,45.5075],[53.2841,45.3276],[51.5127,45.3726],[51.0991,44.878],[51.5757,44.5543],[50.3258,44.3655],[50.9552,44.2036],[51.4228,43.1696],[52.7626,42.7559],[52.97,41.1382],[53.0657,42.0289],[53.7362,42.1343],[54.7514,41.1382],[54.4162,40.6593],[53.0562,41.052],[52.8455,40.1804],[53.5589,39.8426],[55.4724,40.2459],[57.2554,41.6459],[57.2727,42.3033],[57.6299,42.0694],[59.1805,44.4305],[58.2537,44.4813],[58.7716,45.895],[59.598,45.7732],[59.5488,46.3448],[60.685,46.0784],[59.9977,46.5024],[60.5702,46.7779],[61.4732,46.4594],[62.7481,47.4465],[65.8477,55.1026],[55.7091,57.1977],[54.3443,53.4017],[50.8651,51.5475],[44.826,52.1196],[42.5467,53.6774],[42.3199,55.0024],[39.2089,55.561],[36.6578,51.9458],[31.6537,50.3407],[32.8225,49.6114],[32.5046,48.3599],[28.676,48.4019],[28.6418,48.377],[30.8329,46.5766],[31.9513,46.8646],[32.2022,46.1704],[33.5279,46.1341],[32.5032,45.4451],[33.3979,45.2527],[33.3955,44.6005],[34.0137,44.4921],[36.521,45.3883],[35.0634,45.3401],[33.8391,46.1931],[39.1599,47.2689],[37.7571,46.6032],[38.459,46.0789],[36.9599,45.2274],[41.1226,43.0191],[45.2598,42.4385],[45.4319,41.459]]]},"properties":{"NAME":"Cuman Khanates","SUBJECTO":"Cuman Khanates","PARTOF":"Cuman Khanates","BORDERPRECISION":1,"LINK":null}},
{"type":"Feature","geometry":{"type":"Polygon","coordinates":[[[42.3199,55.0024],[42.5467,53.6774],[44.826,52.1196],[50.8651,51.5475],[54.3443,53.4017],[55.7091,57.1977],[53.9765,57.7086],[47.5179,57.7086],[44.9891,57.9735],[42.0165,56.7752],[42.3199,55.0024]]]},"properties":{"NAME":"Volga Bulgars","SUBJECTO":"Volga Bulgars","PARTOF":"Bulgars","BORDERPRECISION":1,"LINK":null}},
{"type":"Feature","geometry":{"type":"Polygon","coordinates":[[[108.3605,41.5078],[113.8283,43.2467],[123.6138,43.9899],[127.5775,44.4235],[131.9129,46.5292],[133.0277,46.5292],[133.709,45.4144],[131.8652,43.2904],[131.6746,43.0266],[132.1818,43.1946],[132.9528,42.6695],[134.1389,42.993],[137.7205,45.9967],[140.081,48.5026],[140.8469,51.5637],[115.3929,57.6526],[115.2055,57.3861],[114.0159,59.5467],[107.9615,59.8184],[99.4854,55.6585],[99.5375,55.2811],[93.7,56.4846],[88.8454,56.461],[86.9111,41.4059],[92.2629,42.1191],[96.2364,41.5078],[98.9872,41.8134],[101.4324,41.2021],[108.3605,41.5078]],[[109.8607,55.5748],[109.5379,54.1162],[108.5321,53.5134],[108.9311,53.3444],[105.7977,51.7011],[103.7449,51.6686],[106.5374,52.7059],[108.2235,53.9761],[109.2387,55.5747],[109.8607,55.5748]]]},"properties":{"NAME":"Mongol Empire","SUBJECTO":"Mongol Empire","PARTOF":"Mongol Empire","BORDERPRECISION":1,"LINK":null}},
{"type":"Feature","geometry":{"type":"MultiPolygon","coordinates":[[[[124.1108,39.8754],[125.2961,39.3643],[124.7697,37.9359],[125.2694,37.4847],[125.5617,37.8355],[126.5417,37.6731],[126.8658,37.2669],[126.8464,36.7525],[126.5025,37.0528],[126.1289,36.7517],[126.873,36.0547],[126.2492,35.1167],[126.4783,34.3453],[127.3286,34.743],[127.3894,34.4711],[127.5933,34.9417],[128.435,34.8347],[129.4394,35.4758],[129.4336,37.0589],[128.3636,38.6252],[127.2769,39.2217],[127.6715,39.8664],[129.4778,40.682],[129.8247,41.8614],[124.1108,39.8754]]],[[[126.5994,33.2333],[126.898,33.5233],[126.1583,33.3147],[126.5994,33.2333]]]]},"properties":{"NAME":"Goryeo","SUBJECTO":"Goryeo","PARTOF":"Goryeo","BORDERPRECISION":1,"LINK":null}},
{"type":"Feature","geometry":{"type":"Polygon","coordinates":[[[94.4917,26.5069],[93.7158,24.9551],[98.6272,25.2042],[101.219,26.9909],[100.6816,28.691],[98.6372,27.4787],[96.4276,26.7005],[94.4917,26.5069]]]},"properties":{"NAME":"Kamarupa","SUBJECTO":"Kamarupa","PARTOF":"Kamarupa","BORDERPRECISION":1,"LINK":null}},
{"type":"Feature","geometry":{"type":"Polygon","coordinates":[[[103.0581,17.9987],[101.6061,15.5691],[97.9898,14.2066],[98.5968,12.7372],[99.9303,13.261],[100.9087,13.4473],[100.8716,12.6785],[101.9186,12.5855],[102.6585,12.0661],[103.0396,10.898],[103.5249,11.0578],[103.5249,10.5242],[104.9785,9.9809],[104.7425,8.4937],[106.482,9.5521],[106.7732,10.6392],[106.9299,11.8424],[107.8978,12.5684],[107.8978,13.6815],[106.4515,16.188],[105.3997,16.331],[104.933,17.4509],[104.1113,17.9987],[103.0581,17.9987]]]},"properties":{"NAME":"Khmer Empire","SUBJECTO":"Khmer Empire","PARTOF":"Khmer Empire","BORDERPRECISION":1,"LINK":null}},
{"type":"Feature","geometry":{"type":"Polygon","coordinates":[[[98.6272,25.2042],[93.7158,24.9551],[93.6224,24.7683],[91.4102,22.7208],[92.1763,20.8866],[93.7238,19.594],[93.4579,19.1742],[93.9656,19.1944],[94.2981,22.2963],[95.4596,22.7319],[96.476,21.7639],[96.6993,19.1243],[97.5318,18.8825],[99.4823,21.6588],[98.6272,25.2042]]]},"properties":{"NAME":"Bagan","SUBJECTO":"Bagan","PARTOF":"Bagan","BORDERPRECISION":1,"LINK":null}},
{"type":"Feature","geometry":{"type":"Polygon","coordinates":[[[98.5968,12.7372],[98.8674,11.645],[98.1952,8.3271],[100.207,6.5389],[100.7457,7.0113],[99.8373,9.2265],[99.1187,9.371],[99.9303,13.261],[98.5968,12.7372]]]},"properties":{"NAME":"minor Hindu and Buddhist states","SUBJECTO":"minor Hindu and Buddhist states","PARTOF":"minor Hindu and Buddhist states","BORDERPRECISION":1,"LINK":null}},
{"type":"Feature","geometry":{"type":"MultiPolygon","coordinates":[[[[111.3329,-1.3698],[110.7059,-0.6035],[110.6362,0.1628],[111.2632,0.7898],[110.9683,1.2255],[109.2824,1.8827],[108.8143,0.8078],[109.4286,-0.7096],[109.1789,-0.869],[109.9409,-1.6426],[110.1023,-3.0785],[111.3329,-1.3698]]],[[[109.217,-7.0144],[106.9451,-6.026],[106.628,-6.3094],[105.9332,-6.026],[105.6335,-6.7552],[105.1439,-6.7817],[106.3655,-7.0397],[106.4837,-7.5034],[109.1153,-7.7388],[109.217,-7.0144]]],[[[97.5971,2.2514],[98.671,1.6183],[99.1133,0.2212],[102.4622,-4.1818],[104.5685,-6.0712],[104.5634,-5.6009],[105.6893,-5.8971],[105.9428,-3.2147],[105.4449,-2.5993],[104.6778,-2.6708],[104.8126,-2.1558],[104.2299,-1.1911],[103.3113,-0.8182],[103.7222,0.0152],[103.4631,0.2879],[102.2783,0.7428],[99.8584,2.9044],[98.7103,2.8537],[97.5971,2.2514]]],[[[100.207,6.5389],[100.6643,3.9037],[101.3364,2.7805],[103.3491,1.4124],[104.1756,1.3887],[103.3511,2.804],[103.3418,4.8054],[102.3251,6.0994],[100.7457,7.0113],[100.207,6.5389]]],[[[106.1643,-2.9981],[106.5527,-3.1752],[106.6427,-2.7111],[105.8634,-1.6261],[105.6557,-1.957],[105.4267,-1.7096],[105.1997,-2.1105],[106.1643,-2.9981]]]]},"properties":{"NAME":"Srivijaya Empire","SUBJECTO":"Srivijaya Empire","PARTOF":"Srivijaya Empire","BORDERPRECISION":1,"LINK":null}},
{"type":"Feature","geometry":{"type":"MultiPolygon","coordinates":[[[[115.9559,-3.1993],[116.3491,-2.4168],[116.0463,-1.9345],[117.3703,-1.0038],[117.5343,0.6107],[118.7652,0.823],[117.7301,1.7994],[117.8292,2.3143],[117.074,3.5072],[118.3187,4.2342],[117.9484,4.7989],[118.998,5.2777],[117.3701,5.7889],[117.5071,6.3928],[116.5956,6.8991],[115.7173,5.4676],[115.2917,5.454],[115.3614,4.8759],[114.7452,4.9844],[112.7592,3.0086],[111.3718,2.5989],[110.9683,1.2255],[111.2632,0.7898],[110.6362,0.1628],[110.7059,-0.6035],[111.3329,-1.3698],[112.8011,-1.8749],[114.6347,-1.6592],[115.9559,-3.1993]]],[[[125.9108,6.8493],[126.0452,6.6082],[126.3217,7.1488],[126.3063,8.2353],[125.4281,9.7836],[125.4013,8.9512],[124.7416,8.918],[124.6706,8.4287],[123.6628,8.0135],[123.4859,8.496],[122.8888,8.3422],[121.8245,7.0565],[122.6351,7.7826],[122.7254,7.4524],[123.8153,7.6581],[123.9735,6.3369],[124.803,5.7859],[125.1295,6.0534],[125.2893,5.4883],[125.6146,7.2363],[125.9108,6.8493]]],[[[120.6355,0.9224],[119.9137,0.5396],[118.6836,-2.9011],[118.7914,-3.6635],[119.4611,-3.8082],[119.4768,-5.8038],[120.2481,-5.586],[120.1442,-3.0759],[120.5928,-2.8016],[121.508,-4.2359],[121.4413,-4.8653],[122.6484,-4.5131],[122.2582,-3.2111],[121.2535,-1.9613],[122.7571,-1.0938],[123.2127,-1.2326],[123.25,-0.9021],[121.4611,-0.9886],[121.0554,-1.5487],[120.5873,-1.5179],[119.9038,-0.6805],[120.143,0.1905],[124.234,0.3011],[125.0162,1.5419],[123.8262,0.7387],[120.6355,0.9224]]]]},"properties":{"NAME":"Malays","SUBJECTO":"Malays","PARTOF":"Malays","BORDERPRECISION":1,"LINK":null}},
{"type":"Feature","geometry":{"type":"Polygon","coordinates":[[[35.3277,15.423],[35.4073,11.2833],[34.452,10.2484],[32.847,10.1047],[32.3488,9.5276],[33.0215,6.8645],[35.5778,5.527],[38.605,6.5973],[38.8794,7.8543],[39.752,7.9513],[40.1907,10.0072],[41.5269,10.2799],[43.4748,12.0976],[42.079,13.861],[39.8979,15.502],[39.7964,15.0888],[38.6857,18.0028],[37.8951,18.5601],[37.0791,17.0947],[35.3277,15.423]]]},"properties":{"NAME":"Ifat","SUBJECTO":"Ifat","PARTOF":"Ifat","BORDERPRECISION":1,"LINK":null}},
{"type":"Feature","geometry":{"type":"Polygon","coordinates":[[[0.4578,32.5474],[-1.8022,32.4272],[-2.6218,30.34],[0.5131,29.6176],[1.9496,30.7705],[2.4531,32.6687],[0.4578,32.5474]]]},"properties":{"NAME":"Ibadites","SUBJECTO":"Ibadites","PARTOF":"Ibadites","BORDERPRECISION":1,"LINK":null}},
{"type":"Feature","geometry":{"type":"Polygon","coordinates":[[[13.5691,41.8564],[13.5641,41.8662],[13.4147,42.3644],[13.9958,42.6134],[13.6009,43.5348],[12.6972,43.9348],[11.9634,42.0047],[13.4984,41.3019],[14.029,41.4013],[13.5973,41.7998],[13.5691,41.8564]]]},"properties":{"NAME":"Papal States","SUBJECTO":"Papal States","PARTOF":"Papal States","BORDERPRECISION":1,"LINK":null}},
{"type":"Feature","geometry":{"type":"MultiPolygon","coordinates":[[[[1.5797,36.5139],[-2.0353,35.0546],[-3.009,35.39],[-4.593,35.1512],[-5.9288,35.7279],[-7.004,33.875],[-9.2187,32.5804],[-9.8578,31.0602],[-9.625,30.4061],[-1.8022,32.4272],[0.4578,32.5474],[1.2374,35.8864],[1.5797,36.5139]]],[[[-2.5834,41.3585],[-4.4443,40.8943],[-6.9461,40.6093],[-6.9301,39.6771],[-7.4585,39.6432],[-6.9301,38.9445],[-7.3044,38.4289],[-8.833,38.1839],[-8.9908,36.99],[-6.948,37.1493],[-5.6606,36.008],[-4.4466,36.722],[-2.2388,36.7284],[0.1726,38.7383],[-0.3948,39.4345],[1.4421,41.18],[1.0336,41.8781],[-1.0044,41.9188],[-2.5834,41.3585]]],[[[3.3236,39.7594],[2.3642,39.5558],[3.0636,39.2636],[3.3236,39.7594]]]]},"properties":{"NAME":"Almohad Caliphate","SUBJECTO":"Almohad Caliphate","PARTOF":"Almohad Caliphate","BORDERPRECISION":1,"LINK":null}},
{"type":"Feature","geometry":{"type":"Polygon","coordinates":[[[-5.0864,43.4949],[-7.9795,43.7401],[-9.2708,43.0487],[-8.8401,41.9676],[-6.1373,41.5821],[-6.9461,40.6093],[-4.4443,40.8943],[-5.0864,43.4949]]]},"properties":{"NAME":"León","SUBJECTO":"León","PARTOF":"León","BORDERPRECISION":1,"LINK":null}},
{"type":"Feature","geometry":{"type":"Polygon","coordinates":[[[-6.9461,40.6093],[-6.1373,41.5821],[-8.8401,41.9676],[-8.6941,40.9922],[-9.549,38.7745],[-9.0408,38.9202],[-8.833,38.1839],[-7.3044,38.4289],[-6.9301,38.9445],[-7.4585,39.6432],[-6.9301,39.6771],[-6.9461,40.6093]]]},"properties":{"NAME":"Portugal","SUBJECTO":"Portugal","PARTOF":"Portugal","BORDERPRECISION":1,"LINK":null}},
{"type":"Feature","geometry":{"type":"Polygon","coordinates":[[[-4.351,48.2046],[-4.7003,48.0638],[-4.3129,48.1013],[-4.351,48.2046]]]},"properties":{"NAME":"Kingdom of France","SUBJECTO":"France","PARTOF":"Kingdom of France","BORDERPRECISION":1,"LINK":null}},
{"type":"Feature","geometry":{"type":"MultiPolygon","coordinates":[[[[-2.7502,51.644],[-5.7778,50.1341],[0.8883,50.8927],[1.3647,51.3529],[0.2542,51.4536],[1.6917,52.3114],[1.3759,52.8092],[0.0055,52.7867],[-0.2955,54.0332],[-1.942,55.5561],[-1.8969,54.3362],[-2.8859,54.1687],[-2.9145,53.2671],[-2.7502,51.644]]],[[[-0.5241,42.7578],[0.4991,42.6309],[0.8651,44.5571],[2.6074,44.7866],[1.1514,45.5527],[0.5348,48.01],[1.2615,49.1606],[1.0549,49.9518],[-0.2394,49.2855],[-1.9413,49.7093],[-1.5914,48.6375],[-3.0912,48.8716],[-4.762,48.552],[-1.9991,48.677],[-2.0104,47.7457],[-2.5755,47.324],[-1.2561,46.3068],[-0.7285,45.0186],[-1.1752,45.5005],[-1.9146,43.3054],[-0.5241,42.7578]]]]},"properties":{"NAME":"Angevin Empire","SUBJECTO":"Angevin Empire","PARTOF":"Angevin Empire","BORDERPRECISION":1,"LINK":null}},
{"type":"Feature","geometry":{"type":"Polygon","coordinates":[[[5.8406,45.3848],[5.3463,44.0608],[3.97,43.8388],[3.4305,44.7217],[2.6074,44.7866],[0.8651,44.5571],[0.4991,42.6309],[3.0393,42.8692],[3.8075,43.4672],[6.3312,43.1119],[7.3971,43.7641],[6.8857,43.9015],[6.9426,44.8687],[5.8406,45.3848]]]},"properties":{"NAME":"Comté de Toulouse","SUBJECTO":"France","PARTOF":"Kingdom of France","BORDERPRECISION":1,"LINK":null}},
{"type":"Feature","geometry":{"type":"Polygon","coordinates":[[[6.2518,47.9572],[5.3611,49.6968],[3.8203,50.0394],[3.6813,51.3214],[1.5889,50.8219],[1.0549,49.9518],[1.2615,49.1606],[0.5348,48.01],[1.1514,45.5527],[2.6074,44.7866],[3.4305,44.7217],[3.97,43.8388],[5.3463,44.0608],[5.8406,45.3848],[5.2683,46.318],[6.2518,47.9572]]]},"properties":{"NAME":"Kingdom of France","SUBJECTO":"France","PARTOF":"Kingdom of France","BORDERPRECISION":1,"LINK":null}},
{"type":"Feature","geometry":{"type":"Polygon","coordinates":[[[-1.0044,41.9188],[1.0336,41.8781],[1.4421,41.18],[3.1289,41.8572],[3.0393,42.8692],[0.4991,42.6309],[-0.5241,42.7578],[-1.0044,41.9188]]]},"properties":{"NAME":"Aragón","SUBJECTO":"Aragón","PARTOF":"Aragón","BORDERPRECISION":1,"LINK":null}},
{"type":"Feature","geometry":{"type":"Polygon","coordinates":[[[80.6735,29.6829],[80.103,29.0152],[83.0791,27.2772],[85.088,27.6921],[85.862,28.2009],[82.0355,30.1914],[81.1079,30.1914],[80.6735,29.6829]]]},"properties":{"NAME":"Nepal","SUBJECTO":"Nepal","PARTOF":"Nepal","BORDERPRECISION":1,"LINK":null}},
{"type":"Feature","geometry":{"type":"Polygon","coordinates":[[[86.9111,41.4059],[88.8454,56.461],[78.3622,56.4102],[65.8477,55.1026],[62.7481,47.4465],[61.4732,46.4594],[61.9512,46.2089],[61.6134,45.5708],[59.9208,44.2345],[59.1805,44.4305],[57.6299,42.0694],[57.8178,41.6999],[57.2554,41.6459],[55.4724,40.2459],[53.5589,39.8426],[53.7937,39.4908],[53.2094,39.4046],[54.0714,38.8969],[54.0674,36.9415],[54.8676,36.8057],[54.9295,39.1591],[63.1215,39.8087],[66.5293,38.1162],[66.7099,37.2129],[67.3422,37.2129],[69.3334,35.686],[73.2556,37.2205],[76.6113,35.9249],[76.8123,33.1817],[79.8076,33.0578],[79.8331,35.4966],[88.0857,38.1456],[87.6782,38.655],[88.2895,38.9607],[85.8443,39.572],[85.1311,40.1833],[85.233,40.9984],[86.9111,41.4059]],[[78.9296,46.7883],[78.4451,46.2972],[75.4633,46.6706],[74.278,46.0041],[74.1,44.9889],[73.4367,45.6095],[74.6254,46.7521],[78.2971,46.4686],[78.9296,46.7883]]]},"properties":{"NAME":"Kara Khitai Khaganate","SUBJECTO":"Kara Khitai Khaganate","PARTOF":"Kara Khitai Khaganate","BORDERPRECISION":1,"LINK":null}},
{"type":"Feature","geometry":{"type":"Polygon","coordinates":[[[89.5749,27.2988],[93.6224,24.7683],[93.7158,24.9551],[94.4917,26.5069],[94.1529,27.6685],[89.5749,27.2988]]]},"properties":{"NAME":"Bhutan","SUBJECTO":"Bhutan","PARTOF":"Bhutan","BORDERPRECISION":1,"LINK":null}},
{"type":"Feature","geometry":{"type":"Polygon","coordinates":[[[85.088,27.6921],[83.0791,27.2772],[80.103,29.0152],[80.6735,29.6829],[79.8076,30.7092],[79.8076,33.0578],[76.8123,33.1817],[72.2104,33.3721],[71.4038,32.5322],[71.3196,31.2903],[75.4756,29.097],[71.9069,27.4365],[71.9069,25.7455],[74.0502,25.859],[74.9655,26.4251],[79.4633,25.1708],[81.4464,23.9534],[82.2228,24.4689],[90,22.2309],[90,22.561],[91.4102,22.7208],[93.6224,24.7683],[89.5749,27.2988],[85.088,27.6921]]]},"properties":{"NAME":"Sultanate of Delhi","SUBJECTO":"Sultanate of Delhi","PARTOF":"Sultanate of Delhi","BORDERPRECISION":1,"LINK":null}},
{"type":"Feature","geometry":{"type":"Polygon","coordinates":[[[80.4598,15.7731],[82.0814,16.4627],[85.1132,19.4423],[86.6324,20.2036],[86.9372,21.2884],[88.053,21.9387],[88.2996,21.5518],[88.5676,21.8954],[88.8809,21.5149],[89.6702,21.7198],[90,22.2309],[82.2228,24.4689],[81.4464,23.9534],[79.4633,25.1708],[74.9655,26.4251],[74.0502,25.859],[71.9069,25.7455],[71.9069,27.4365],[75.4756,29.097],[71.3196,31.2903],[71.1561,28.8782],[68.8645,24.4809],[68.0722,23.6752],[69.1072,22.8989],[70.3806,22.8606],[69.9685,22.3515],[68.8942,22.2857],[70.4675,20.777],[71.8944,20.9897],[72.233,22.0196],[72.6956,22.1285],[73.4093,16.5585],[75.4399,11.7498],[78.203,14.8143],[80.4598,15.7731]]]},"properties":{"NAME":"Rajput Kingdoms","SUBJECTO":"Rajput Kingdoms","PARTOF":"Rajput Kingdoms","BORDERPRECISION":1,"LINK":null}},
{"type":"Feature","geometry":{"type":"MultiPolygon","coordinates":[[[[178.1755,-18.2417],[178.6811,-18.0742],[178.5983,-17.6431],[178.193,-17.3011],[177.5103,-17.5094],[177.3297,-18.1158],[178.1755,-18.2417]]],[[[179.5686,-16.7581],[180,-16.1727],[180,-16.1547],[178.4761,-16.7636],[178.7539,-17.0114],[179.9372,-16.7544],[179.9419,-16.4644],[179.5686,-16.7581]]]]},"properties":{"NAME":"Tuʻi Tonga Empire","SUBJECTO":"Tuʻi Tonga Empire","PARTOF":"Tuʻi Tonga Empire","BORDERPRECISION":1,"LINK":null}},
{"type":"Feature","geometry":{"type":"Polygon","coordinates":[[[-109.2414,-27.1331],[-109.3908,-27.0667],[-109.4492,-27.1931],[-109.2414,-27.1331]]]},"properties":{"NAME":"Polynesians","SUBJECTO":"Polynesians","PARTOF":"Polynesians","BORDERPRECISION":1,"LINK":null}}
]}