{"type":"FeatureCollection", "features": [
{"type":"Feature","geometry":{"type":"Polygon","coordinates":[[[33.3453,23.354],[31.0579,22.6813],[29.8468,20.1247],[29.5104,17.4335],[29.8468,15.3479],[31.7979,12.5222],[34.2156,12.554],[35.7178,13.2216],[35.9692,15.4825],[34.5513,20.1833],[34.4121,20.5362],[33.3453,23.354]]]},"properties":{"NAME":"Meroe","SUBJECTO":"Meroe","PARTOF":"Meroe","BORDERPRECISION":1,"LINK":null}},
{"type":"Feature","geometry":{"type":"Polygon","coordinates":[[[79.6371,21.3523],[79.6371,22.4866],[78.6773,23.5337],[79.4626,23.9699],[79.4626,24.8425],[76.0596,26.5876],[75.4488,28.3327],[76.0463,33.5096],[74.7508,33.6553],[74.14,32.6083],[70.2875,31.2877],[67.3873,28.2264],[66.4323,25.4886],[68.7908,23.0287],[70.3806,22.8606],[68.8942,22.2857],[70.4675,20.777],[71.8944,20.9897],[72.6956,22.1285],[73.0322,18.2157],[79.6371,21.3523]]]},"properties":{"NAME":"Saka Kingdom","SUBJECTO":"Saka Kingdom","PARTOF":"Saka Kingdom","BORDERPRECISION":1,"LINK":null}},
{"type":"Feature","geometry":{"type":"Polygon","coordinates":[[[73.0322,18.2157],[74.7776,13.5279],[77.6302,12.9757],[80.3199,13.3332],[80.3002,15.6457],[82.0814,16.4627],[84.7535,19.028],[80.6842,19.3454],[80.6171,21.0167],[79.6371,21.3523],[73.0322,18.2157]]]},"properties":{"NAME":"Satavahanihara","SUBJECTO":"Satavahanihara","PARTOF":"Satavahanihara","BORDERPRECISION":1,"LINK":null}},
{"type":"Feature","geometry":{"type":"Polygon","coordinates":[[[49.7129,14.7733],[51.9504,15.5405],[52.8943,16.61],[54.7561,16.9507],[53.1986,17.7748],[48.9973,17.6066],[49.7129,14.7733]]]},"properties":{"NAME":"Hadramaut","SUBJECTO":"Hadramaut","PARTOF":"Hadramaut","BORDERPRECISION":1,"LINK":null}},
{"type":"Feature","geometry":{"type":"Polygon","coordinates":[[[48.9973,17.6066],[45.4329,17.7748],[43.7947,18.6598],[40.9828,22.3993],[39.0556,22.5719],[39.1667,21.2188],[42.7637,16.6455],[43.5601,12.8603],[44.4405,12.6398],[49.7129,14.7733],[48.9973,17.6066]]]},"properties":{"NAME":"Himyarite Kingdom","SUBJECTO":"Himyarite Kingdom","PARTOF":"Himyarite Kingdom","BORDERPRECISION":1,"LINK":null}},
{"type":"Feature","geometry":{"type":"Polygon","coordinates":[[[98.292,41.4968],[95.0814,40.8103],[94.7323,40.025],[100.8402,37.1456],[100.2295,35.575],[103.5452,34.7897],[103.8942,31.6485],[102.6726,31.7357],[99.7524,27.4708],[100.4148,25.0859],[102.0112,24.6807],[103.2342,20.1229],[104.3811,18.328],[106.3938,17.6645],[105.5326,18.8442],[106.807,20.905],[108.555,21.8234],[109.7798,21.483],[109.7116,20.5682],[110.2713,20.3153],[110.2388,21.2807],[112.7495,21.7561],[113.4626,22.7739],[116.3406,22.9133],[118.8129,24.8494],[119.4289,26.5908],[121.2597,28.1823],[121.7703,29.8343],[119.9437,30.1162],[121.5689,30.7101],[121.606,31.8276],[119.0032,34.9395],[119.9138,36.1434],[122.2556,36.7337],[122.3929,37.3006],[120.6581,37.7365],[118.9546,37.0771],[118.8752,37.9494],[117.479,38.4499],[117.7529,39.2025],[118.9776,39.2241],[121.4267,40.8643],[122.1079,40.3537],[121.0653,38.7503],[124.1041,39.8848],[125.2961,39.3643],[124.7697,37.9359],[125.2694,37.4847],[126.2097,37.7541],[125.6536,42.6536],[123.265,41.8574],[122.3052,42.7299],[120.4728,41.6829],[118.5462,41.425],[106.3578,42.0436],[105.6393,39.5887],[103.8069,39.5015],[103.3707,40.2868],[101.3638,40.6358],[100.8402,40.374],[100.5785,39.5887],[98.4843,39.8505],[98.292,41.4968]]]},"properties":{"NAME":"Han","SUBJECTO":"Han","PARTOF":"Han","BORDERPRECISION":1,"LINK":null}},
{"type":"Feature","geometry":{"type":"Polygon","coordinates":[[[79.6371,21.3523],[80.6171,21.0167],[83.0401,22.7484],[83.8254,25.8896],[84.6107,26.1513],[86.094,24.9298],[86.8187,21.1865],[88.053,21.9387],[90.2746,21.7783],[90.5641,22.9795],[91.5711,22.5433],[93.4235,25.017],[93.7725,26.5004],[93.0745,26.8494],[89.7588,25.9768],[86.1813,26.4131],[82.8656,27.8965],[77.1979,33.284],[76.0463,33.5096],[75.4488,28.3327],[76.0596,26.5876],[79.4626,24.8425],[79.4626,23.9699],[78.6773,23.5337],[79.6371,22.4866],[79.6371,21.3523]]]},"properties":{"NAME":"Magadha","SUBJECTO":"Magadha","PARTOF":"Magadha","BORDERPRECISION":1,"LINK":null}},
{"type":"Feature","geometry":{"type":"Polygon","coordinates":[[[109.5503,19.9136],[108.5605,19.0603],[109.4297,18.0966],[110.8854,19.7068],[109.5503,19.9136]]]},"properties":{"NAME":"Hainan","SUBJECTO":"Hainan","PARTOF":"Hainan","BORDERPRECISION":1,"LINK":null}},
{"type":"Feature","geometry":{"type":"Polygon","coordinates":[[[79.7242,8.4166],[80.2222,6.058],[81.2027,6.0792],[81.8049,7.3132],[80.1096,9.6866],[79.7242,8.4166]]]},"properties":{"NAME":"Simhala","SUBJECTO":"Simhala","PARTOF":"Simhala","BORDERPRECISION":1,"LINK":null}},
{"type":"Feature","geometry":{"type":"Polygon","coordinates":[[[-92.9379,18.5862],[-93.5879,15.7411],[-91.5157,14.0589],[-90.105,13.753],[-87.5706,15.908],[-88.9408,16.0334],[-86.9216,21.3006],[-90.2775,21.1414],[-91.479,18.6338],[-92.9379,18.5862]]]},"properties":{"NAME":"Maya chiefdoms and states","SUBJECTO":"Maya chiefdoms and states","PARTOF":"Maya chiefdoms and states","BORDERPRECISION":1,"LINK":null}},
{"type":"Feature","geometry":{"type":"Polygon","coordinates":[[[-57.8601,49.9879],[-59.1566,47.6701],[-54.7826,47.7112],[-55.4079,46.9479],[-54.2114,47.8036],[-54.0824,46.9895],[-53.0696,46.7313],[-52.7352,47.5457],[-53.8817,48.1893],[-53.1239,48.5958],[-54.1296,48.8357],[-53.5091,49.2819],[-55.1073,49.2788],[-56.0671,50.1033],[-56.7326,49.6884],[-55.4716,51.5245],[-57.8601,49.9879]]]},"properties":{"NAME":"Paleo-Inuit","SUBJECTO":"Paleo-Inuit","PARTOF":"Paleo-Inuit","BORDERPRECISION":1,"LINK":null}},
{"type":"Feature","geometry":{"type":"Polygon","coordinates":[[[-3.1889,51.1787],[-5.7778,50.1341],[-3.1317,50.6553],[-3.1889,51.1787]]]},"properties":{"NAME":"Dumonii","SUBJECTO":"Dumonii","PARTOF":"Dumonii","BORDERPRECISION":1,"LINK":null}},
{"type":"Feature","geometry":{"type":"Polygon","coordinates":[[[-76.6487,-12.8423],[-75.9894,-12.1943],[-76.358,-10.9657],[-79.6139,-5.4983],[-80.3511,-5.314],[-81.297,-6.0409],[-79.0602,-8.2155],[-76.6487,-12.8423]]]},"properties":{"NAME":"Moche","SUBJECTO":"Moche","PARTOF":"Moche","BORDERPRECISION":1,"LINK":null}},
{"type":"Feature","geometry":{"type":"Polygon","coordinates":[[[39.7964,15.0888],[38.305,15.0577],[37.8877,13.5555],[42.4084,13.1755],[39.8979,15.502],[39.7964,15.0888]]]},"properties":{"NAME":"Axum","SUBJECTO":"Axum","PARTOF":"Axum","BORDERPRECISION":1,"LINK":null}},
{"type":"Feature","geometry":{"type":"Polygon","coordinates":[[[74.7508,33.6553],[73.0929,34.6151],[70.5625,34.8769],[62.7967,34.6151],[59.3021,25.3402],[61.344,25.0269],[66.4323,25.4886],[67.3873,28.2264],[70.2875,31.2877],[74.14,32.6083],[74.7508,33.6553]]]},"properties":{"NAME":"Suren Kingdom","SUBJECTO":"Suren Kingdom","PARTOF":"Suren Kingdom","BORDERPRECISION":1,"LINK":null}},
{"type":"Feature","geometry":{"type":"Polygon","coordinates":[[[84.7535,19.028],[86.6324,20.2036],[86.8187,21.1865],[86.094,24.9298],[84.6107,26.1513],[83.8254,25.8896],[83.0401,22.7484],[80.6171,21.0167],[80.6842,19.3454],[84.7535,19.028]]]},"properties":{"NAME":"Kalinga","SUBJECTO":"Kalinga","PARTOF":"Kalinga","BORDERPRECISION":1,"LINK":null}},
{"type":"Feature","geometry":{"type":"Polygon","coordinates":[[[74.7776,13.5279],[77.4195,8.028],[79.7899,10.2506],[80.3199,13.3332],[77.6302,12.9757],[74.7776,13.5279]]]},"properties":{"NAME":"Chola","SUBJECTO":"Chola","PARTOF":"Chola","BORDERPRECISION":1,"LINK":null}},
{"type":"Feature","geometry":{"type":"Polygon","coordinates":[[[17.8032,47.1015],[18.9056,47.4409],[19.4253,47.601],[18.9829,49.8698],[17.8523,50.4367],[16.476,49.5839],[16.0788,48.4267],[15.8861,47.8655],[17.8032,47.1015]]]},"properties":{"NAME":"Boihaenum","SUBJECTO":"Boihaenum","PARTOF":"Boihaenum","BORDERPRECISION":1,"LINK":null}},
{"type":"Feature","geometry":{"type":"Polygon","coordinates":[[[62.7967,34.6151],[60.9644,37.3201],[57.3017,38.0847],[53.7997,36.679],[51.417,36.4557],[48.8372,37.511],[48.9845,38.8673],[45.4281,38.0435],[43.0919,35.3881],[43.646,32.4754],[48.085,29.9654],[49.2222,30.4775],[50.1324,30.0664],[51.3501,28.0361],[52.8908,27.0523],[54.6461,26.3913],[56.6678,27.0499],[57.2548,25.7933],[59.3021,25.3402],[62.7967,34.6151]]]},"properties":{"NAME":"Parthian Empire","SUBJECTO":"Parthian Empire","PARTOF":"Parthian Empire","BORDERPRECISION":1,"LINK":null}},
{"type":"Feature","geometry":{"type":"MultiPolygon","coordinates":[[[[33.3453,23.354],[33.6572,24.018],[35.1899,24.3999],[32.4384,29.7755],[34.2412,27.7589],[34.9847,29.4672],[36.4696,29.5653],[37.341,31.512],[39.3421,31.9876],[42.8603,30.9876],[44.4728,29.34],[48.2739,28.8869],[47.614,29.2722],[48.085,29.9654],[43.646,32.4754],[43.0919,35.3881],[45.4281,38.0435],[41.6777,38.509],[41.9633,41.8131],[40.361,40.9634],[38.314,40.9209],[35.0019,42.0432],[33.1555,41.9496],[31.2177,41.0541],[29.1612,41.2164],[29.8827,40.7464],[29.0524,40.3347],[26.186,39.9972],[27.0349,38.8211],[26.3932,38.1044],[28.0142,36.5272],[30.3949,36.118],[30.9053,36.7942],[33.1713,35.9709],[36.1045,36.5612],[35.8731,34.4223],[34.1953,31.2381],[32.5972,30.9639],[30.996,31.4689],[29.2488,30.7537],[25.2582,31.4379],[21.6734,32.8156],[20.0684,32.0371],[19.9815,30.7217],[18.915,30.2049],[15.8433,31.285],[15.0098,32.3634],[10.4126,33.6311],[10.0195,34.0815],[11.1251,35.2406],[10.5115,36.0862],[11.0238,37.0683],[10.3928,36.7166],[9.7322,37.2824],[7.9132,36.7752],[1.0576,36.4619],[-2.0353,35.0546],[-4.593,35.1512],[-5.565,35.8623],[-7.004,33.875],[-8.6403,33.1217],[7.9859,35.5049],[9.8339,32.9178],[18.6118,29.4066],[22.3078,29.961],[28.4062,27.7434],[31.0579,22.6813],[33.3453,23.354]]],[[[-3.1317,50.6553],[1.335,51.1207],[0.2542,51.4536],[1.5857,52.65],[0.0055,52.7867],[-1.5515,54.9156],[-3.4304,54.6431],[-2.9145,53.2671],[-4.4919,52.991],[-4.1236,52.3733],[-5.2488,51.8602],[-2.7502,51.644],[-3.1889,51.1787],[-3.1317,50.6553]]],[[[16.0788,48.4267],[14.7556,48.1871],[12.2001,49.1391],[8.0413,48.2873],[8.2919,49.9408],[6.8576,51.5787],[5.1352,52.1267],[1.5889,50.8219],[0.0329,49.3337],[-1.9413,49.7093],[-1.4566,48.6836],[-4.762,48.552],[-4.3644,47.8293],[-2.4655,47.4944],[-0.7285,45.0186],[-1.1752,45.5005],[-1.9146,43.3054],[-7.9795,43.7401],[-9.1975,43.1582],[-8.6941,40.9922],[-9.549,38.7745],[-8.7889,38.436],[-8.9908,36.99],[-6.948,37.1493],[-5.6606,36.008],[-4.4466,36.722],[-2.2388,36.7284],[0.1726,38.7383],[-0.3948,39.4345],[0.8792,41.0217],[3.1289,41.8572],[3.4787,43.3121],[6.523,43.1509],[8.8966,44.4372],[12.6415,41.5311],[15.6662,40.0919],[16.0529,37.9312],[17.1807,39.0222],[16.5321,39.6975],[16.9487,40.4811],[18.5226,40.0941],[15.991,41.4061],[16.1874,41.8409],[14.7385,42.0472],[12.6972,43.9348],[12.1804,45.2703],[13.5646,45.7265],[13.8951,44.7592],[14.5246,45.2663],[16.0594,43.4335],[19.607,41.7615],[19.3691,40.2603],[21.1724,38.3478],[23.1163,38.1574],[21.2211,37.8284],[21.7809,36.8225],[22.9826,36.6148],[22.6423,37.5849],[23.4181,37.4693],[22.8981,37.9],[23.4193,38.0681],[23.9182,37.6846],[23.9607,38.2099],[22.4905,38.8769],[23.2361,39.2032],[22.4921,40.4983],[23.9066,39.9972],[23.6347,40.7728],[25.0189,41.0171],[26.5565,40.4983],[26.1409,40.0447],[27.4742,40.9628],[28.9645,40.9892],[27.502,42.5163],[29.6832,45.3748],[28.2214,45.4841],[28.0366,44.3753],[25.7092,43.9255],[25.5697,45.6432],[27.0935,46.0541],[27.3393,46.9003],[25.1273,47.7003],[22.8662,47.2685],[21.7343,44.8452],[20.9218,44.6525],[18.8643,45.5816],[18.9056,47.4409],[17.8032,47.1015],[15.8861,47.8655],[16.0788,48.4267]]],[[[23.4097,38.9437],[22.8699,38.8372],[24.5272,37.9674],[23.4097,38.9437]]],[[[8.6961,38.9958],[9.6483,39.4572],[9.3062,41.1844],[8.1595,40.7847],[8.6961,38.9958]]],[[[9.2705,42.8825],[8.5004,42.3598],[9.173,41.3499],[9.2705,42.8825]]],[[[33.7727,35.1293],[34.4582,35.6446],[32.1437,35.0425],[32.9145,34.5413],[33.7727,35.1293]]],[[[15.1122,37.459],[15.3867,38.2055],[12.4541,37.766],[14.622,36.7761],[15.1122,37.459]]]]},"properties":{"NAME":"Roman Empire","SUBJECTO":"Roman Empire","PARTOF":"Roman Empire","BORDERPRECISION":1,"LINK":null}},
{"type":"Feature","geometry":{"type":"Polygon","coordinates":[[[48.9845,38.8673],[49.669,40.2403],[47.0109,41.3931],[41.9633,41.8131],[41.6777,38.509],[45.4281,38.0435],[48.9845,38.8673]]]},"properties":{"NAME":"Armenia","SUBJECTO":"Armenia","PARTOF":"Armenia","BORDERPRECISION":1,"LINK":null}},
{"type":"Feature","geometry":{"type":"Polygon","coordinates":[[[35.0673,44.8617],[36.521,45.3883],[33.5329,45.0525],[33.3955,44.6005],[35.0673,44.8617]]]},"properties":{"NAME":"Bosporian Kingdom","SUBJECTO":"Roman Empire","PARTOF":"Bosporian Kingdom","BORDERPRECISION":1,"LINK":null}},
{"type":"Feature","geometry":{"type":"Polygon","coordinates":[[[106.3578,42.0436],[98.706,42.8236],[98.292,41.4968],[98.4843,39.8505],[100.5785,39.5887],[100.8402,40.374],[101.3638,40.6358],[103.3707,40.2868],[103.8069,39.5015],[105.6393,39.5887],[106.3578,42.0436]]]},"properties":{"NAME":"Southern Xiongnu","SUBJECTO":"S. Xiongnu","PARTOF":"Southern Xiongnu","BORDERPRECISION":1,"LINK":null}},
{"type":"Feature","geometry":{"type":"Polygon","coordinates":[[[73.9295,45.3675],[75.2987,47.4133],[73.6633,47.7724],[71.4953,46.6877],[71.4193,44.6143],[73.4351,44.5059],[73.9295,45.3675]]]},"properties":{"NAME":"Yueban","SUBJECTO":"Yueban","PARTOF":"Yueban","BORDERPRECISION":1,"LINK":null}},
{"type":"Feature","geometry":{"type":"Polygon","coordinates":[[[126.2097,37.7541],[126.7863,37.0739],[127.6831,37.6162],[128.5397,38.1342],[127.2769,39.2217],[129.4778,40.682],[129.6413,41.6558],[126.6679,42.9917],[125.6536,42.6536],[126.2097,37.7541]]]},"properties":{"NAME":"Koguryo","SUBJECTO":"Koguryo","PARTOF":"Koguryo","BORDERPRECISION":1,"LINK":null}},
{"type":"Feature","geometry":{"type":"Polygon","coordinates":[[[128.1429,35.2483],[127.8063,34.9322],[128.4178,35.0411],[128.1429,35.2483]]]},"properties":{"NAME":"Gaya","SUBJECTO":"Gaya","PARTOF":"Gaya","BORDERPRECISION":1,"LINK":null}},
{"type":"Feature","geometry":{"type":"Polygon","coordinates":[[[128.438,35.0604],[129.4668,35.9275],[128.5397,38.1342],[127.6831,37.6162],[128.1429,35.2483],[128.4178,35.0411],[128.438,35.0604]]]},"properties":{"NAME":"Silla","SUBJECTO":"Silla","PARTOF":"Silla","BORDERPRECISION":1,"LINK":null}},
{"type":"Feature","geometry":{"type":"Polygon","coordinates":[[[126.7863,37.0739],[125.9603,36.7221],[126.6264,35.9281],[126.4096,34.269],[127.8063,34.9322],[128.1429,35.2483],[127.6831,37.6162],[126.7863,37.0739]]]},"properties":{"NAME":"Paekche","SUBJECTO":"Paekche","PARTOF":"Paekche","BORDERPRECISION":1,"LINK":null}},
{"type":"Feature","geometry":{"type":"Polygon","coordinates":[[[25.1956,65.268],[34.7261,65.7803],[32.6443,67.0461],[38.7821,66.0015],[41.2553,66.937],[37.2459,68.7935],[33.3156,69.0713],[32.0716,69.8835],[29.7286,69.6976],[28.7301,70.1359],[30.7542,70.4304],[28.7948,70.8648],[27.8754,70.4251],[28.2112,71.0179],[25.263,70.1065],[25.389,70.9046],[23.2036,69.9428],[18.3191,69.3594],[12.5265,65.109],[10.1554,64.0993],[11.5284,61.8978],[15.4301,61.8661],[17.8319,62.4565],[20.7007,63.8181],[22.4898,65.8834],[25.1956,65.268]]]},"properties":{"NAME":"Sámi","SUBJECTO":"Sámi","PARTOF":"Sámi","BORDERPRECISION":1,"LINK":null}},
{"type":"Feature","geometry":{"type":"Polygon","coordinates":[[[34.5513,20.1833],[37.1357,21.1281],[35.1899,24.3999],[33.6572,24.018],[33.3453,23.354],[34.4121,20.5362],[34.5513,20.1833]]]},"properties":{"NAME":"Blemmyes","SUBJECTO":"Blemmyes","PARTOF":"Blemmyes","BORDERPRECISION":1,"LINK":null}},
{"type":"Feature","geometry":{"type":"Polygon","coordinates":[[[-95.5014,16.5318],[-95.4321,17.4332],[-96.2059,17.8861],[-99.2109,17.7105],[-99.0158,16.8237],[-97.6855,16.3931],[-95.5014,16.5318]]]},"properties":{"NAME":"Monte Albán","SUBJECTO":"Monte Albán","PARTOF":"Monte Albán","BORDERPRECISION":1,"LINK":null}},
{"type":"Feature","geometry":{"type":"Polygon","coordinates":[[[-99.9089,19.027],[-99.1415,18.9239],[-98.4828,19.8021],[-100.4936,20.8999],[-101.0088,20.2772],[-99.9089,19.027]]]},"properties":{"NAME":"Teotihuacán","SUBJECTO":"Teotihuacán","PARTOF":"Teotihuacán","BORDERPRECISION":1,"LINK":null}},
{"type":"Feature","geometry":{"type":"Polygon","coordinates":[[[-88.0729,35.1097],[-89.4482,35.4742],[-90.6217,34.1709],[-88.3782,33.1944],[-88.0729,35.1097]]]},"properties":{"NAME":"Miller","SUBJECTO":"Miller","PARTOF":"Miller","BORDERPRECISION":1,"LINK":null}},
{"type":"Feature","geometry":{"type":"MultiPolygon","coordinates":[[[[-96.2289,54.3833],[-97.0909,55.0654],[-101.0495,54.6243],[-101.5603,53.8971],[-97.1548,50.413],[-96.9313,48.5465],[-93.6431,47.1324],[-91.2022,47.3345],[-88.1618,48.9875],[-91.4403,49.6336],[-91.153,50.6362],[-95.2712,51.1197],[-96.197,52.3844],[-95.2712,53.8594],[-96.2289,54.3833]]],[[[-83.4911,47.4572],[-84.385,48.3347],[-87.9916,48.9834],[-84.8935,47.8599],[-84.4922,46.475],[-88.4838,46.81],[-87.8812,47.4617],[-89.2945,46.8874],[-87.6732,46.4549],[-87.197,45.5676],[-84.8177,45.882],[-85.7897,44.5306],[-84.1724,45.5889],[-84.6328,46.0289],[-83.0879,46.1852],[-83.4911,47.4572]]]]},"properties":{"NAME":"Laurel complex","SUBJECTO":"Laurel complex","PARTOF":"Laurel complex","BORDERPRECISION":1,"LINK":null}},
{"type":"Feature","geometry":{"type":"Polygon","coordinates":[[[-88.3782,33.1944],[-88.5391,32.8223],[-86.9938,32.8223],[-85.8486,34.4306],[-88.0729,35.1097],[-88.3782,33.1944]]]},"properties":{"NAME":"Copena","SUBJECTO":"Copena","PARTOF":"Copena","BORDERPRECISION":1,"LINK":null}},
{"type":"Feature","geometry":{"type":"Polygon","coordinates":[[[-88.5391,32.8223],[-89.67,31.7848],[-87.7746,30.2628],[-87.0891,30.359],[-86.9938,32.8223],[-88.5391,32.8223]]]},"properties":{"NAME":"Porter","SUBJECTO":"Porter","PARTOF":"Porter","BORDERPRECISION":1,"LINK":null}},
{"type":"Feature","geometry":{"type":"Polygon","coordinates":[[[-83.7441,43.6207],[-84.7731,43.3828],[-86.4534,44.1299],[-86.2301,42.6166],[-87.3751,41.6344],[-87.192,40.705],[-84.7383,41.7239],[-83.7441,43.6207]]]},"properties":{"NAME":"Goodall Focus","SUBJECTO":"Goodall Focus","PARTOF":"Goodall Focus","BORDERPRECISION":1,"LINK":null}},
{"type":"Feature","geometry":{"type":"Polygon","coordinates":[[[-80.0534,43.8084],[-81.698,45.2461],[-81.8586,42.2641],[-79.637,42.8531],[-80.0534,43.8084]]]},"properties":{"NAME":"Saugeen Complex","SUBJECTO":"Saugeen Complex","PARTOF":"Saugeen Complex","BORDERPRECISION":1,"LINK":null}},
{"type":"Feature","geometry":{"type":"Polygon","coordinates":[[[-84.7383,41.7239],[-83.6443,40.6013],[-81.9576,41.1531],[-83.4428,41.7022],[-82.4689,41.9911],[-82.7481,43.962],[-83.7441,43.6207],[-84.7383,41.7239]]]},"properties":{"NAME":"Couture Complex","SUBJECTO":"Couture Complex","PARTOF":"Couture Complex","BORDERPRECISION":1,"LINK":null}},
{"type":"Feature","geometry":{"type":"Polygon","coordinates":[[[-72.7989,47.5565],[-74.1904,47.9657],[-80.2996,45.9479],[-79.8213,43.8695],[-76.017,44.3359],[-76.1812,43.6126],[-74.5817,43.8225],[-70.5596,45.3093],[-70.364,46.8772],[-72.7989,47.5565]]]},"properties":{"NAME":"Point Peninsula","SUBJECTO":"Point Peninsula","PARTOF":"Point Peninsula","BORDERPRECISION":1,"LINK":null}},
{"type":"Feature","geometry":{"type":"Polygon","coordinates":[[[-75.5642,-12.8732],[-76.2418,-14.1056],[-74.3834,-15.8232],[-73.8897,-14.855],[-75.5642,-12.8732]]]},"properties":{"NAME":"Nazca","SUBJECTO":"Nazca","PARTOF":"Nazca","BORDERPRECISION":1,"LINK":null}},
{"type":"Feature","geometry":{"type":"Polygon","coordinates":[[[14.3911,58.0912],[13.5103,57.4097],[14.5452,57.2552],[14.3911,58.0912]]]},"properties":{"NAME":"Heruli","SUBJECTO":"Heruli","PARTOF":"Heruli","BORDERPRECISION":1,"LINK":null}}
]}