{"type":"FeatureCollection", "features": [
{"type":"Feature","geometry":{"type":"Polygon","coordinates":[[[33.3453,23.354],[31.0579,22.6813],[29.8468,20.1247],[29.5104,17.4335],[29.8468,15.3479],[31.7979,12.5222],[34.2156,12.554],[35.7178,13.2216],[35.9692,15.4825],[34.5513,20.1833],[34.4121,20.5362],[33.3453,23.354]]]},"properties":{"NAME":"Meroe","SUBJECTO":"Meroe","PARTOF":"Meroe","BORDERPRECISION":1,"LINK":null}},
{"type":"Feature","geometry":{"type":"Polygon","coordinates":[[[78.8657,12.9757],[79.4138,16.9423],[81.3306,19.2937],[80.6842,19.3454],[80.6171,21.0167],[79.6371,21.3523],[73.0322,18.2157],[74.7776,13.5279],[78.8657,12.9757]]]},"properties":{"NAME":"Satavahanihara","SUBJECTO":"Satavahanihara","PARTOF":"Satavahanihara","BORDERPRECISION":1,"LINK":null}},
{"type":"Feature","geometry":{"type":"Polygon","coordinates":[[[49.7129,14.7733],[51.9504,15.5405],[52.8943,16.61],[54.7561,16.9507],[53.1986,17.7748],[48.9973,17.6066],[49.7129,14.7733]]]},"properties":{"NAME":"Hadramaut","SUBJECTO":"Hadramaut","PARTOF":"Hadramaut","BORDERPRECISION":1,"LINK":null}},
{"type":"Feature","geometry":{"type":"Polygon","coordinates":[[[48.9973,17.6066],[45.4329,17.7748],[43.7947,18.6598],[40.9828,22.3993],[39.0556,22.5719],[39.1667,21.2188],[42.7637,16.6455],[43.5601,12.8603],[44.4405,12.6398],[49.7129,14.7733],[48.9973,17.6066]]]},"properties":{"NAME":"Himyarite Kingdom","SUBJECTO":"Himyarite Kingdom","PARTOF":"Himyarite Kingdom","BORDERPRECISION":1,"LINK":null}},
{"type":"Feature","geometry":{"type":"Polygon","coordinates":[[[103.5931,34.3102],[103.8942,31.6485],[102.6726,31.7357],[99.7524,27.4708],[100.4148,25.0859],[102.0112,24.6807],[102.3837,24.01],[103.5671,19.602],[104.3811,18.328],[106.3938,17.6645],[105.5326,18.8442],[106.807,20.905],[108.555,21.8234],[109.7798,21.483],[109.7116,20.5682],[110.2713,20.3153],[110.2388,21.2807],[112.7495,21.7561],[113.4626,22.7739],[116.3406,22.9133],[119.4286,25.6509],[119.4289,26.5908],[121.2597,28.1823],[121.7744,29.7645],[119.9437,30.1162],[121.5689,30.7101],[121.645,31.688],[119.0032,34.9395],[119.9138,36.1434],[122.2556,36.7337],[122.3929,37.3006],[120.6581,37.7365],[118.8258,37.3115],[113.3413,36.2092],[103.5931,34.3102]]]},"properties":{"NAME":"Jin","SUBJECTO":"Jin","PARTOF":"Jin","BORDERPRECISION":1,"LINK":null}},
{"type":"Feature","geometry":{"type":"Polygon","coordinates":[[[109.5503,19.9136],[108.5605,19.0603],[109.4297,18.0966],[110.8854,19.7068],[109.5503,19.9136]]]},"properties":{"NAME":"Hainan","SUBJECTO":"Hainan","PARTOF":"Hainan","BORDERPRECISION":1,"LINK":null}},
{"type":"Feature","geometry":{"type":"Polygon","coordinates":[[[79.7242,8.4166],[80.2222,6.058],[81.2027,6.0792],[81.8049,7.3132],[80.1096,9.6866],[79.7242,8.4166]]]},"properties":{"NAME":"Simhala","SUBJECTO":"Simhala","PARTOF":"Simhala","BORDERPRECISION":1,"LINK":null}},
{"type":"Feature","geometry":{"type":"Polygon","coordinates":[[[-92.9379,18.5862],[-93.5879,15.7411],[-91.5157,14.0589],[-90.105,13.753],[-88.2429,14.8358],[-87.5706,15.908],[-88.9408,16.0334],[-86.9216,21.3006],[-90.2775,21.1414],[-91.479,18.6338],[-92.9379,18.5862]]]},"properties":{"NAME":"Maya chiefdoms and states","SUBJECTO":"Maya chiefdoms and states","PARTOF":"Maya chiefdoms and states","BORDERPRECISION":1,"LINK":null}},
{"type":"Feature","geometry":{"type":"Polygon","coordinates":[[[-57.8601,49.9879],[-59.1566,47.6701],[-54.7826,47.7112],[-55.4079,46.9479],[-54.2114,47.8036],[-54.0824,46.9895],[-53.0696,46.7313],[-52.7352,47.5457],[-53.8817,48.1893],[-53.1239,48.5958],[-54.1296,48.8357],[-53.5091,49.2819],[-55.1073,49.2788],[-56.0671,50.1033],[-56.7326,49.6884],[-55.4716,51.5245],[-57.8601,49.9879]]]},"properties":{"NAME":"Paleo-Inuit","SUBJECTO":"Paleo-Inuit","PARTOF":"Paleo-Inuit","BORDERPRECISION":1,"LINK":null}},
{"type":"Feature","geometry":{"type":"Polygon","coordinates":[[[-3.1889,51.1787],[-5.7778,50.1341],[-3.1317,50.6553],[-3.1889,51.1787]]]},"properties":{"NAME":"Dumonii","SUBJECTO":"Dumonii","PARTOF":"Dumonii","BORDERPRECISION":1,"LINK":null}},
{"type":"Feature","geometry":{"type":"Polygon","coordinates":[[[-76.6487,-12.8423],[-75.9894,-12.1943],[-76.358,-10.9657],[-79.6139,-5.4983],[-80.3511,-5.314],[-81.297,-6.0409],[-79.0602,-8.2155],[-76.6487,-12.8423]]]},"properties":{"NAME":"Moche","SUBJECTO":"Moche","PARTOF":"Moche","BORDERPRECISION":1,"LINK":null}},
{"type":"Feature","geometry":{"type":"Polygon","coordinates":[[[39.7964,15.0888],[39.5179,15.463],[38.305,15.0577],[37.8877,13.5555],[42.4084,13.1755],[39.8979,15.502],[39.7964,15.0888]]]},"properties":{"NAME":"Axum","SUBJECTO":"Axum","PARTOF":"Axum","BORDERPRECISION":1,"LINK":null}},
{"type":"Feature","geometry":{"type":"Polygon","coordinates":[[[74.7776,13.5279],[77.4195,8.028],[79.7899,10.2506],[80.3199,13.3332],[78.8657,12.9757],[74.7776,13.5279]]]},"properties":{"NAME":"Hindu kingdoms","SUBJECTO":"Hindu kingdoms","PARTOF":"Hindu kingdoms","BORDERPRECISION":1,"LINK":null}},
{"type":"Feature","geometry":{"type":"Polygon","coordinates":[[[19.6159,41.6159],[19.3691,40.2603],[21.1724,38.3478],[22.0915,38.4445],[22.287,39.4353],[21.0499,41.3199],[19.6159,41.6159]]]},"properties":{"NAME":"Visigoths","SUBJECTO":"Visigoths","PARTOF":"Visigoths","BORDERPRECISION":1,"LINK":null}},
{"type":"Feature","geometry":{"type":"Polygon","coordinates":[[[38.3757,33.5316],[47.614,29.2722],[49.2222,30.4775],[52.8908,27.0523],[54.6461,26.3913],[56.6678,27.0499],[57.2548,25.7933],[59.3021,25.3402],[62.7967,34.6151],[60.9644,37.3201],[57.3017,38.0847],[53.7997,36.679],[50.561,36.6864],[48.7448,37.727],[49.669,40.2403],[47.0109,41.3931],[41.6805,41.7933],[41.5852,40.5528],[40.3929,39.7182],[38.4257,39.4798],[39.2742,38.219],[37.8856,37.4255],[38.1236,36.1559],[39.966,35.7706],[38.3757,33.5316]]]},"properties":{"NAME":"Persia","SUBJECTO":"Persi","PARTOF":"Persia","BORDERPRECISION":1,"LINK":null}},
{"type":"Feature","geometry":{"type":"MultiPolygon","coordinates":[[[[-3.1317,50.6553],[0.8883,50.8927],[1.3647,51.3529],[0.2542,51.4536],[1.5857,52.65],[0.0055,52.7867],[-0.7565,53.6044],[-3.1889,51.1787],[-3.1317,50.6553]]],[[[5.7474,51.9487],[1.8236,50.9346],[0.0329,49.3337],[-1.9413,49.7093],[-1.4566,48.6836],[-4.762,48.552],[-4.3644,47.8293],[-2.4655,47.4944],[-0.7285,45.0186],[-1.1752,45.5005],[-1.9146,43.3054],[-7.9795,43.7401],[-9.1975,43.1582],[-8.6941,40.9922],[-9.549,38.7745],[-8.7889,38.436],[-8.9908,36.99],[-6.948,37.1493],[-5.6606,36.008],[-4.4466,36.722],[-2.2388,36.7284],[0.1726,38.7383],[-0.3948,39.4345],[0.8792,41.0217],[3.1289,41.8572],[3.4787,43.3121],[6.523,43.1509],[8.8966,44.4372],[12.6415,41.5311],[15.6662,40.0919],[16.0529,37.9312],[17.1807,39.0222],[16.5321,39.6975],[16.9487,40.4811],[18.5226,40.0941],[15.991,41.4061],[16.1874,41.8409],[14.7385,42.0472],[12.6972,43.9348],[12.1804,45.2703],[13.1562,45.7265],[13.8951,44.7592],[14.8154,45.0779],[16.0594,43.4335],[19.5477,41.7761],[20.7133,44.7089],[18.8643,45.5816],[18.9144,47.8363],[15.7577,48.5378],[14.7556,48.1871],[12.2001,49.1391],[10.0336,48.5144],[7.7407,48.4376],[8.512,49.3662],[8.3645,49.6864],[7.2945,50.661],[6.8979,50.9254],[5.7474,51.9487]]],[[[8.879,42.6248],[9.173,41.3499],[9.3671,42.9881],[8.879,42.6248]]],[[[9.6483,39.4572],[9.5909,40.9029],[8.2407,40.8553],[8.4172,39.2122],[9.6483,39.4572]]],[[[19.1894,30.2178],[15.8433,31.285],[15.0098,32.3634],[10.4126,33.6311],[10.0195,34.0815],[11.1251,35.2406],[10.5115,36.0862],[11.0238,37.0683],[10.3928,36.7166],[9.7322,37.2824],[7.9132,36.7752],[1.0576,36.4619],[-2.0353,35.0546],[-4.593,35.1512],[-5.565,35.8623],[-7.004,33.875],[-8.6403,33.1217],[7.9859,35.5049],[9.8339,32.9178],[19.3518,29.4068],[19.1894,30.2178]]],[[[13.8095,37.9664],[12.4541,37.766],[15.0273,36.7451],[15.4537,38.1674],[13.8095,37.9664]]]]},"properties":{"NAME":"Western Roman Empire","SUBJECTO":"Western Roman Empire","PARTOF":"Western Roman Empire","BORDERPRECISION":1,"LINK":null}},
{"type":"Feature","geometry":{"type":"MultiPolygon","coordinates":[[[[33.3453,23.354],[33.6572,24.018],[35.1899,24.3999],[32.3185,29.5402],[32.648,29.8522],[34.2412,27.7589],[34.9847,29.4672],[36.4696,29.5653],[38.3757,33.5316],[39.966,35.7706],[38.1236,36.1559],[37.8856,37.4255],[39.2742,38.219],[38.4257,39.4798],[40.3929,39.7182],[41.5852,40.5528],[41.6805,41.7933],[40.361,40.9634],[38.314,40.9209],[35.0019,42.0432],[33.1555,41.9496],[31.2177,41.0541],[29.1612,41.2164],[29.8827,40.7464],[29.0524,40.3347],[26.186,39.9972],[27.0349,38.8211],[26.3932,38.1044],[28.0142,36.5272],[30.3949,36.118],[30.9053,36.7942],[33.1713,35.9709],[36.0824,36.6215],[35.8731,34.4223],[33.917,31.0701],[30.996,31.4689],[28.9664,30.7848],[25.2582,31.4379],[21.6734,32.8156],[20.0684,32.0371],[20.1168,30.9571],[19.1894,30.2178],[19.3518,29.4068],[22.3078,29.961],[28.4062,27.7434],[31.0579,22.6813],[33.3453,23.354]]],[[[22.0915,38.4445],[23.1163,38.1574],[21.4405,38.1795],[21.5882,36.9814],[22.9826,36.6148],[22.6423,37.5849],[23.4181,37.4693],[22.8981,37.9],[23.4193,38.0681],[23.9182,37.6846],[23.9607,38.2099],[22.4905,38.8769],[23.2361,39.2032],[22.4921,40.4983],[23.9066,39.9972],[23.6347,40.7728],[25.0189,41.0171],[26.5565,40.4983],[26.1409,40.0447],[27.4742,40.9628],[28.9645,40.9892],[27.502,42.5163],[29.6159,45.4102],[28.2214,45.4841],[28.0366,44.3753],[25.2646,43.8209],[20.7133,44.7089],[19.5477,41.7761],[19.6159,41.6159],[21.0499,41.3199],[22.287,39.4353],[22.0915,38.4445]]],[[[23.4629,38.6237],[24.5272,37.9674],[24.1319,38.6534],[22.8699,38.8372],[23.4629,38.6237]]],[[[25.6732,35.3494],[23.4669,35.3179],[26.1605,35.0243],[25.6732,35.3494]]],[[[33.3737,35.3065],[32.2711,34.7197],[33.9247,34.9532],[34.4582,35.6446],[33.3737,35.3065]]]]},"properties":{"NAME":"Eastern Roman Empire","SUBJECTO":"Eastern Roman Empire","PARTOF":"Eastern Roman Empire","BORDERPRECISION":1,"LINK":null}},
{"type":"Feature","geometry":{"type":"Polygon","coordinates":[[[39.2584,47.12],[37.7571,46.6032],[38.459,46.0789],[36.9599,45.2274],[39.5354,43.7783],[46.0673,42.7858],[47.0472,44.7988],[45.0323,47.12],[39.2584,47.12]]]},"properties":{"NAME":"Caucasian Alans","SUBJECTO":"Hunnic Empire","PARTOF":"Caucasian Alans","BORDERPRECISION":1,"LINK":null}},
{"type":"Feature","geometry":{"type":"Polygon","coordinates":[[[10.0336,48.5144],[8.512,49.3662],[7.7407,48.4376],[10.0336,48.5144]]]},"properties":{"NAME":"Alamans","SUBJECTO":"Alamans","PARTOF":"Alamans","BORDERPRECISION":1,"LINK":null}},
{"type":"Feature","geometry":{"type":"Polygon","coordinates":[[[29.6159,45.4102],[31.9515,46.8644],[31.3737,47.9378],[30.9764,47.9488],[30.7156,47.6736],[29.8006,47.6499],[29.7818,47.6634],[28.5974,46.776],[28.2214,45.4841],[29.6159,45.4102]]]},"properties":{"NAME":"Ostrogoths","SUBJECTO":"Hunnic Empire","PARTOF":"Ostrogoths","BORDERPRECISION":1,"LINK":null}},
{"type":"Feature","geometry":{"type":"Polygon","coordinates":[[[31.9515,46.8644],[32.1508,46.6358],[33.894,47.3391],[31.3737,47.9378],[31.9515,46.8644]]]},"properties":{"NAME":"Akatziri","SUBJECTO":"Hunnic Empire","PARTOF":"Akatziri","BORDERPRECISION":1,"LINK":null}},
{"type":"Feature","geometry":{"type":"Polygon","coordinates":[[[47.0472,44.7988],[49.3582,46.3908],[44.6499,52.7794],[34.0763,51.8336],[26.8227,50.1521],[26.909,49.6111],[24.7493,49.4033],[22.6509,49.185],[28.5974,46.776],[29.7818,47.6634],[29.2727,48.0279],[31.2962,48.2861],[30.9764,47.9488],[31.3737,47.9378],[33.894,47.3391],[32.1508,46.6358],[32.2022,46.1704],[33.5279,46.1341],[32.5032,45.4451],[34.0137,44.4921],[36.521,45.3883],[35.0634,45.3401],[33.8391,46.1931],[39.2584,47.12],[45.0323,47.12],[47.0472,44.7988]]]},"properties":{"NAME":"Hunnic Empire","SUBJECTO":"Hunnic Empire","PARTOF":"Hunnic Empire","BORDERPRECISION":1,"LINK":null}},
{"type":"Feature","geometry":{"type":"Polygon","coordinates":[[[30.9764,47.9488],[31.2962,48.2861],[29.2727,48.0279],[29.7818,47.6634],[29.8006,47.6499],[30.7156,47.6736],[30.9764,47.9488]]]},"properties":{"NAME":"Skirii","SUBJECTO":"Hunnic Empire","PARTOF":"Skirii","BORDERPRECISION":1,"LINK":null}},
{"type":"Feature","geometry":{"type":"Polygon","coordinates":[[[26.8227,50.1521],[26.709,50.8644],[24.7893,50.738],[23.9894,50.101],[24.7493,49.4033],[26.909,49.6111],[26.8227,50.1521]]]},"properties":{"NAME":"Gepids","SUBJECTO":"Hunnic Empire","PARTOF":"Gepids","BORDERPRECISION":1,"LINK":null}},
{"type":"Feature","geometry":{"type":"Polygon","coordinates":[[[73.4351,44.5059],[75.2987,47.4133],[73.6633,47.7724],[71.4953,46.6877],[71.4193,44.6143],[73.4351,44.5059]]]},"properties":{"NAME":"Yueban","SUBJECTO":"Yueban","PARTOF":"Yueban","BORDERPRECISION":1,"LINK":null}},
{"type":"Feature","geometry":{"type":"Polygon","coordinates":[[[103.8023,39.5098],[102.6726,40.5485],[101.3638,40.6358],[100.5785,39.5887],[98.4843,39.8505],[98.7461,41.4211],[98.2226,41.5083],[94.6451,40.4613],[100.7036,37.2287],[103.8023,39.5098]]]},"properties":{"NAME":"Northern Liang","SUBJECTO":"Northern Liang","PARTOF":"Northern Liang","BORDERPRECISION":1,"LINK":null}},
{"type":"Feature","geometry":{"type":"Polygon","coordinates":[[[125.6536,42.6536],[126.2097,37.7541],[126.7863,37.0739],[127.6831,37.6162],[128.5397,38.1342],[127.2769,39.2217],[129.4778,40.682],[129.6413,41.6558],[126.6679,42.9917],[125.6536,42.6536]]]},"properties":{"NAME":"Koguryo","SUBJECTO":"Koguryo","PARTOF":"Koguryo","BORDERPRECISION":1,"LINK":null}},
{"type":"Feature","geometry":{"type":"Polygon","coordinates":[[[128.1429,35.2483],[127.8063,34.9322],[128.4178,35.0411],[128.1429,35.2483]]]},"properties":{"NAME":"Gaya","SUBJECTO":"Gaya","PARTOF":"Gaya","BORDERPRECISION":1,"LINK":null}},
{"type":"Feature","geometry":{"type":"Polygon","coordinates":[[[128.438,35.0604],[129.4668,35.9275],[128.5397,38.1342],[127.6831,37.6162],[128.1429,35.2483],[128.4178,35.0411],[128.438,35.0604]]]},"properties":{"NAME":"Silla","SUBJECTO":"Silla","PARTOF":"Silla","BORDERPRECISION":1,"LINK":null}},
{"type":"Feature","geometry":{"type":"Polygon","coordinates":[[[126.7863,37.0739],[125.9603,36.7221],[126.6264,35.9281],[126.4096,34.269],[127.8063,34.9322],[128.1429,35.2483],[127.6831,37.6162],[126.7863,37.0739]]]},"properties":{"NAME":"Paekche","SUBJECTO":"Paekche","PARTOF":"Paekche","BORDERPRECISION":1,"LINK":null}},
{"type":"Feature","geometry":{"type":"Polygon","coordinates":[[[118.8258,37.3115],[117.5751,38.9153],[118.9776,39.2241],[121.0853,40.8572],[122.1079,40.3537],[121.0653,38.7503],[124.1041,39.8848],[125.2961,39.3643],[124.7697,37.9359],[125.2694,37.4847],[126.2097,37.7541],[125.6536,42.6536],[123.265,41.8574],[122.3052,42.7299],[120.4728,41.6829],[118.5462,41.425],[113.3178,41.5956],[106.9481,42.3809],[105.6393,39.5887],[103.8023,39.5098],[100.7036,37.2287],[100.2295,35.575],[102.9344,35.2259],[103.5931,34.3102],[113.3413,36.2092],[118.8258,37.3115]]]},"properties":{"NAME":"Sixteen Kingdoms","SUBJECTO":"Sixteen Kingdoms","PARTOF":"Sixteen Kingdoms","BORDERPRECISION":1,"LINK":null}},
{"type":"Feature","geometry":{"type":"Polygon","coordinates":[[[73.4351,44.5059],[76.3582,43.6246],[89.157,42.2714],[107.3597,44.0349],[116.3189,45.4489],[113.3325,53.4664],[81.7803,51.1136],[75.2987,47.4133],[73.4351,44.5059]]]},"properties":{"NAME":"Ruanruan","SUBJECTO":"Ruanruan","PARTOF":"Ruanruan","BORDERPRECISION":1,"LINK":null}},
{"type":"Feature","geometry":{"type":"Polygon","coordinates":[[[34.5513,20.1833],[37.1357,21.1281],[35.1899,24.3999],[33.6572,24.018],[33.3453,23.354],[34.4121,20.5362],[34.5513,20.1833]]]},"properties":{"NAME":"Blemmyes","SUBJECTO":"Blemmyes","PARTOF":"Blemmyes","BORDERPRECISION":1,"LINK":null}},
{"type":"Feature","geometry":{"type":"Polygon","coordinates":[[[-95.5014,16.5318],[-95.4321,17.4332],[-96.2059,17.8861],[-99.2109,17.7105],[-99.0158,16.8237],[-97.6855,16.3931],[-95.5014,16.5318]]]},"properties":{"NAME":"Monte Albán","SUBJECTO":"Monte Albán","PARTOF":"Monte Albán","BORDERPRECISION":1,"LINK":null}},
{"type":"Feature","geometry":{"type":"Polygon","coordinates":[[[-99.9089,19.027],[-99.1415,18.9239],[-98.4828,19.8021],[-100.4936,20.8999],[-101.0088,20.2772],[-99.9089,19.027]]]},"properties":{"NAME":"Teotihuacán","SUBJECTO":"Teotihuacán","PARTOF":"Teotihuacán","BORDERPRECISION":1,"LINK":null}},
{"type":"Feature","geometry":{"type":"Polygon","coordinates":[[[-88.0729,35.1097],[-89.4482,35.4742],[-90.6217,34.1709],[-88.3782,33.1944],[-88.0729,35.1097]]]},"properties":{"NAME":"Miller","SUBJECTO":"Miller","PARTOF":"Miller","BORDERPRECISION":1,"LINK":null}},
{"type":"Feature","geometry":{"type":"MultiPolygon","coordinates":[[[[-96.2289,54.3833],[-97.0909,55.0654],[-101.0495,54.6243],[-101.5603,53.8971],[-97.1548,50.413],[-96.9313,48.5465],[-93.6431,47.1324],[-91.2022,47.3345],[-88.1618,48.9875],[-91.4403,49.6336],[-91.153,50.6362],[-95.2712,51.1197],[-96.197,52.3844],[-95.2712,53.8594],[-96.2289,54.3833]]],[[[-83.4911,47.4572],[-84.385,48.3347],[-87.9916,48.9834],[-84.8935,47.8599],[-84.4922,46.475],[-88.4838,46.81],[-87.8812,47.4617],[-89.2945,46.8874],[-87.6732,46.4549],[-87.197,45.5676],[-84.8177,45.882],[-85.7897,44.5306],[-84.1724,45.5889],[-84.6328,46.0289],[-83.0879,46.1852],[-83.4911,47.4572]]]]},"properties":{"NAME":"Laurel complex","SUBJECTO":"Laurel complex","PARTOF":"Laurel complex","BORDERPRECISION":1,"LINK":null}},
{"type":"Feature","geometry":{"type":"Polygon","coordinates":[[[-88.3782,33.1944],[-88.5391,32.8223],[-86.9938,32.8223],[-85.8486,34.4306],[-88.0729,35.1097],[-88.3782,33.1944]]]},"properties":{"NAME":"Copena","SUBJECTO":"Copena","PARTOF":"Copena","BORDERPRECISION":1,"LINK":null}},
{"type":"Feature","geometry":{"type":"Polygon","coordinates":[[[-88.5391,32.8223],[-89.67,31.7848],[-87.7746,30.2628],[-87.0891,30.359],[-86.9938,32.8223],[-88.5391,32.8223]]]},"properties":{"NAME":"Porter","SUBJECTO":"Porter","PARTOF":"Porter","BORDERPRECISION":1,"LINK":null}},
{"type":"Feature","geometry":{"type":"Polygon","coordinates":[[[-83.7441,43.6207],[-84.7731,43.3828],[-86.4534,44.1299],[-86.2301,42.6166],[-87.3751,41.6344],[-87.192,40.705],[-84.7383,41.7239],[-83.7441,43.6207]]]},"properties":{"NAME":"Goodall Focus","SUBJECTO":"Goodall Focus","PARTOF":"Goodall Focus","BORDERPRECISION":1,"LINK":null}},
{"type":"Feature","geometry":{"type":"Polygon","coordinates":[[[-80.0534,43.8084],[-81.698,45.2461],[-81.8586,42.2641],[-79.637,42.8531],[-80.0534,43.8084]]]},"properties":{"NAME":"Saugeen Complex","SUBJECTO":"Saugeen Complex","PARTOF":"Saugeen Complex","BORDERPRECISION":1,"LINK":null}},
{"type":"Feature","geometry":{"type":"Polygon","coordinates":[[[-84.7383,41.7239],[-83.6443,40.6013],[-81.9576,41.1531],[-83.4428,41.7022],[-82.4689,41.9911],[-82.7481,43.962],[-83.7441,43.6207],[-84.7383,41.7239]]]},"properties":{"NAME":"Couture Complex","SUBJECTO":"Couture Complex","PARTOF":"Couture Complex","BORDERPRECISION":1,"LINK":null}},
{"type":"Feature","geometry":{"type":"Polygon","coordinates":[[[-72.7989,47.5565],[-74.1904,47.9657],[-80.2996,45.9479],[-79.8213,43.8695],[-76.017,44.3359],[-76.1812,43.6126],[-74.5817,43.8225],[-70.5596,45.3093],[-70.364,46.8772],[-72.7989,47.5565]]]},"properties":{"NAME":"Point Peninsula","SUBJECTO":"Point Peninsula","PARTOF":"Point Peninsula","BORDERPRECISION":1,"LINK":null}},
{"type":"Feature","geometry":{"type":"Polygon","coordinates":[[[-75.5642,-12.8732],[-76.2418,-14.1056],[-74.3834,-15.8232],[-73.8897,-14.855],[-75.5642,-12.8732]]]},"properties":{"NAME":"Nazca","SUBJECTO":"Nazca","PARTOF":"Nazca","BORDERPRECISION":1,"LINK":null}},
{"type":"Feature","geometry":{"type":"Polygon","coordinates":[[[-5.1838,17.2008],[-7.4555,19.4435],[-9.909,17.8939],[-11.1811,15.4568],[-8.9094,12.6363],[-6.2648,13.3511],[-4.5477,15.1062],[-5.1838,17.2008]]]},"properties":{"NAME":"Empire of Ghana","SUBJECTO":"Empire of Ghana","PARTOF":"Empire of Ghana","BORDERPRECISION":1,"LINK":null}},
{"type":"Feature","geometry":{"type":"Polygon","coordinates":[[[6.8979,50.9254],[7.8339,51.6348],[6.6802,52.2444],[5.7474,51.9487],[6.8979,50.9254]]]},"properties":{"NAME":"Franks","SUBJECTO":"Franks","PARTOF":"Franks","BORDERPRECISION":1,"LINK":null}},
{"type":"Feature","geometry":{"type":"Polygon","coordinates":[[[8.3645,49.6864],[9.2256,50.414],[7.2945,50.661],[8.3645,49.6864]]]},"properties":{"NAME":"Burgunds","SUBJECTO":"Burgunds","PARTOF":"Burgunds","BORDERPRECISION":1,"LINK":null}},
{"type":"Feature","geometry":{"type":"Polygon","coordinates":[[[16.6842,58.6403],[18.6113,59.3333],[16.5232,59.5825],[19.0436,59.7124],[18.2524,60.3024],[15.8664,60.3114],[15.2939,59.416],[16.6842,58.6403]]]},"properties":{"NAME":"Swedes","SUBJECTO":"Swedes","PARTOF":"Swedes","BORDERPRECISION":1,"LINK":null}},
{"type":"Feature","geometry":{"type":"Polygon","coordinates":[[[16.5917,57.6328],[16.4729,58.5464],[11.1833,58.5635],[12.0758,57.2142],[14.281,58.0679],[16.5917,57.6328]]]},"properties":{"NAME":"Geats","SUBJECTO":"Geats","PARTOF":"Geats","BORDERPRECISION":1,"LINK":null}},
{"type":"Feature","geometry":{"type":"Polygon","coordinates":[[[78.8657,12.9757],[80.3199,13.3332],[80.3002,15.6457],[82.0814,16.4627],[86.6324,20.2036],[86.9372,21.2884],[88.053,21.9387],[90.2746,21.7783],[90.5641,22.9795],[91.5711,22.5433],[93.4235,25.017],[93.7725,26.5004],[93.0745,26.8494],[89.7588,25.9768],[86.1813,26.4131],[82.8656,27.8965],[77.1979,33.284],[74.7508,33.6553],[74.14,32.6083],[70.2875,31.2877],[68.9609,29.8874],[69.8347,26.4313],[71.115,24.3884],[68.8958,24.2329],[68.1283,23.6101],[70.3806,22.8606],[68.8942,22.2857],[70.4675,20.777],[71.8944,20.9897],[72.6956,22.1285],[73.0322,18.2157],[79.6371,21.3523],[80.6171,21.0167],[80.6842,19.3454],[81.3306,19.2937],[79.4138,16.9423],[78.8657,12.9757]]]},"properties":{"NAME":"Gupta Empire","SUBJECTO":"Gupta Empire","PARTOF":"Gupta Empire","BORDERPRECISION":1,"LINK":null}},
{"type":"Feature","geometry":{"type":"Polygon","coordinates":[[[59.3021,25.3402],[61.344,25.0269],[66.4323,25.4886],[68.1283,23.6101],[68.8958,24.2329],[71.115,24.3884],[69.8347,26.4313],[68.9609,29.8874],[70.2875,31.2877],[74.14,32.6083],[74.7508,33.6553],[73.0929,34.6151],[70.5625,34.8769],[62.7967,34.6151],[59.3021,25.3402]]]},"properties":{"NAME":"Suren Kingdom","SUBJECTO":"Suren Kingdom","PARTOF":"Suren Kingdom","BORDERPRECISION":1,"LINK":null}}
]}