{"type":"FeatureCollection", "features": [
{"type":"Feature","geometry":{"type":"Polygon","coordinates":[[[80.5629,5.9317],[81.4339,6.2703],[81.8662,7.0846],[80.1096,9.6866],[79.6746,8.8049],[79.8541,7.0612],[80.5629,5.9317]]]},"properties":{"NAME":"Simhala","SUBJECTO":"Simhala","PARTOF":"Simhala","BORDERPRECISION":1,"LINK":null}},
{"type":"Feature","geometry":{"type":"Polygon","coordinates":[[[-100.4936,20.8999],[-101.0088,20.2772],[-100.755,19.5883],[-99.9089,19.027],[-98.6215,19.2062],[-98.4828,19.8021],[-99.1069,20.5863],[-100.4936,20.8999]]]},"properties":{"NAME":"Teotihuacàn","SUBJECTO":"Teotihuacàn","PARTOF":"Teotihuacàn","BORDERPRECISION":1,"LINK":null}},
{"type":"Feature","geometry":{"type":"Polygon","coordinates":[[[-96.2059,17.8861],[-98.5869,17.9879],[-99.2109,17.7105],[-99.1762,17.2945],[-99.0158,16.8237],[-96.4375,16.2198],[-95.5014,16.5318],[-95.4321,17.4332],[-96.1879,17.8798],[-96.2059,17.8861]]]},"properties":{"NAME":"Monte Albàn","SUBJECTO":"Monte Albàn","PARTOF":"Monte Albàn","BORDERPRECISION":1,"LINK":null}},
{"type":"Feature","geometry":{"type":"Polygon","coordinates":[[[-93.144,16.9825],[-93.5879,15.7411],[-91.5157,14.0589],[-90,13.753],[-88.2429,14.8358],[-87.5706,15.908],[-88.6643,15.7258],[-88.9408,16.0334],[-88.2834,16.8347],[-88.3114,18.7415],[-87.8771,18.3809],[-87.8582,19.5823],[-86.9216,21.3006],[-88.3337,21.59],[-89.8628,21.2499],[-90,19.3815],[-91.2197,19.1025],[-91.7297,18.4157],[-92.0979,18.7596],[-92.9379,18.5862],[-93.144,16.9825]]]},"properties":{"NAME":"Maya states","SUBJECTO":"Maya states","PARTOF":"Maya states","BORDERPRECISION":1,"LINK":null}},
{"type":"Feature","geometry":{"type":"MultiPolygon","coordinates":[[[[-58.1395,48.5991],[-59.1566,47.6701],[-54.7826,47.7112],[-55.9039,47.064],[-55.4079,46.9479],[-54.2114,47.8036],[-54.0824,46.9895],[-53.6437,47.1792],[-53.0696,46.7313],[-52.7352,47.5457],[-53.8817,48.1893],[-53.1239,48.5958],[-54.1296,48.8357],[-53.5091,49.2819],[-55.1073,49.2788],[-56.0671,50.1033],[-56.7326,49.6884],[-55.5608,51.5574],[-57.3556,50.5952],[-57.8142,49.2015],[-58.6805,48.7026],[-58.1395,48.5991]]],[[[-60.8141,45.6444],[-59.8072,46.0812],[-61.072,45.9878],[-60.2598,46.9383],[-60.6271,47.1329],[-61.3806,46.3314],[-60.8141,45.6444]]]]},"properties":{"NAME":"Dorset","SUBJECTO":"Dorset","PARTOF":"Dorset","BORDERPRECISION":1,"LINK":null}},
{"type":"Feature","geometry":{"type":"Polygon","coordinates":[[[-96.1879,17.8798],[-93.144,16.9825],[-92.9379,18.5862],[-94.242,18.2402],[-95.8439,18.7961],[-97.5266,21.2545],[-98.1708,21.1773],[-98.5869,20.3799],[-97.9975,18.9239],[-96.2059,17.8861],[-96.1879,17.8798]]]},"properties":{"NAME":"Veracruz civilization","SUBJECTO":"Veracruz civilization","PARTOF":"Veracruz civilization","BORDERPRECISION":1,"LINK":null}},
{"type":"Feature","geometry":{"type":"Polygon","coordinates":[[[128.1645,34.7995],[127.6703,37.2096],[126.3919,37.6143],[126.7996,36.9466],[125.9603,36.7221],[126.6264,35.9281],[126.4096,34.269],[128.1645,34.7995]]]},"properties":{"NAME":"Paekche","SUBJECTO":"Paekche","PARTOF":"Paekche","BORDERPRECISION":1,"LINK":null}},
{"type":"Feature","geometry":{"type":"Polygon","coordinates":[[[128.1645,34.7995],[128.9178,35.0296],[129.4668,35.9275],[129.1293,37.3079],[127.4046,39.0753],[125.2937,38.6887],[124.7697,37.9359],[125.2694,37.4847],[125.5617,37.8355],[126.3919,37.6143],[127.6703,37.2096],[128.1645,34.7995]]]},"properties":{"NAME":"Silla","SUBJECTO":"Silla","PARTOF":"Silla","BORDERPRECISION":1,"LINK":null}},
{"type":"Feature","geometry":{"type":"Polygon","coordinates":[[[-79.486,-7.6176],[-76.6487,-12.8423],[-75.9894,-12.1943],[-76.358,-10.9657],[-79.6139,-5.4983],[-80.3511,-5.314],[-81.297,-6.0409],[-80.274,-6.5661],[-79.486,-7.6176]]]},"properties":{"NAME":"Moche","SUBJECTO":"Moche","PARTOF":"Moche","BORDERPRECISION":1,"LINK":null}},
{"type":"Feature","geometry":{"type":"Polygon","coordinates":[[[30.8085,23.8626],[29.4868,20.2779],[30.3465,16.9326],[30.7896,17.3216],[35.1923,17.5753],[34.4218,20.506],[33.3453,23.354],[33.6572,24.018],[30.8085,23.8626]]]},"properties":{"NAME":"Makkura","SUBJECTO":"Makkura","PARTOF":"Makkura","BORDERPRECISION":1,"LINK":null}},
{"type":"Feature","geometry":{"type":"Polygon","coordinates":[[[30.3465,16.9326],[30.7896,10.457],[32.0422,8.8035],[34.297,8.0519],[36.151,8.0018],[37.3535,8.6031],[42.6364,13.0934],[39.8979,15.502],[39.7964,15.0888],[38.6417,18.0607],[35.1923,17.5753],[30.7896,17.3216],[30.3465,16.9326]]]},"properties":{"NAME":"Axum","SUBJECTO":"Axum","PARTOF":"Axum","BORDERPRECISION":1,"LINK":null}},
{"type":"Feature","geometry":{"type":"Polygon","coordinates":[[[52.3566,16.2339],[50.7685,16.7941],[46.6764,15.796],[45.4787,15.9956],[42.3378,20.7164],[41.4063,21.2752],[39.5269,20.6922],[40.6938,19.8687],[42.7637,16.6455],[43.3028,13.241],[43.8406,12.6639],[48.7646,14.0977],[51.9504,15.5405],[52.3566,16.2339]]]},"properties":{"NAME":"Himyarite Kingdom","SUBJECTO":"Himyarite Kingdom","PARTOF":"Himyarite Kingdom","BORDERPRECISION":1,"LINK":null}},
{"type":"Feature","geometry":{"type":"MultiPolygon","coordinates":[[[[33.6572,24.018],[35.1899,24.3999],[32.3185,29.5402],[32.648,29.8522],[34.2412,27.7589],[34.9847,29.4672],[36.4696,29.5653],[38.3757,33.5316],[39.966,35.7706],[40.4749,37.8553],[38.4257,39.4798],[40.3929,39.7182],[41.5852,40.5528],[41.6805,41.7933],[40.361,40.9634],[38.314,40.9209],[36.3829,41.2375],[35.0019,42.0432],[33.1555,41.9496],[31.2177,41.0541],[29.1612,41.2164],[29.3204,40.7411],[29.8827,40.7464],[28.9016,40.6201],[29.0524,40.3347],[27.0561,40.4297],[26.186,39.9972],[26.0641,39.4555],[26.9575,39.5483],[26.6022,39.2557],[27.0349,38.8211],[26.3932,38.1044],[27.1398,37.8891],[27.3081,36.9207],[27.9988,36.9094],[28.0142,36.5272],[29.0023,36.6948],[29.4719,36.0907],[30.3949,36.118],[30.9053,36.7942],[33.1713,35.9709],[34.4851,36.6268],[36.0824,36.6215],[35.6649,36.1335],[35.8731,34.4223],[33.917,31.0701],[32.0765,31.0137],[30.996,31.4689],[28.9664,30.7848],[25.2582,31.4379],[21.6734,32.8156],[20.0684,32.0371],[19.6639,30.4415],[18.6083,30.3745],[18.6118,29.4066],[22.3078,29.961],[26.743,28.575],[28.4062,27.7434],[30.8085,23.8626],[33.6572,24.018]]],[[[18.8431,42.2414],[19.607,41.7615],[19.3691,40.2603],[21.1595,39.0048],[20.7718,38.8509],[21.1724,38.3478],[23.1163,38.1574],[21.2284,37.9049],[21.5882,36.9814],[22.3903,36.5244],[22.9826,36.6148],[22.6423,37.5849],[23.4181,37.4693],[22.8981,37.9],[23.9873,37.7634],[23.8039,38.3465],[22.4905,38.8769],[22.8509,39.3661],[23.2361,39.2032],[22.4921,40.4983],[23.9066,39.9972],[23.6272,40.3453],[24.2954,40.1765],[23.6347,40.7728],[25.0189,41.0171],[26.5565,40.4983],[26.1409,40.0447],[27.4742,40.9628],[29.0811,41.2005],[28.1044,41.593],[27.502,42.5163],[29.6159,45.4102],[28.2214,45.4841],[28.0366,44.3753],[25.2646,43.8209],[23.1394,43.9133],[22.9546,44.6525],[21.199,44.9297],[20.9218,44.6525],[19.0656,45.5351],[18.8431,42.2414]]],[[[33.792,34.9574],[34.4582,35.6446],[32.1437,35.0425],[32.8167,34.5386],[33.792,34.9574]]],[[[24.3244,35.2078],[24.6935,34.9405],[26.2735,35.3127],[23.5294,35.5696],[24.3244,35.2078]]]]},"properties":{"NAME":"Eastern Roman Empire","SUBJECTO":"Eastern Roman Empire","PARTOF":"Eastern Roman Empire","BORDERPRECISION":1,"LINK":null}},
{"type":"Feature","geometry":{"type":"Polygon","coordinates":[[[107.3298,15.2991],[107.6362,13.7437],[107.1005,10.4115],[108.8973,11.3426],[109.3071,12.9063],[108.0953,16.2516],[107.692,16.3714],[107.3298,15.2991]]]},"properties":{"NAME":"Champa","SUBJECTO":"Champa","PARTOF":"Champa","BORDERPRECISION":1,"LINK":null}},
{"type":"Feature","geometry":{"type":"MultiPolygon","coordinates":[[[[136.7339,34.8741],[136.1873,36.202],[135.3577,35.3225],[135.157,35.6465],[132.6629,35.3806],[130.7793,33.9669],[131.995,33.8043],[132.1835,34.2872],[135.2057,34.6171],[135.0629,33.69],[135.7557,33.3423],[136.8986,34.2587],[136.7339,34.8741]]],[[[130.744,30.8878],[131.831,32.6931],[131.5688,33.4861],[130.6444,33.7],[129.3434,33.1514],[130.4965,32.557],[130.0601,31.2166],[130.7325,31.4783],[130.744,30.8878]]],[[[132.6988,32.5489],[133.241,33.2991],[133.9986,33.1483],[134.5404,34.0127],[132.7843,33.9075],[132.1211,33.3475],[132.6988,32.5489]]]]},"properties":{"NAME":"Yamato","SUBJECTO":"Yamato","PARTOF":"Yamato","BORDERPRECISION":1,"LINK":null}},
{"type":"Feature","geometry":{"type":"Polygon","coordinates":[[[127.4046,39.0753],[127.6715,39.8664],[129.4778,40.682],[129.6413,41.6558],[127.2993,43.2384],[124.7023,42.3109],[124.1108,39.8754],[125.2065,39.4853],[125.2937,38.6887],[127.4046,39.0753]]]},"properties":{"NAME":"Koguryo","SUBJECTO":"Koguryo","PARTOF":"Koguryo","BORDERPRECISION":1,"LINK":null}},
{"type":"Feature","geometry":{"type":"Polygon","coordinates":[[[124.7023,42.3109],[123.8675,43.0529],[119.0445,42.3109],[118.2097,40.8269],[116.1692,40.6414],[111.103,40.8682],[107.3019,41.447],[102.9799,40.1802],[97.0185,40.8509],[96.2733,39.7331],[96.944,38.3918],[99.8502,37.3486],[102.8309,35.4857],[103.3525,33.1756],[107.6,33.7718],[109.6864,33.1011],[111.7729,33.8463],[114.8281,33.6227],[117.2127,34.5914],[116.9146,36.7524],[118.8752,37.9494],[117.5895,38.2845],[117.7529,39.2025],[118.9776,39.2241],[121.0106,40.8507],[122.1079,40.3537],[121.0653,38.7503],[124.1108,39.8754],[124.7023,42.3109]]]},"properties":{"NAME":"Toba Wei","SUBJECTO":"Toba Wei","PARTOF":"Toba Wei","BORDERPRECISION":1,"LINK":null}},
{"type":"Feature","geometry":{"type":"Polygon","coordinates":[[[71.6277,35.839],[70.2875,31.2877],[75.5915,33.6529],[76.004,34.6841],[77.2156,36.2824],[75.6534,37.3569],[74.2015,37.4888],[71.6277,35.839]]]},"properties":{"NAME":"Kushan Principalities","SUBJECTO":"Kushan Principalities","PARTOF":"Kushan Principalities","BORDERPRECISION":1,"LINK":null}},
{"type":"Feature","geometry":{"type":"Polygon","coordinates":[[[38.3757,33.5316],[47.614,29.2722],[47.9572,29.9476],[49.0202,30.4326],[50.1324,30.0664],[51.3501,28.0361],[54.6461,26.3913],[56.4309,27.1066],[57.4649,25.7048],[61.344,25.0269],[66.4323,25.4886],[67.3873,28.2264],[70.2875,31.2877],[71.6277,35.839],[71.2318,38.2148],[69.6479,37.5548],[69.6479,37.0929],[67.998,36.8949],[67.0578,37.1169],[66.7795,38.0444],[65.0173,38.5081],[62.6985,39.9921],[53.7997,36.679],[51.417,36.4557],[48.8372,37.511],[49.5733,40.1765],[50.4668,40.3254],[48.2541,42.2484],[41.6805,41.7933],[41.5852,40.5528],[40.3929,39.7182],[38.4257,39.4798],[40.4749,37.8553],[39.966,35.7706],[38.3757,33.5316]]]},"properties":{"NAME":"Sasanian Empire","SUBJECTO":"Sasanian Empire","PARTOF":"Sasanian Empire","BORDERPRECISION":1,"LINK":null}},
{"type":"Feature","geometry":{"type":"Polygon","coordinates":[[[70.2875,31.2877],[67.3873,28.2264],[66.4323,25.4886],[67.3159,24.0929],[68.7908,23.0287],[70.3806,22.8606],[69.9685,22.3515],[68.8942,22.2857],[70.2099,20.948],[70.8551,20.6508],[71.8944,20.9897],[72.233,22.0196],[72.6956,22.1285],[72.9311,20.9538],[74.9213,22.1451],[76.7774,21.8358],[80.0892,22.0913],[80.1802,16.68],[79.5797,15.4729],[79.7078,12.9256],[79.9228,12.1062],[80.3135,13.1045],[80.3002,15.6457],[82.0814,16.4627],[85.1132,19.4423],[86.6324,20.2036],[86.9372,21.2884],[88.053,21.9387],[88.2996,21.5518],[88.5676,21.8954],[88.8809,21.5149],[89.6702,21.7198],[90,22.561],[91.4102,22.7208],[92.1763,20.8866],[92.9215,20.3737],[91.8768,23.6374],[90,24.3081],[94.1869,25.7239],[94.498,26.1913],[93.9091,26.8216],[92.6284,27.095],[88.0019,25.8729],[86.5116,25.8729],[83.6054,26.9162],[78.7618,30.7911],[76.004,34.6841],[75.5915,33.6529],[70.2875,31.2877]]]},"properties":{"NAME":"Gupta Empire","SUBJECTO":"Gupta Empire","PARTOF":"Gupta Empire","BORDERPRECISION":1,"LINK":null}},
{"type":"Feature","geometry":{"type":"Polygon","coordinates":[[[72.9311,20.9538],[73.0642,18.0317],[74.1531,14.8495],[77.0016,14.9679],[79.5797,15.4729],[80.1802,16.68],[80.0892,22.0913],[76.7774,21.8358],[74.9213,22.1451],[72.9311,20.9538]]]},"properties":{"NAME":"Vakataka","SUBJECTO":"Vakataka","PARTOF":"Vakataka","BORDERPRECISION":1,"LINK":null}},
{"type":"Feature","geometry":{"type":"Polygon","coordinates":[[[76.6525,8.9028],[77.4195,8.028],[78.2419,8.8958],[77.6265,9.122],[76.6525,8.9028]]]},"properties":{"NAME":"Pandyas","SUBJECTO":"Pandyas","PARTOF":"Hindu kingdoms","BORDERPRECISION":1,"LINK":null}},
{"type":"Feature","geometry":{"type":"Polygon","coordinates":[[[101.5274,50.3814],[101.658,52.5958],[81.7803,51.1136],[75.2987,47.4133],[73.4351,44.5059],[76.3582,43.6246],[89.157,42.2714],[107.3597,44.0349],[116.3189,45.4489],[113.3325,53.4664],[111.1783,53.3058],[112.3622,52.139],[109.6535,50.7637],[105.5904,50.3494],[101.5274,50.3814]]]},"properties":{"NAME":"Ruanruan","SUBJECTO":"Ruanruan","PARTOF":"Ruanruan","BORDERPRECISION":1,"LINK":null}},
{"type":"Feature","geometry":{"type":"Polygon","coordinates":[[[34.4218,20.506],[34.5278,20.1748],[37.1357,21.1281],[35.7463,22.9143],[35.7247,23.9118],[35.1899,24.3999],[33.6572,24.018],[33.3453,23.354],[34.4218,20.506]]]},"properties":{"NAME":"Blemmyes","SUBJECTO":"Blemmyes","PARTOF":"Blemmyes","BORDERPRECISION":1,"LINK":null}},
{"type":"Feature","geometry":{"type":"Polygon","coordinates":[[[-88.1252,34.9299],[-88.4127,35.4742],[-89.4482,35.4742],[-90.6217,34.1709],[-89.6553,33.3963],[-88.3782,33.1944],[-88.1252,34.9299]]]},"properties":{"NAME":"Miller","SUBJECTO":"Miller","PARTOF":"Miller","BORDERPRECISION":1,"LINK":null}},
{"type":"Feature","geometry":{"type":"MultiPolygon","coordinates":[[[[-96.2289,54.3833],[-97.0909,55.0654],[-101.0495,54.6243],[-101.5603,53.8971],[-101.2092,53.2717],[-98.7191,52.2283],[-97.1548,50.413],[-96.9313,48.5465],[-93.6431,47.1324],[-91.2022,47.3345],[-88.43,48.825],[-88.5269,48.4496],[-88.1618,48.9875],[-89.9398,49.0303],[-91.4403,49.6336],[-90.706,50.2704],[-91.153,50.6362],[-93.9942,50.6362],[-95.2712,51.1197],[-96.197,52.3844],[-95.2712,53.8594],[-96.2289,54.3833]]],[[[-83.4911,47.4572],[-84.385,48.3347],[-86.4601,48.9465],[-87.9916,48.9834],[-86.4802,48.7632],[-85.9412,48.0482],[-84.8935,47.8599],[-84.4922,46.475],[-88.4838,46.81],[-87.8812,47.4617],[-89.2945,46.8874],[-87.6732,46.4549],[-87.197,45.5676],[-84.8177,45.882],[-85.5384,44.7515],[-85.5434,45.2118],[-86.072,44.8652],[-85.7897,44.5306],[-84.1724,45.5889],[-84.6328,46.0289],[-83.0879,46.1852],[-83.4911,47.4572]]]]},"properties":{"NAME":"Laurel complex","SUBJECTO":"Laurel complex","PARTOF":"Laurel complex","BORDERPRECISION":1,"LINK":null}},
{"type":"Feature","geometry":{"type":"Polygon","coordinates":[[[-88.3782,33.1944],[-88.5391,32.8223],[-86.9938,32.8223],[-85.8486,34.4306],[-86.3039,34.9299],[-88.1252,34.9299],[-88.3782,33.1944]]]},"properties":{"NAME":"Copena","SUBJECTO":"Copena","PARTOF":"Copena","BORDERPRECISION":1,"LINK":null}},
{"type":"Feature","geometry":{"type":"Polygon","coordinates":[[[-88.5391,32.8223],[-89.3475,32.6165],[-89.67,31.7848],[-89.1939,30.9587],[-88.1649,30.9982],[-87.6922,30.263],[-87.0891,30.359],[-86.9938,32.8223],[-88.5391,32.8223]]]},"properties":{"NAME":"Porter","SUBJECTO":"Porter","PARTOF":"Porter","BORDERPRECISION":1,"LINK":null}},
{"type":"Feature","geometry":{"type":"MultiPolygon","coordinates":[[[[-83.7441,43.6207],[-84.7731,43.3828],[-85.3346,43.9919],[-86.4534,44.1299],[-86.2301,42.6166],[-87.3751,41.6344],[-87.192,40.705],[-86.5225,40.7378],[-85.7018,41.6962],[-84.7383,41.7239],[-84.4491,42.8943],[-83.7441,43.6207]]],[[[-88.1638,41.9377],[-87.3751,41.6344],[-87.7906,42.8205],[-88.1638,41.9377]]]]},"properties":{"NAME":"Goodall Focus","SUBJECTO":"Goodall Focus","PARTOF":"Goodall Focus","BORDERPRECISION":1,"LINK":null}},
{"type":"Feature","geometry":{"type":"Polygon","coordinates":[[[-80.0534,43.8084],[-81.698,45.2461],[-81.297,44.7131],[-82.1656,43.084],[-81.8586,42.2641],[-79.637,42.8531],[-80.0534,43.8084]]]},"properties":{"NAME":"Saugeen Complex","SUBJECTO":"Saugeen Complex","PARTOF":"Saugeen Complex","BORDERPRECISION":1,"LINK":null}},
{"type":"Feature","geometry":{"type":"Polygon","coordinates":[[[-84.7383,41.7239],[-84.7472,41.6882],[-84.0498,40.7366],[-82.4441,40.7857],[-81.9452,41.5088],[-83.4499,41.7539],[-82.4689,41.9911],[-82.6581,43.8396],[-83.7441,43.6207],[-84.4491,42.8943],[-84.7383,41.7239]]]},"properties":{"NAME":"Couture Complex","SUBJECTO":"Couture Complex","PARTOF":"Couture Complex","BORDERPRECISION":1,"LINK":null}},
{"type":"Feature","geometry":{"type":"Polygon","coordinates":[[[-76.0601,47.3064],[-80.2996,45.9479],[-79.6713,44.7498],[-80.2916,44.5232],[-79.3675,43.6148],[-76.017,44.3359],[-76.1812,43.6126],[-74.5817,43.8225],[-73.0816,44.7562],[-70.5596,45.3093],[-70.0379,46.1742],[-70.364,46.8772],[-74.1904,47.9657],[-76.0601,47.3064]]]},"properties":{"NAME":"Point Peninsula","SUBJECTO":"Point Peninsula","PARTOF":"Point Peninsula","BORDERPRECISION":1,"LINK":null}},
{"type":"Feature","geometry":{"type":"Polygon","coordinates":[[[-75.5642,-12.8732],[-76.2418,-14.1056],[-74.3834,-15.8232],[-73.8897,-14.855],[-75.5642,-12.8732]]]},"properties":{"NAME":"Nazca","SUBJECTO":"Nazca","PARTOF":"Nazca","BORDERPRECISION":1,"LINK":null}},
{"type":"Feature","geometry":{"type":"Polygon","coordinates":[[[-5.1838,17.2008],[-7.4555,19.4435],[-9.909,17.8939],[-11.1811,15.4568],[-8.9094,12.6363],[-6.2648,13.3511],[-4.5477,15.1062],[-5.1838,17.2008]]]},"properties":{"NAME":"Empire of Ghana","SUBJECTO":"Empire of Ghana","PARTOF":"Empire of Ghana","BORDERPRECISION":1,"LINK":null}},
{"type":"Feature","geometry":{"type":"Polygon","coordinates":[[[-2.0639,54.9291],[-3.4304,54.6431],[-2.9145,53.2671],[-4.4919,52.991],[-4.1236,52.3733],[-5.2488,51.8602],[-2.8947,51.3938],[-4.281,51.1872],[-5.7778,50.1341],[-2.3462,50.63],[-2.0639,54.9291]]]},"properties":{"NAME":"Western Roman Empire","SUBJECTO":"Western Roman Empire","PARTOF":"Western Roman Empire","BORDERPRECISION":1,"LINK":null}},
{"type":"Feature","geometry":{"type":"Polygon","coordinates":[[[-5.8152,43.7033],[-7.9795,43.7401],[-9.1975,43.1582],[-8.6441,42.4197],[-8.7148,40.9319],[-6.9808,39.6139],[-4.766,42.2843],[-5.8152,43.7033]]]},"properties":{"NAME":"Sveves","SUBJECTO":"Sveves","PARTOF":"Sveves","BORDERPRECISION":1,"LINK":null}},
{"type":"Feature","geometry":{"type":"Polygon","coordinates":[[[-4.766,42.2843],[0.2709,41.8068],[0.5889,42.1367],[-1.6759,43.4226],[-5.8152,43.7033],[-4.766,42.2843]]]},"properties":{"NAME":"Basks","SUBJECTO":"Basks","PARTOF":"Basks","BORDERPRECISION":1,"LINK":null}},
{"type":"Feature","geometry":{"type":"Polygon","coordinates":[[[-2.3462,50.63],[0.8883,50.8927],[1.3647,51.3529],[0.2542,51.4536],[1.6917,52.3114],[1.3759,52.8092],[0.0055,52.7867],[-0.2955,54.0332],[-2.0639,54.9291],[-2.3462,50.63]]]},"properties":{"NAME":"Anglo-Saxons","SUBJECTO":"Anglo-Saxons","PARTOF":"Anglo-Saxons","BORDERPRECISION":1,"LINK":null}},
{"type":"Feature","geometry":{"type":"Polygon","coordinates":[[[9.345,52.2019],[7.2071,50.7193],[8.5424,49.3896],[7.9387,48.9252],[9.4863,48.3711],[11.1712,48.7198],[11.4117,49.9788],[9.345,52.2019]]]},"properties":{"NAME":"Turingians","SUBJECTO":"Turingians","PARTOF":"Turingians","BORDERPRECISION":1,"LINK":null}},
{"type":"Feature","geometry":{"type":"Polygon","coordinates":[[[19.0656,45.5351],[18.9144,47.8363],[15.7577,48.5378],[14.7556,48.1871],[12.2001,49.1391],[11.1712,48.7198],[9.4863,48.3711],[8.5681,48.1436],[9.0051,47.4358],[10.7547,46.8519],[6.9641,45.9044],[6.9565,44.5427],[6.2565,44.1936],[4.4536,44.3789],[4.2745,43.4054],[5.8286,43.0208],[8.6717,44.4174],[9.6919,44.2196],[11.1048,42.5491],[15.6662,40.0919],[16.2122,38.778],[15.7852,37.9097],[17.1807,39.0222],[16.5321,39.6975],[16.9487,40.4811],[18.3649,39.7467],[18.5226,40.0941],[15.991,41.4061],[16.1874,41.8409],[14.5193,42.2297],[12.3451,44.301],[12.2797,45.4023],[13.6732,45.7145],[13.8951,44.7592],[14.5246,45.2663],[16.0594,43.4335],[18.8431,42.2414],[19.0656,45.5351]]]},"properties":{"NAME":"Ostrogoths","SUBJECTO":"","PARTOF":"","BORDERPRECISION":1,"LINK":null}},
{"type":"Feature","geometry":{"type":"Polygon","coordinates":[[[9.0051,47.4358],[6.6894,47.1454],[6.4238,47.7924],[3.7708,47.7014],[3.7121,46.3315],[3.6312,44.4442],[4.4536,44.3789],[6.2565,44.1936],[6.9565,44.5427],[6.9641,45.9044],[10.7547,46.8519],[9.0051,47.4358]]]},"properties":{"NAME":"Burgunds","SUBJECTO":"Burgunds","PARTOF":"Burgunds","BORDERPRECISION":1,"LINK":null}},
{"type":"Feature","geometry":{"type":"MultiPolygon","coordinates":[[[[9.345,52.2019],[10.3527,54.354],[9.5439,55.3513],[10.8887,56.3687],[9.8346,56.8899],[8.1245,56.2075],[9.125,53.7905],[8.175,53.3217],[7.3324,53.6044],[7.1599,53.164],[5.3895,53.1386],[5.7569,52.3337],[4.9498,52.2779],[4.7188,52.8024],[3.775,51.3877],[5.1352,52.1267],[6.8576,51.5787],[7.2071,50.7193],[9.345,52.2019]]],[[[8.3589,57.0227],[8.4709,56.5969],[8.847,56.9863],[10.2566,57.0059],[10.5581,57.7451],[8.3589,57.0227]]]]},"properties":{"NAME":"Saxons","SUBJECTO":"Saxons","PARTOF":"Saxons","BORDERPRECISION":1,"LINK":null}},
{"type":"Feature","geometry":{"type":"Polygon","coordinates":[[[-1.7251,48.6229],[-4.762,48.552],[-4.3644,47.8293],[-2.3996,47.2207],[-1.7251,48.6229]]]},"properties":{"NAME":"Armorica","SUBJECTO":"Armorica","PARTOF":"Armorica","BORDERPRECISION":1,"LINK":null}},
{"type":"Feature","geometry":{"type":"MultiPolygon","coordinates":[[[[18.6083,30.3745],[15.8433,31.285],[15.0098,32.3634],[12.5648,32.7396],[10.4126,33.6311],[10.0195,34.0815],[11.1251,35.2406],[10.5115,36.0862],[11.0238,37.0683],[10.3928,36.7166],[9.7322,37.2824],[7.9132,36.7752],[6.3229,37.0906],[5.3827,36.6745],[3.7412,36.8369],[0.2311,36.0558],[2.5473,34.7254],[7.9859,35.5049],[8.6327,34.0265],[9.8339,32.9178],[18.6118,29.4066],[18.6083,30.3745]]],[[[3.3717,39.5492],[3.0714,39.9219],[2.3642,39.5558],[3.0569,39.2631],[3.3717,39.5492]]],[[[9.3575,41.9012],[9.3671,42.9881],[8.5004,42.3598],[9.0389,41.3695],[9.3575,41.9012]]],[[[12.6369,37.5815],[15.0273,36.7451],[15.4729,38.1101],[12.7828,38.1174],[12.6369,37.5815]]],[[[8.465,39.6399],[8.6961,38.9958],[9.4789,39.1442],[9.7937,40.5637],[9.3062,41.1844],[8.1595,40.7847],[8.465,39.6399]]]]},"properties":{"NAME":"Vandals","SUBJECTO":"Vandals","PARTOF":"Vandals","BORDERPRECISION":1,"LINK":null}},
{"type":"Feature","geometry":{"type":"Polygon","coordinates":[[[111.1783,53.3058],[110.8573,53.6221],[108.6862,53.6524],[108.9823,53.3933],[107.9477,52.7803],[104.6552,51.4823],[103.7227,51.7109],[105.2427,51.9382],[107.7156,53.6659],[101.6778,52.9323],[101.658,52.5958],[101.5274,50.3814],[105.5904,50.3494],[109.6535,50.7637],[112.3622,52.139],[111.1783,53.3058]]]},"properties":{"NAME":"Kurykans","SUBJECTO":"Kurykans","PARTOF":"Tiele","BORDERPRECISION":1,"LINK":null}},
{"type":"Feature","geometry":{"type":"Polygon","coordinates":[[[16.6842,58.6403],[18.6113,59.3333],[17.5749,59.2141],[16.5232,59.5825],[18.0301,59.3593],[19.0436,59.7124],[18.2524,60.3024],[15.8664,60.3114],[15.2939,59.416],[16.6842,58.6403]]]},"properties":{"NAME":"Swedes","SUBJECTO":"Swedes","PARTOF":"Swedes","BORDERPRECISION":1,"LINK":null}},
{"type":"Feature","geometry":{"type":"Polygon","coordinates":[[[77.6265,9.122],[77.6533,10.3221],[76.2732,10.0391],[76.6525,8.9028],[77.6265,9.122]]]},"properties":{"NAME":"Cheras","SUBJECTO":"Cheras","PARTOF":"Hindu kingdoms","BORDERPRECISION":1,"LINK":null}},
{"type":"Feature","geometry":{"type":"Polygon","coordinates":[[[77.6533,10.3221],[77.8614,10.3648],[77.4721,12.4489],[75.1952,12.1513],[76.2732,10.0391],[77.6533,10.3221]]]},"properties":{"NAME":"Western Gangas","SUBJECTO":"Western Gangas","PARTOF":"Hindu kingdoms","BORDERPRECISION":1,"LINK":null}},
{"type":"Feature","geometry":{"type":"Polygon","coordinates":[[[78.2419,8.8958],[79.1596,9.2772],[79.1571,10.0039],[77.8614,10.3648],[77.6533,10.3221],[77.6265,9.122],[78.2419,8.8958]]]},"properties":{"NAME":"Cholas","SUBJECTO":"Cholas","PARTOF":"Hindu kingdoms","BORDERPRECISION":1,"LINK":null}},
{"type":"Feature","geometry":{"type":"Polygon","coordinates":[[[74.1531,14.8495],[75.1952,12.1513],[77.4721,12.4489],[77.0016,14.9679],[74.1531,14.8495]]]},"properties":{"NAME":"Kadambas","SUBJECTO":"Kadambas","PARTOF":"Hindu kingdoms","BORDERPRECISION":1,"LINK":null}},
{"type":"Feature","geometry":{"type":"Polygon","coordinates":[[[79.7078,12.9256],[77.4721,12.4489],[77.8614,10.3648],[79.1571,10.0039],[79.7899,10.2506],[79.9228,12.1062],[79.7078,12.9256]]]},"properties":{"NAME":"Pallavas","SUBJECTO":"Pallavas","PARTOF":"Hindu kingdoms","BORDERPRECISION":1,"LINK":null}},
{"type":"Feature","geometry":{"type":"Polygon","coordinates":[[[79.5797,15.4729],[77.0016,14.9679],[77.4721,12.4489],[79.7078,12.9256],[79.5797,15.4729]]]},"properties":{"NAME":"Vishnu-Kundins","SUBJECTO":"Vishnu-Kundins","PARTOF":"Hindu kingdoms","BORDERPRECISION":1,"LINK":null}},
{"type":"Feature","geometry":{"type":"MultiPolygon","coordinates":[[[[103.3525,33.1756],[102.8309,31.6853],[99.7524,27.4708],[100.4148,25.0859],[102.0112,24.6807],[102.3837,24.01],[103.5671,19.602],[104.3811,18.328],[106.3938,17.6645],[105.5326,18.8442],[106.807,20.905],[107.3743,20.8808],[108.555,21.8234],[109.7798,21.483],[109.7116,20.5682],[110.2713,20.3153],[110.2388,21.2807],[112.7495,21.7561],[113.4626,22.7739],[114.5587,22.4649],[116.3406,22.9133],[117.8491,24.0471],[117.9249,24.5617],[118.8129,24.8494],[119.4286,25.6509],[119.4289,26.5908],[121.2597,28.1823],[121.7703,29.8343],[119.9437,30.1162],[121.5689,30.7101],[121.2683,31.4523],[121.606,31.8276],[119.0032,34.9395],[119.9138,36.1434],[122.2556,36.7337],[122.3929,37.3006],[120.6581,37.7365],[118.9546,37.0771],[118.8752,37.9494],[116.9146,36.7524],[117.2127,34.5914],[114.8281,33.6227],[111.7729,33.8463],[109.6864,33.1011],[107.6,33.7718],[103.3525,33.1756]]],[[[108.9386,18.3306],[109.4297,18.0966],[110.2625,18.6256],[110.8854,19.7068],[110.6174,20.0175],[109.5503,19.9136],[108.5769,19.1874],[108.9386,18.3306]]]]},"properties":{"NAME":"Jin Empire","SUBJECTO":"Jin Empire","PARTOF":"Jin Empire","BORDERPRECISION":1,"LINK":null}},
{"type":"Feature","geometry":{"type":"Polygon","coordinates":[[[107.3298,15.2991],[101.8808,16.2349],[101.7693,12.6387],[102.6585,12.0661],[103.0396,10.898],[103.5249,11.0578],[103.5249,10.5242],[104.9785,9.9809],[104.7425,8.4937],[106.482,9.5521],[106.7732,10.6392],[107.1005,10.4115],[107.6362,13.7437],[107.3298,15.2991]]]},"properties":{"NAME":"Funan","SUBJECTO":"Funan","PARTOF":"Funan","BORDERPRECISION":1,"LINK":null}},
{"type":"Feature","geometry":{"type":"Polygon","coordinates":[[[101.8808,16.2349],[97.6739,15.6931],[98.8674,11.645],[98.2428,8.9013],[99.4677,8.2526],[99.0713,9.8983],[100.04,13.3947],[100.9087,13.4473],[100.8716,12.6785],[101.7693,12.6387],[101.8808,16.2349]]]},"properties":{"NAME":"Lavo","SUBJECTO":"Lavo","PARTOF":"Lavo","BORDERPRECISION":1,"LINK":null}},
{"type":"Feature","geometry":{"type":"Polygon","coordinates":[[[7.2071,50.7193],[6.8576,51.5787],[5.1352,52.1267],[3.775,51.3877],[1.5889,50.8219],[1.552,50.2288],[0.0329,49.3337],[-1.9413,49.7093],[-1.7251,48.6229],[-2.3996,47.2207],[-1.2199,46.2574],[3.7121,46.3315],[3.7708,47.7014],[6.4238,47.7924],[6.6894,47.1454],[9.0051,47.4358],[8.5681,48.1436],[9.4863,48.3711],[7.9387,48.9252],[8.5424,49.3896],[7.2071,50.7193]]]},"properties":{"NAME":"Franks","SUBJECTO":"Franks","PARTOF":"Western Roman Empire","BORDERPRECISION":1,"LINK":null}},
{"type":"Feature","geometry":{"type":"Polygon","coordinates":[[[-8.7148,40.9319],[-9.549,38.7745],[-9.0408,38.9202],[-9.2366,38.4174],[-8.7889,38.436],[-8.9908,36.99],[-6.948,37.1493],[-5.6606,36.008],[-4.4466,36.722],[-2.2388,36.7284],[0.1726,38.7383],[-0.3948,39.4345],[0.7338,40.875],[3.1289,41.8572],[3.0679,42.9446],[4.2745,43.4054],[4.4536,44.3789],[3.6312,44.4442],[3.7121,46.3315],[-1.2199,46.2574],[-0.7285,45.0186],[-1.1752,45.5005],[-1.6759,43.4226],[0.5889,42.1367],[0.2709,41.8068],[-4.766,42.2843],[-6.9808,39.6139],[-8.7148,40.9319]]]},"properties":{"NAME":"Visigoths","SUBJECTO":"Visigoths","PARTOF":"Visigoths","BORDERPRECISION":1,"LINK":null}},
{"type":"Feature","geometry":{"type":"MultiPolygon","coordinates":[[[[178.1755,-18.2417],[178.6811,-18.0742],[178.5983,-17.6431],[178.193,-17.3011],[177.5103,-17.5094],[177.3297,-18.1158],[178.1755,-18.2417]]],[[[179.5686,-16.7581],[180,-16.1727],[180,-16.1547],[178.4761,-16.7636],[178.7539,-17.0114],[179.9372,-16.7544],[179.9419,-16.4644],[179.5686,-16.7581]]]]},"properties":{"NAME":"Tuʻi Tonga Empire","SUBJECTO":"Tuʻi Tonga Empire","PARTOF":"Tuʻi Tonga Empire","BORDERPRECISION":1,"LINK":null}}
]}