{"type":"FeatureCollection", "features": [
{"type":"Feature","geometry":{"type":"Polygon","coordinates":[[[106.9299,11.8424],[106.7732,10.6392],[107.412,10.3674],[108.6959,11.1452],[109.3071,12.9063],[108.7861,15.0906],[107.3753,16.6915],[106.4515,16.188],[107.2689,15.1186],[107.6362,13.7437],[107.5434,12.2597],[106.9299,11.8424]]]},"properties":{"NAME":"Champa","SUBJECTO":"Champa","PARTOF":"Champa","BORDERPRECISION":1,"LINK":null}},
{"type":"Feature","geometry":{"type":"Polygon","coordinates":[[[-71.6119,-17.2215],[-70.4539,-18.2228],[-70.2085,-19.0672],[-70.3981,-25.2489],[-68.1918,-25.492],[-67.2376,-18.3642],[-67.9423,-15.428],[-69.0098,-14.1857],[-69.8745,-14.3771],[-71.6119,-17.2215]]]},"properties":{"NAME":"Tiahuanaco Empire","SUBJECTO":"Tiahuanaco Empire","PARTOF":"Tiahuanaco Empire","BORDERPRECISION":1,"LINK":null}},
{"type":"Feature","geometry":{"type":"Polygon","coordinates":[[[80.5629,5.9317],[81.4339,6.2703],[81.8662,7.0846],[80.1096,9.6866],[79.6746,8.8049],[79.8541,7.0612],[80.5629,5.9317]]]},"properties":{"NAME":"Simhala","SUBJECTO":"Simhala","PARTOF":"Simhala","BORDERPRECISION":1,"LINK":null}},
{"type":"Feature","geometry":{"type":"Polygon","coordinates":[[[-100.4936,20.8999],[-101.0088,20.2772],[-100.755,19.5883],[-99.9089,19.027],[-98.6215,19.2062],[-98.4828,19.8021],[-99.1069,20.5863],[-100.4936,20.8999]]]},"properties":{"NAME":"Teotihuacàn","SUBJECTO":"Teotihuacàn","PARTOF":"Teotihuacàn","BORDERPRECISION":1,"LINK":null}},
{"type":"Feature","geometry":{"type":"Polygon","coordinates":[[[-96.2059,17.8861],[-98.5869,17.9879],[-99.2109,17.7105],[-99.1762,17.2945],[-99.0158,16.8237],[-96.4375,16.2198],[-95.5014,16.5318],[-95.4321,17.4332],[-96.1879,17.8798],[-96.2059,17.8861]]]},"properties":{"NAME":"Monte Alb?n","SUBJECTO":"Monte Alb?n","PARTOF":"Monte Alb?n","BORDERPRECISION":1,"LINK":null}},
{"type":"Feature","geometry":{"type":"Polygon","coordinates":[[[-93.144,16.9825],[-93.5879,15.7411],[-91.5157,14.0589],[-90,13.753],[-88.2429,14.8358],[-87.5706,15.908],[-88.6313,15.9833],[-88.6643,15.7258],[-88.9408,16.0334],[-88.2834,16.8347],[-88.3114,18.7415],[-87.8771,18.3809],[-87.8582,19.5823],[-86.9216,21.3006],[-88.3337,21.59],[-89.8628,21.2499],[-90,19.3815],[-91.2197,19.1025],[-91.7297,18.4157],[-92.0979,18.7596],[-92.9379,18.5862],[-93.144,16.9825]]]},"properties":{"NAME":"Maya states","SUBJECTO":"Maya states","PARTOF":"Maya states","BORDERPRECISION":1,"LINK":null}},
{"type":"Feature","geometry":{"type":"Polygon","coordinates":[[[-79.486,-7.6176],[-79.0597,-5.9691],[-79.6543,-5.7233],[-80.6684,-6.3472],[-79.486,-7.6176]]]},"properties":{"NAME":"Moche","SUBJECTO":"Moche","PARTOF":"Moche","BORDERPRECISION":1,"LINK":null}},
{"type":"Feature","geometry":{"type":"Polygon","coordinates":[[[-96.1879,17.8798],[-93.144,16.9825],[-92.9379,18.5862],[-94.242,18.2402],[-95.8439,18.7961],[-97.5266,21.2545],[-98.1708,21.1773],[-98.5869,20.3799],[-97.9975,18.9239],[-96.2059,17.8861],[-96.1879,17.8798]]]},"properties":{"NAME":"Veracruz civilization","SUBJECTO":"Veracruz civilization","PARTOF":"Veracruz civilization","BORDERPRECISION":1,"LINK":null}},
{"type":"Feature","geometry":{"type":"Polygon","coordinates":[[[30.5313,15.8239],[30.5313,14.093],[31.8049,12.5219],[34.2156,12.554],[35.1513,13.0519],[35.4662,14.28],[35.2671,16.3855],[30.5313,15.8239]]]},"properties":{"NAME":"Alwa","SUBJECTO":"Alwa","PARTOF":"Alwa","BORDERPRECISION":1,"LINK":null}},
{"type":"Feature","geometry":{"type":"Polygon","coordinates":[[[35.2671,16.3855],[34.4218,20.506],[29.8458,20.1164],[29.6618,18.6445],[30.5313,15.8239],[35.2671,16.3855]]]},"properties":{"NAME":"Makkura","SUBJECTO":"Makkura","PARTOF":"Makkura","BORDERPRECISION":1,"LINK":null}},
{"type":"Feature","geometry":{"type":"Polygon","coordinates":[[[34.4218,20.506],[33.3453,23.354],[33.6572,24.018],[30.8085,23.8626],[29.8458,20.1164],[34.4218,20.506]]]},"properties":{"NAME":"Nobatia","SUBJECTO":"Nobatia","PARTOF":"Nobatia","BORDERPRECISION":1,"LINK":null}},
{"type":"Feature","geometry":{"type":"Polygon","coordinates":[[[-6.7056,38.2769],[-5.7817,37.9073],[-2.8249,37.7225],[-1.5313,39.2009],[-0.3346,39.4257],[0.8792,41.0217],[3.1289,41.8572],[3.0679,42.9446],[3.8075,43.4672],[3.2735,43.7285],[1.8875,42.5273],[-0.8673,43.2997],[-0.8564,43.0238],[-3.8548,42.9519],[-3.8107,43.4337],[-7.9795,43.7401],[-9.2708,43.0487],[-8.6441,42.4197],[-8.6941,40.9922],[-9.5224,38.6899],[-8.9608,38.8185],[-9.2852,38.6195],[-8.7889,38.436],[-8.8487,37.8168],[-8.791,37.8292],[-6.7056,38.2769]]]},"properties":{"NAME":"Visigothic Kingdom","SUBJECTO":"Visigothic Kingdom","PARTOF":"Visigothic Kingdom","BORDERPRECISION":1,"LINK":null}},
{"type":"Feature","geometry":{"type":"Polygon","coordinates":[[[-2.6137,47.5722],[-2.7905,48.5896],[-3.4351,48.8365],[-4.7796,48.3548],[-4.3502,48.3905],[-4.3644,47.8293],[-2.6137,47.5722]]]},"properties":{"NAME":"Broërec","SUBJECTO":"Broërec","PARTOF":"Broërec","BORDERPRECISION":1,"LINK":null}},
{"type":"Feature","geometry":{"type":"Polygon","coordinates":[[[100.6799,24.1318],[100.1234,23.8535],[100.1227,20.1694],[100.6982,19.4789],[103.2342,20.1229],[103.8334,20.1435],[106.4304,24.8738],[103.6827,26.0564],[100.6799,24.1318]]]},"properties":{"NAME":"Thai Kingdoms","SUBJECTO":"Thai Kingdoms","PARTOF":"Thai Kingdoms","BORDERPRECISION":1,"LINK":null}},
{"type":"Feature","geometry":{"type":"Polygon","coordinates":[[[106.4515,16.188],[104.1116,15.506],[104.0189,12.909],[104.3899,11.9815],[106.9299,11.8424],[107.5434,12.2597],[107.6362,13.7437],[107.2689,15.1186],[106.4515,16.188]]]},"properties":{"NAME":"Chen-La","SUBJECTO":"Chen-La","PARTOF":"Chen-La","BORDERPRECISION":1,"LINK":null}},
{"type":"Feature","geometry":{"type":"Polygon","coordinates":[[[88.3275,28.0131],[85.6543,28.5838],[80.7385,30.9026],[78.3424,32.5939],[76.843,30.2533],[76.9216,29.3878],[78.541,27.6277],[80.4602,25.7086],[82.5935,24.781],[83.9848,24.781],[85.0978,25.8013],[85.9325,25.2448],[87.602,25.0593],[88.344,26.4506],[88.3275,28.0131]]]},"properties":{"NAME":"Kanauj","SUBJECTO":"Kanauj","PARTOF":"Kanauj","BORDERPRECISION":1,"LINK":null}},
{"type":"Feature","geometry":{"type":"Polygon","coordinates":[[[88.344,26.4506],[91.5903,25.5231],[91.5711,22.5433],[92.0413,23.115],[94.5583,25.7086],[94.4656,26.4506],[88.3275,28.0131],[88.344,26.4506]]]},"properties":{"NAME":"Kamarupa","SUBJECTO":"Kamarupa","PARTOF":"Kamarupa","BORDERPRECISION":1,"LINK":null}},
{"type":"Feature","geometry":{"type":"Polygon","coordinates":[[[78.541,27.6277],[74.1174,26.5443],[72.6277,28.3666],[76.9216,29.3878],[76.843,30.2533],[78.3424,32.5939],[75.2198,34.7981],[73.8286,36.7459],[67.1492,34.6024],[67.2433,32.0156],[66.4323,25.4886],[67.3159,24.0929],[68.7908,23.0287],[70.3806,22.8606],[69.9685,22.3515],[68.8942,22.2857],[70.2099,20.948],[70.8551,20.6508],[71.8944,20.9897],[72.233,22.0196],[72.6956,22.1285],[72.9311,20.9538],[80.0892,22.0913],[80.2747,19.8653],[82.354,17.0859],[85.3791,19.6054],[84.7268,20.8855],[84.8195,23.8535],[83.9848,24.781],[82.5935,24.781],[80.4602,25.7086],[78.541,27.6277]]]},"properties":{"NAME":"Hindu kingdoms","SUBJECTO":"Hindu kingdoms","PARTOF":"Hindu kingdoms","BORDERPRECISION":1,"LINK":null}},
{"type":"Feature","geometry":{"type":"Polygon","coordinates":[[[83.9848,24.781],[84.8195,23.8535],[84.7268,20.8855],[85.3791,19.6054],[86.6324,20.2036],[86.8187,21.1865],[88.053,21.9387],[88.8809,21.5149],[90,21.9303],[90,22.561],[91.5711,22.5433],[91.5903,25.5231],[88.344,26.4506],[87.602,25.0593],[85.9325,25.2448],[85.0978,25.8013],[83.9848,24.781]]]},"properties":{"NAME":"Shaskanka","SUBJECTO":"Shaskanka","PARTOF":"Shaskanka","BORDERPRECISION":1,"LINK":null}},
{"type":"Feature","geometry":{"type":"Polygon","coordinates":[[[79.7122,11.4245],[78.698,11.054],[77.1212,11.2395],[77.1212,12.0742],[76.2865,12.6307],[76.472,13.7437],[75.0807,14.393],[74.5209,14.1551],[76.7035,8.7064],[77.3414,8.0533],[79.1596,9.2772],[78.9266,9.4927],[79.2225,10.1922],[79.8263,10.3587],[79.7122,11.4245]]]},"properties":{"NAME":"Hindu kingdoms","SUBJECTO":"Hindu kingdoms","PARTOF":"Hindu kingdoms","BORDERPRECISION":1,"LINK":null}},
{"type":"Feature","geometry":{"type":"Polygon","coordinates":[[[79.7122,11.4245],[80.3135,13.1045],[80.0871,14.9464],[79.069,15.2277],[78.9762,17.6393],[78.0487,17.4538],[75.0807,14.393],[76.472,13.7437],[76.2865,12.6307],[77.1212,12.0742],[77.1212,11.2395],[78.698,11.054],[79.7122,11.4245]]]},"properties":{"NAME":"Pallavas","SUBJECTO":"Pallavas","PARTOF":"Pallavas","BORDERPRECISION":1,"LINK":null}},
{"type":"Feature","geometry":{"type":"Polygon","coordinates":[[[72.9311,20.9538],[73.1847,17.5173],[74.5209,14.1551],[75.0807,14.393],[78.0487,17.4538],[78.9762,17.6393],[79.069,15.2277],[80.0871,14.9464],[80.3002,15.6457],[82.0814,16.4627],[82.354,17.0859],[80.2747,19.8653],[80.0892,22.0913],[72.9311,20.9538]]]},"properties":{"NAME":"Chalukyas","SUBJECTO":"Chalukyas","PARTOF":"Chalukyas","BORDERPRECISION":1,"LINK":null}},
{"type":"Feature","geometry":{"type":"Polygon","coordinates":[[[127.4046,39.0753],[127.6715,39.8664],[129.4778,40.682],[129.6413,41.6558],[131.5842,43.2127],[132.8274,42.8619],[132.1223,44.6297],[129.9505,45.2867],[129.247,45.1862],[127.2993,43.2384],[125.5075,42.5985],[124.7023,42.3109],[122.0824,40.488],[121.0653,38.7503],[124.1041,39.8848],[125.2065,39.4853],[125.2937,38.6887],[127.4046,39.0753]]]},"properties":{"NAME":"Koguryo","SUBJECTO":"Koguryo","PARTOF":"Koguryo","BORDERPRECISION":1,"LINK":null}},
{"type":"Feature","geometry":{"type":"Polygon","coordinates":[[[128.1645,34.7995],[127.6703,37.2096],[126.3919,37.6143],[126.7996,36.9466],[125.9603,36.7221],[126.6264,35.9281],[126.2254,35.164],[126.4096,34.269],[127.596,34.8935],[128.1645,34.7995]]]},"properties":{"NAME":"Paekche","SUBJECTO":"Paekche","PARTOF":"Paekche","BORDERPRECISION":1,"LINK":null}},
{"type":"Feature","geometry":{"type":"Polygon","coordinates":[[[125.2937,38.6887],[124.7697,37.9359],[125.2694,37.4847],[125.5617,37.8355],[126.3919,37.6143],[127.6703,37.2096],[128.1645,34.7995],[128.9178,35.0296],[129.4668,35.9275],[129.1293,37.3079],[127.4046,39.0753],[125.2937,38.6887]]]},"properties":{"NAME":"Silla","SUBJECTO":"Silla","PARTOF":"Silla","BORDERPRECISION":1,"LINK":null}},
{"type":"Feature","geometry":{"type":"MultiPolygon","coordinates":[[[[136.7219,37.2659],[135.7271,35.4505],[132.6629,35.3806],[130.7793,33.9669],[131.995,33.8043],[132.1835,34.2872],[135.2057,34.6171],[135.0629,33.69],[135.7557,33.3423],[136.8986,34.2587],[136.5071,34.5182],[136.7339,34.8741],[137.2482,34.4816],[138.1491,34.5279],[138.6837,34.9923],[138.8638,34.5674],[139.6827,35.4458],[140.0029,35.4974],[139.8301,34.836],[140.8343,35.6771],[140.8722,37.9174],[139.4781,38.3255],[137.1762,36.6431],[137.3096,37.4327],[136.7219,37.2659]]],[[[130.744,30.8878],[131.831,32.6931],[131.5688,33.4861],[130.6444,33.7],[129.3434,33.1514],[129.7337,32.638],[130.1075,32.9308],[130.4965,32.557],[130.0601,31.2166],[130.7325,31.4783],[130.744,30.8878]]],[[[132.6988,32.5489],[133.241,33.2991],[133.9986,33.1483],[134.5404,34.0127],[132.7843,33.9075],[132.1211,33.3475],[132.6988,32.5489]]]]},"properties":{"NAME":"Yamato","SUBJECTO":"Yamato","PARTOF":"Yamato","BORDERPRECISION":1,"LINK":null}},
{"type":"Feature","geometry":{"type":"MultiPolygon","coordinates":[[[[112.6784,-7.7188],[107.5434,-7.1252],[105.7943,-6.2893],[105.1848,-6.8657],[106.3655,-7.0397],[106.4837,-7.5034],[109.0372,-7.7203],[110.7777,-8.3203],[113.0738,-8.3471],[114.3293,-8.783],[114.2308,-7.9315],[112.6784,-7.7188]]],[[[115.0724,-8.7814],[115.5005,-8.469],[114.4575,-8.3314],[115.0724,-8.7814]]]]},"properties":{"NAME":"Mataram","SUBJECTO":"Mataram","PARTOF":"Mataram","BORDERPRECISION":1,"LINK":null}},
{"type":"Feature","geometry":{"type":"Polygon","coordinates":[[[100.3019,7.8868],[99.1186,7.6428],[99.663,6.71],[100.222,6.5206],[100.6643,3.9037],[101.3364,2.7805],[103.3491,1.4124],[104.1756,1.3887],[103.3511,2.804],[103.3418,4.8054],[101.5599,6.7395],[100.5396,7.0487],[100.3019,7.8868]]]},"properties":{"NAME":"minor states under Indian influence","SUBJECTO":"minor states under Indian influence","PARTOF":"minor states under Indian influence","BORDERPRECISION":1,"LINK":null}},
{"type":"Feature","geometry":{"type":"MultiPolygon","coordinates":[[[[112.6784,-7.7188],[112.2748,-7.0269],[110.8146,-6.5343],[110.2426,-7.0313],[109.1611,-7.0231],[106.9451,-6.026],[105.7943,-6.2893],[107.5434,-7.1252],[112.6784,-7.7188]]],[[[102.7016,0.5658],[102.4421,-0.0761],[102.7204,-1.3746],[105.6407,-5.929],[105.9428,-3.2147],[105.4449,-2.5993],[104.6778,-2.6708],[104.8126,-2.1558],[104.3524,-1.8899],[104.2299,-1.1911],[103.2376,-0.6595],[103.7222,0.0152],[102.7016,0.5658]]],[[[106.5527,-3.1752],[106.6427,-2.7111],[105.8634,-1.6261],[105.6557,-1.957],[105.4267,-1.7096],[105.1997,-2.1105],[106.5527,-3.1752]]],[[[114.2185,-3.4319],[114.0174,-2.7102],[111.643,-2.1908],[109.7828,-1.3062],[110.1023,-3.0785],[111.5872,-2.7957],[111.7395,-3.647],[112.5777,-3.4227],[112.7954,-2.971],[113.6084,-3.6111],[114.2185,-3.4319]]]]},"properties":{"NAME":"minor states under Indian influence","SUBJECTO":"minor states under Indian influence","PARTOF":"minor states under Indian influence","BORDERPRECISION":1,"LINK":null}},
{"type":"Feature","geometry":{"type":"Polygon","coordinates":[[[67.1492,34.6024],[66.7795,38.0444],[65.0173,38.5081],[62.6985,39.9921],[61.9565,41.2907],[56.8552,39.4356],[54.0331,38.9927],[53.9845,36.7819],[51.7955,36.4323],[48.8372,37.511],[49.5733,40.1765],[50.4668,40.3254],[49.6052,40.6871],[48.2541,42.2484],[44.3913,41.8805],[38.3757,33.5316],[39.4902,33.3623],[47.614,29.2722],[47.9572,29.9476],[48.7138,30],[49.0202,30.4326],[50.1324,30.0664],[51.3501,28.0361],[54.6461,26.3913],[56.4309,27.1066],[57.4649,25.7048],[61.344,25.0269],[66.4323,25.4886],[67.2433,32.0156],[67.1492,34.6024]]]},"properties":{"NAME":"Sasanian Empire","SUBJECTO":"Sasanian Empire","PARTOF":"Sasanian Empire","BORDERPRECISION":1,"LINK":null}},
{"type":"Feature","geometry":{"type":"Polygon","coordinates":[[[57.3594,23.8585],[57.4557,21.6847],[57.9313,20.4009],[58.4031,20.3575],[59.8257,22.3745],[58.6285,23.4583],[57.3594,23.8585]]]},"properties":{"NAME":"Mazun","SUBJECTO":"Mazun","PARTOF":"Mazun","BORDERPRECISION":1,"LINK":null}},
{"type":"Feature","geometry":{"type":"Polygon","coordinates":[[[41.2015,18.8964],[42.7637,16.6455],[43.3028,13.241],[43.8406,12.6639],[48.7646,14.0977],[52.1352,15.6871],[52.3566,16.2339],[50.7685,16.7941],[48.8722,16.5945],[46.6764,15.796],[45.4787,15.9956],[43.4663,19.1793],[41.2015,18.8964]]]},"properties":{"NAME":"Sasanian dependencies","SUBJECTO":"Sasanian dependencies","PARTOF":"Sasanian dependencies","BORDERPRECISION":1,"LINK":null}},
{"type":"Feature","geometry":{"type":"Polygon","coordinates":[[[43.4663,19.1793],[38.7915,26.5753],[36.3122,26.4227],[37.2015,24.6583],[38.9151,22.8702],[39.1667,21.2188],[40.6938,19.8687],[41.2015,18.8964],[43.4663,19.1793]]]},"properties":{"NAME":"Hejaz","SUBJECTO":"Hejaz","PARTOF":"Hejaz","BORDERPRECISION":1,"LINK":null}},
{"type":"Feature","geometry":{"type":"Polygon","coordinates":[[[38.2419,46.6986],[37.7571,46.6032],[38.459,46.0789],[36.9599,45.2274],[38.814,44.2636],[39.7826,45.797],[38.2419,46.6986]]]},"properties":{"NAME":"Bulgars","SUBJECTO":"Bulgars","PARTOF":"Bulgars","BORDERPRECISION":1,"LINK":null}},
{"type":"Feature","geometry":{"type":"Polygon","coordinates":[[[18.2061,56.9119],[19.0047,57.9086],[18.1192,57.5311],[18.2061,56.9119]]]},"properties":{"NAME":"Guta","SUBJECTO":"Guta","PARTOF":"Guta","BORDERPRECISION":1,"LINK":null}},
{"type":"Feature","geometry":{"type":"Polygon","coordinates":[[[-2.9592,50.7213],[0.8883,50.8927],[1.3647,51.3529],[0.2542,51.4536],[1.5119,52.0258],[1.5857,52.65],[0.0055,52.7867],[0.1745,53.2931],[-0.8072,53.7268],[-3.2724,51.1794],[-2.9592,50.7213]]]},"properties":{"NAME":"Cantia","SUBJECTO":"Cantia","PARTOF":"Cantia","BORDERPRECISION":1,"LINK":null}},
{"type":"Feature","geometry":{"type":"Polygon","coordinates":[[[-3.2724,51.1794],[-4.281,51.1872],[-5.7778,50.1341],[-3.715,50.2193],[-2.9592,50.7213],[-3.2724,51.1794]]]},"properties":{"NAME":"Dumnonia","SUBJECTO":"Dumnonia","PARTOF":"Dumnonia","BORDERPRECISION":1,"LINK":null}},
{"type":"Feature","geometry":{"type":"Polygon","coordinates":[[[-0.8673,43.2997],[-0.9055,44.2686],[-1.4012,44.1955],[-1.9146,43.3054],[-3.8107,43.4337],[-3.8548,42.9519],[-0.8564,43.0238],[-0.8673,43.2997]]]},"properties":{"NAME":"Vasconia","SUBJECTO":"Frankish Kingdom","PARTOF":"Vasconia","BORDERPRECISION":1,"LINK":null}},
{"type":"Feature","geometry":{"type":"Polygon","coordinates":[[[-2.6137,47.5722],[-2.1114,46.8367],[-1.2005,46.5627],[4.8876,50.9357],[2.0303,51.0067],[0.3308,49.455],[-1.1771,49.3325],[-1.251,49.6999],[-1.9413,49.7093],[-1.4566,48.6836],[-2.7905,48.5896],[-2.6137,47.5722]]]},"properties":{"NAME":"Neustria","SUBJECTO":"Frankish Kingdom","PARTOF":"Neustria","BORDERPRECISION":1,"LINK":null}},
{"type":"Feature","geometry":{"type":"Polygon","coordinates":[[[15.413,46.144],[18.3894,45.3381],[18.6336,44.864],[22.9546,44.6525],[23.1394,43.9133],[25.2646,43.8209],[28.0366,44.3753],[28.2172,45.4757],[24.4021,46.7809],[24.9255,47.5506],[21.7796,47.4842],[19.5184,48.2099],[19.2027,47.7736],[18.9143,47.8344],[18.8881,47.8399],[16.6606,48.309],[16.5729,48.2556],[14.8396,47.201],[15.9414,46.6816],[15.413,46.144]]]},"properties":{"NAME":"Avars","SUBJECTO":"Avars","PARTOF":"Avars","BORDERPRECISION":1,"LINK":null}},
{"type":"Feature","geometry":{"type":"Polygon","coordinates":[[[7.6163,51.3053],[7.5086,53.6141],[7.1599,53.164],[5.3895,53.1386],[5.4732,52.1766],[4.7188,52.8024],[3.9839,51.8681],[5.7683,51.3976],[7.6163,51.3053]]]},"properties":{"NAME":"Frisians","SUBJECTO":"Frisians","PARTOF":"Frisians","BORDERPRECISION":1,"LINK":null}},
{"type":"Feature","geometry":{"type":"MultiPolygon","coordinates":[[[[14.2589,55.8993],[12.8504,56.4765],[12.4144,56.243],[12.8024,55.3529],[14.1172,55.3471],[14.2589,55.8993]]],[[[11.9866,54.9916],[12.3726,56.1071],[12.0269,55.6533],[11.6412,55.9715],[10.9275,55.7151],[11.9866,54.9916]]]]},"properties":{"NAME":"Danes","SUBJECTO":"Danes","PARTOF":"Danes","BORDERPRECISION":1,"LINK":null}},
{"type":"Feature","geometry":{"type":"Polygon","coordinates":[[[42.0336,48.0979],[40.264,47.2372],[43.6066,45.5422],[47.0474,46.2945],[47.9322,47.3705],[42.0336,48.0979]]]},"properties":{"NAME":"Khazars","SUBJECTO":"Khazars","PARTOF":"Khazars","BORDERPRECISION":1,"LINK":null}},
{"type":"Feature","geometry":{"type":"Polygon","coordinates":[[[8.2207,53.49],[8.2394,52.4451],[10.4514,50.9834],[12.2702,51.6287],[11.0904,53.2908],[8.8553,53.8717],[8.2207,53.49]]]},"properties":{"NAME":"Saxons","SUBJECTO":"Saxons","PARTOF":"Saxons","BORDERPRECISION":1,"LINK":null}},
{"type":"Feature","geometry":{"type":"Polygon","coordinates":[[[3.8075,43.4672],[5.8286,43.0208],[7.4675,43.8108],[7.507,43.837],[7.5528,43.8675],[8.0481,44.0184],[7.6163,45.0221],[9.0023,46.9625],[12.4488,47.106],[12.8785,47.0554],[12.8741,47.1846],[12.7535,48.9329],[12.6982,49.7345],[12.1438,50.1041],[9.9263,49.6421],[9.0947,49.8269],[7.6163,51.3053],[5.7683,51.3976],[4.8876,50.9357],[-1.2005,46.5627],[-2.1114,46.8367],[-1.2561,46.3068],[-0.7285,45.0186],[-1.1752,45.5005],[-1.4012,44.1955],[-0.9055,44.2686],[-0.8673,43.2997],[1.8875,42.5273],[3.2735,43.7285],[3.8075,43.4672]]]},"properties":{"NAME":"Frankish Kingdom","SUBJECTO":"Frankish Kingdom","PARTOF":"Frankish Kingdom","BORDERPRECISION":1,"LINK":null}},
{"type":"Feature","geometry":{"type":"Polygon","coordinates":[[[44.6722,-16.2356],[43.9716,-17.5527],[44.5171,-20.0239],[43.2913,-22.4098],[44.0368,-24.9887],[45.2105,-25.66],[46.8551,-25.218],[47.2585,-24.7658],[49.8982,-16.4595],[49.6203,-15.4623],[50.1873,-15.9568],[50.4863,-15.4795],[49.8805,-12.9196],[49.1763,-12.2665],[48.7513,-13.4177],[48.3496,-13.838],[47.9425,-13.5847],[47.8837,-14.7161],[47.1993,-15.0163],[47.2446,-15.3657],[46.4192,-15.9395],[44.6722,-16.2356]]]},"properties":{"NAME":"Vazimba","SUBJECTO":"Vazimba","PARTOF":"Vazimba","BORDERPRECISION":1,"LINK":null}},
{"type":"Feature","geometry":{"type":"Polygon","coordinates":[[[129.9505,45.2867],[127.6523,50.2616],[110.7014,50.9829],[105.3012,51.2127],[93.9412,51.0959],[82.2087,51.3292],[80.7188,46.436],[91.3339,45.9203],[90.9597,43.5492],[92.0664,43.3026],[94.5984,41.1159],[96.3247,40.6555],[98.9718,41.0008],[101.0509,40.0849],[102.9059,38.8791],[103.5551,40.7341],[104.8415,41.231],[110.7111,40.8857],[116.2354,41.5763],[119.0445,42.3109],[123.975,42.9574],[125.0974,42.9574],[125.5075,42.5985],[127.2993,43.2384],[129.247,45.1862],[129.9505,45.2867]]]},"properties":{"NAME":"Göktürks","SUBJECTO":"Göktürks","PARTOF":"Göktürks","BORDERPRECISION":1,"LINK":null}},
{"type":"Feature","geometry":{"type":"Polygon","coordinates":[[[34.4218,20.506],[34.5278,20.1748],[37.1357,21.1281],[36.6604,22.1665],[35.7463,22.9143],[35.7247,23.9118],[35.1899,24.3999],[33.6572,24.018],[33.3453,23.354],[34.4218,20.506]]]},"properties":{"NAME":"Blemmyes","SUBJECTO":"Blemmyes","PARTOF":"Blemmyes","BORDERPRECISION":1,"LINK":null}},
{"type":"Feature","geometry":{"type":"Polygon","coordinates":[[[-69.8745,-14.3771],[-72.226,-12.2425],[-75.5764,-10.6126],[-78.1051,-7.0221],[-78.5075,-7.1831],[-78.1051,-8.9539],[-76.6563,-11.1271],[-76.7249,-12.7309],[-76.0526,-14.4101],[-74.0496,-16.045],[-71.6119,-17.2215],[-69.8745,-14.3771]]]},"properties":{"NAME":"Huari Empire","SUBJECTO":"Huari Empire","PARTOF":"Huari Empire","BORDERPRECISION":1,"LINK":null}},
{"type":"Feature","geometry":{"type":"Polygon","coordinates":[[[42.355,13.2707],[42.079,13.861],[39.8979,15.502],[39.7964,15.0888],[39.5179,15.463],[38.305,15.0577],[37.8043,14.2231],[38.305,13.2216],[42.355,13.2707]]]},"properties":{"NAME":"Axum","SUBJECTO":"Axum","PARTOF":"Axum","BORDERPRECISION":1,"LINK":null}},
{"type":"Feature","geometry":{"type":"Polygon","coordinates":[[[-5.1838,17.2008],[-7.4555,19.4435],[-9.909,17.8939],[-11.1811,15.4568],[-8.9094,12.6363],[-6.2648,13.3511],[-4.5477,15.1062],[-5.1838,17.2008]]]},"properties":{"NAME":"Empire of Ghana","SUBJECTO":"Empire of Ghana","PARTOF":"Empire of Ghana","BORDERPRECISION":1,"LINK":null}},
{"type":"Feature","geometry":{"type":"Polygon","coordinates":[[[16.6842,58.6403],[18.6113,59.3333],[17.5749,59.2141],[16.5232,59.5825],[18.0301,59.3593],[19.0436,59.7124],[18.2524,60.3024],[15.8664,60.3114],[15.2939,59.416],[16.6842,58.6403]]]},"properties":{"NAME":"Swedes","SUBJECTO":"Swedes","PARTOF":"Swedes","BORDERPRECISION":1,"LINK":null}},
{"type":"Feature","geometry":{"type":"Polygon","coordinates":[[[106.9299,11.8424],[104.3899,11.9815],[101.6328,13.7253],[100.9087,13.4473],[100.8716,12.6785],[101.9186,12.5855],[102.6585,12.0661],[103.0396,10.898],[103.5249,11.0578],[103.5249,10.5242],[104.9785,9.9809],[104.7425,8.4937],[106.482,9.5521],[106.7732,10.6392],[106.9299,11.8424]]]},"properties":{"NAME":"Funan","SUBJECTO":"Funan","PARTOF":"Funan","BORDERPRECISION":1,"LINK":null}},
{"type":"Feature","geometry":{"type":"Polygon","coordinates":[[[16.5729,48.2556],[15.7577,48.5378],[14.7556,48.1871],[12.7535,48.9329],[12.8741,47.1846],[13.9384,47.6258],[14.8396,47.201],[16.5729,48.2556]]]},"properties":{"NAME":"Ostrogoths","SUBJECTO":"","PARTOF":"","BORDERPRECISION":1,"LINK":null}},
{"type":"Feature","geometry":{"type":"Polygon","coordinates":[[[14.2386,45.0624],[14.3496,45.3119],[13.5269,45.4543],[13.8951,44.7592],[14.2386,45.0624]]]},"properties":{"NAME":"Ostrogoths","SUBJECTO":"","PARTOF":"","BORDERPRECISION":1,"LINK":null}},
{"type":"Feature","geometry":{"type":"Polygon","coordinates":[[[18.9143,47.8344],[18.9144,47.8363],[18.8881,47.8399],[18.9143,47.8344]]]},"properties":{"NAME":"Ostrogoths","SUBJECTO":"","PARTOF":"","BORDERPRECISION":1,"LINK":null}},
{"type":"Feature","geometry":{"type":"MultiPolygon","coordinates":[[[[8.0481,44.0184],[8.6717,44.4174],[9.6919,44.2196],[10.7428,42.8505],[11.5895,43.9133],[11.4047,45.5765],[12.6058,46.6853],[12.4488,47.106],[9.0023,46.9625],[7.6163,45.0221],[8.0481,44.0184]]],[[[9.4055,42.5806],[9.3032,42.9832],[8.5004,42.3598],[9.173,41.3499],[9.4055,42.5806]]],[[[15.8733,41.5021],[16.1874,41.8409],[14.4294,42.3267],[13.807,42.1577],[13.3291,41.3111],[14.9923,40.3722],[15.8398,40.6793],[15.8733,41.5021]]]]},"properties":{"NAME":"Lombard principalities","SUBJECTO":"Lombard principalities","PARTOF":"Lombard principalities","BORDERPRECISION":1,"LINK":null}},
{"type":"Feature","geometry":{"type":"MultiPolygon","coordinates":[[[[33.6572,24.018],[35.1899,24.3999],[32.3185,29.5402],[32.648,29.8522],[34.2412,27.7589],[34.9847,29.4672],[34.7639,28.0967],[35.1116,28.0721],[38.3757,33.5316],[44.3913,41.8805],[44.3913,42.6197],[43.8369,42.8969],[41.1226,43.0191],[41.6661,41.7292],[40.361,40.9634],[37.2528,41.0277],[35.0019,42.0432],[33.5555,41.9825],[31.2177,41.0541],[29.1612,41.2164],[29.3204,40.7411],[29.8827,40.7464],[28.9016,40.6201],[29.0524,40.3347],[27.0561,40.4297],[26.186,39.9972],[26.0641,39.4555],[26.9575,39.5483],[26.6022,39.2557],[27.0349,38.8211],[26.3932,38.1044],[27.1398,37.8891],[27.3081,36.9207],[27.9988,36.9094],[28.0142,36.5272],[29.0023,36.6948],[29.4719,36.0907],[30.3949,36.118],[30.9053,36.7942],[33.1713,35.9709],[34.4851,36.6268],[36.0824,36.6215],[35.6649,36.1335],[35.8731,34.4223],[34.5007,31.6211],[33.5576,30.9677],[32.0765,31.0137],[30.996,31.4689],[28.9664,30.7848],[25.2582,31.4379],[24.8159,31.9072],[23.1533,32.1388],[22.9228,32.5577],[21.6734,32.8156],[20.0684,32.0371],[19.9815,30.7217],[18.915,30.2049],[15.8433,31.285],[15.0098,32.3634],[12.5648,32.7396],[10.4126,33.6311],[10.0195,34.0815],[11.1251,35.2406],[10.5115,36.0862],[11.0238,37.0683],[10.3928,36.7166],[9.7322,37.2824],[7.9132,36.7752],[7.307,37.0608],[6.0474,36.8416],[6.7847,35.8745],[7.9859,35.5049],[8.6327,34.0265],[9.8339,32.9178],[18.6118,29.4066],[22.3078,29.961],[26.743,28.575],[28.4062,27.7434],[30.8085,23.8626],[33.6572,24.018]]],[[[-8.791,37.8292],[-8.99,37.023],[-6.96,37.222],[-5.614,36.006],[-4.398,36.722],[-2.129,36.731],[-1.644,37.373],[-0.731,37.597],[-0.512,38.325],[0.215,38.758],[-0.3346,39.4257],[-1.5313,39.2009],[-2.8249,37.7225],[-5.7817,37.9073],[-6.7056,38.2769],[-8.791,37.8292]]],[[[15.413,46.144],[14.5404,45.2561],[15.4123,43.9348],[19.607,41.7615],[19.3691,40.2603],[21.1595,39.0048],[20.7718,38.8509],[21.1724,38.3478],[23.1163,38.1574],[21.9058,38.2697],[21.2284,37.9049],[21.5882,36.9814],[22.3903,36.5244],[22.9826,36.6148],[22.6423,37.5849],[23.4181,37.4693],[22.8981,37.9],[23.9873,37.7634],[23.8039,38.3465],[22.4905,38.8769],[22.8509,39.3661],[23.2361,39.2032],[22.4921,40.4983],[22.8519,40.6513],[23.2605,39.9709],[23.6386,39.9603],[23.2918,40.2873],[23.9066,39.9972],[23.6272,40.3453],[24.2954,40.1765],[23.6347,40.7728],[25.0189,41.0171],[26.5565,40.4983],[26.1409,40.0447],[27.4742,40.9628],[28.9645,40.9892],[27.502,42.5163],[29.7108,45.2583],[28.2172,45.4757],[28.0366,44.3753],[25.2646,43.8209],[23.1394,43.9133],[22.9546,44.6525],[18.6336,44.864],[18.3894,45.3381],[15.413,46.144]]],[[[12.4488,47.106],[12.6058,46.6853],[11.4047,45.5765],[11.5895,43.9133],[10.7428,42.8505],[13.3291,41.3111],[13.807,42.1577],[14.4294,42.3267],[13.6009,43.5348],[12.3451,44.301],[12.2797,45.4023],[13.6732,45.7145],[13.4837,46.7574],[12.8785,47.0554],[12.4488,47.106]]],[[[14.9923,40.3722],[15.9896,39.4284],[16.2122,38.778],[15.6275,38.0042],[16.0529,37.9312],[17.1807,39.0222],[16.5321,39.6975],[16.9487,40.4811],[18.3649,39.7467],[18.5226,40.0941],[15.8733,41.5021],[15.8398,40.6793],[14.9923,40.3722]]],[[[34.35,35.607],[32.921,35.393],[32.275,35.094],[32.404,34.751],[33.031,34.563],[34.083,34.959],[34.35,35.607]]],[[[23.4097,38.9437],[22.8699,38.8372],[24.5272,37.9674],[23.4097,38.9437]]],[[[3.0636,39.2636],[3.4803,39.7217],[3.0714,39.9219],[2.3642,39.5558],[3.0636,39.2636]]],[[[13.3225,38.2205],[12.6643,38.0725],[12.532,37.6387],[15.0273,36.7451],[15.4537,38.1674],[13.8095,37.9664],[13.3225,38.2205]]],[[[8.2407,40.8553],[8.4172,39.2122],[9.4789,39.1442],[9.5909,40.9029],[9.3062,41.1844],[8.2407,40.8553]]],[[[-6.315,34.835],[-6.554,34.4356],[-6.3277,34.8116],[-4.4207,35.1515],[-5.453,35.915],[-5.919,35.791],[-6.315,34.835]]],[[[24.135,35.6],[23.742,35.688],[23.521,35.288],[24.821,34.937],[26.291,35.131],[24.135,35.6]]],[[[27.876,36.32],[27.781,35.89],[28.234,36.441],[27.876,36.32]]]]},"properties":{"NAME":"Eastern Roman Empire","SUBJECTO":"Eastern Roman Empire","PARTOF":"Eastern Roman Empire","BORDERPRECISION":1,"LINK":null}},
{"type":"Feature","geometry":{"type":"Polygon","coordinates":[[[76.9216,29.3878],[72.6277,28.3666],[74.1174,26.5443],[78.541,27.6277],[76.9216,29.3878]]]},"properties":{"NAME":"Chauhans","SUBJECTO":"Chauhans","PARTOF":"Chauhans","BORDERPRECISION":1,"LINK":null}},
{"type":"Feature","geometry":{"type":"MultiPolygon","coordinates":[[[[107.3753,16.6915],[105.5326,18.8442],[106.807,20.905],[107.3743,20.8808],[108.555,21.8234],[109.1174,21.399],[109.7798,21.483],[109.7116,20.5682],[110.2713,20.3153],[110.2388,21.2807],[112.7495,21.7561],[113.3777,22.1639],[113.4626,22.7739],[114.5587,22.4649],[116.3406,22.9133],[117.8491,24.0471],[117.9249,24.5617],[118.8129,24.8494],[119.4286,25.6509],[119.4289,26.5908],[121.2597,28.1823],[121.7703,29.8343],[121.0825,30.2138],[119.9437,30.1162],[121.5689,30.7101],[121.2683,31.4523],[121.606,31.8276],[120.6609,32.5431],[120.1494,33.8943],[119.0032,34.9395],[119.9138,36.1434],[120.5048,36.0556],[121.6099,36.8342],[122.2556,36.7337],[122.3929,37.3006],[120.6581,37.7365],[118.9546,37.0771],[118.8752,37.9494],[117.4395,38.6028],[117.7529,39.2025],[118.9776,39.2241],[121.0106,40.8507],[122.0824,40.488],[124.7023,42.3109],[123.975,42.9574],[119.0445,42.3109],[118.2097,40.8269],[117.5605,40.6414],[110.7111,40.8857],[104.8415,41.231],[103.5551,40.7341],[102.9059,38.8791],[101.0509,40.0849],[100.4016,39.7139],[96.5988,39.7139],[96.4133,38.3226],[99.3814,37.5806],[101.7896,37.6698],[100.6799,32.8503],[99.7524,27.4708],[100.6799,24.1318],[103.6827,26.0564],[106.4304,24.8738],[103.8334,20.1435],[103.2342,20.1229],[104.3811,18.328],[106.4515,16.188],[107.3753,16.6915]]],[[[108.9386,18.3306],[109.4297,18.0966],[110.2625,18.6256],[110.8854,19.7068],[110.6174,20.0175],[109.5503,19.9136],[108.5769,19.1874],[108.9386,18.3306]]]]},"properties":{"NAME":"Sui Empire","SUBJECTO":"Sui Empire","PARTOF":"Sui Empire","BORDERPRECISION":1,"LINK":null}},
{"type":"Feature","geometry":{"type":"Polygon","coordinates":[[[91.5711,22.5433],[92.1763,20.8866],[92.9261,20.3489],[92.9018,21.6087],[92.0413,23.115],[91.5711,22.5433]]]},"properties":{"NAME":"Arakan","SUBJECTO":"Arakan","PARTOF":"Arakan","BORDERPRECISION":1,"LINK":null}},
{"type":"Feature","geometry":{"type":"Polygon","coordinates":[[[100.3019,7.8868],[99.8373,9.2265],[99.1956,9.2378],[99.0713,9.8983],[99.8953,12.0792],[99.9303,13.261],[100.9087,13.4473],[101.6328,13.7253],[102.6276,14.6712],[101.6074,15.3205],[98.194,13.6578],[98.5902,11.6952],[98.8674,11.645],[98.1952,8.3271],[99.1186,7.6428],[100.3019,7.8868]]]},"properties":{"NAME":"Dvaravati","SUBJECTO":"Dvaravati","PARTOF":"Dvaravati","BORDERPRECISION":1,"LINK":null}},
{"type":"Feature","geometry":{"type":"MultiPolygon","coordinates":[[[[178.1755,-18.2417],[178.6811,-18.0742],[178.5983,-17.6431],[178.193,-17.3011],[177.5103,-17.5094],[177.3297,-18.1158],[178.1755,-18.2417]]],[[[179.5686,-16.7581],[180,-16.1727],[180,-16.1547],[178.4761,-16.7636],[178.7539,-17.0114],[179.9372,-16.7544],[179.9419,-16.4644],[179.5686,-16.7581]]],[[[-172.2225,-13.5631],[-172.7806,-13.5333],[-172.5089,-13.8067],[-172.2225,-13.5631]]]]},"properties":{"NAME":"Tuʻi Tonga Empire","SUBJECTO":"Tuʻi Tonga Empire","PARTOF":"Tuʻi Tonga Empire","BORDERPRECISION":1,"LINK":null}}
]}