{"type":"FeatureCollection", "features": [
{"type":"Feature","geometry":{"type":"Polygon","coordinates":[[[33.7805,35.2081],[34.4582,35.6446],[32.1437,35.0425],[32.9145,34.5413],[33.7805,35.2081]]]},"properties":{"NAME":"Cyprus","SUBJECTO":"Cyprus","PARTOF":"Cyprus","BORDERPRECISION":1,"LINK":null}},
{"type":"Feature","geometry":{"type":"MultiPolygon","coordinates":[[[[-71.9782,18.2622],[-71.4008,17.7041],[-70.6955,18.5192],[-68.6647,18.1994],[-68.3729,18.575],[-69.9934,19.6839],[-72.9404,19.9446],[-73.4926,19.7528],[-72.2978,18.662],[-74.4418,18.524],[-73.857,18.112],[-71.9782,18.2622]]],[[[-81.7394,22.6211],[-82.1772,22.3659],[-78.7279,21.6168],[-78.4504,20.969],[-77.2912,20.7045],[-77.663,19.9028],[-74.1734,20.1899],[-81.4311,23.1367],[-83.6904,22.814],[-84.7064,21.7696],[-81.7394,22.6211]]],[[[-77.7373,17.9321],[-76.3007,17.9924],[-78.3249,18.3504],[-77.7373,17.9321]]]]},"properties":{"NAME":"Ciboney","SUBJECTO":"Ciboney","PARTOF":"Ciboney","BORDERPRECISION":1,"LINK":null}},
{"type":"Feature","geometry":{"type":"Polygon","coordinates":[[[109.4297,18.0966],[110.3615,18.7656],[110.6174,20.0175],[108.5769,19.1874],[108.6519,18.4824],[109.4297,18.0966]]]},"properties":{"NAME":"Hainan","SUBJECTO":"Hainan","PARTOF":"Hainan","BORDERPRECISION":1,"LINK":null}},
{"type":"Feature","geometry":{"type":"Polygon","coordinates":[[[106.4515,16.188],[107.4873,14.9132],[107.8978,12.5684],[106.9299,11.8424],[106.7732,10.6392],[107.412,10.3674],[108.6959,11.1452],[109.3071,12.9063],[108.7861,15.0906],[107.3753,16.6915],[106.4515,16.188]]]},"properties":{"NAME":"Champa","SUBJECTO":"Champa","PARTOF":"Champa","BORDERPRECISION":1,"LINK":null}},
{"type":"Feature","geometry":{"type":"Polygon","coordinates":[[[97.4185,16.4828],[97.7343,18.3761],[97.4439,19.1021],[96.6993,19.1243],[94.2441,18.5869],[94.1444,16.0057],[94.8193,16.2105],[95.3298,15.6779],[96.6629,16.6972],[96.7704,17.3327],[97.4185,16.4828]]]},"properties":{"NAME":"Mon state","SUBJECTO":"Mon state","PARTOF":"Mon state","BORDERPRECISION":1,"LINK":null}},
{"type":"Feature","geometry":{"type":"Polygon","coordinates":[[[96.6993,19.1243],[96.476,21.7639],[95.4596,22.7319],[94.2981,22.2963],[93.9656,19.1944],[94.2441,18.5869],[96.6993,19.1243]]]},"properties":{"NAME":"Pyu state","SUBJECTO":"Pyu state","PARTOF":"Pyu state","BORDERPRECISION":1,"LINK":null}},
{"type":"Feature","geometry":{"type":"Polygon","coordinates":[[[35.3277,15.423],[37.8951,18.5601],[37.3982,18.915],[36.9035,21.7286],[35.7463,22.9143],[35.1899,24.3999],[32.5142,23.7331],[29.3447,24.028],[28.6127,20.5618],[29.4534,17.8295],[30.7899,15.5026],[31.6656,16.6171],[33.8151,16.7763],[35.3277,15.423]]]},"properties":{"NAME":"Makkura","SUBJECTO":"Makkura","PARTOF":"Makkura","BORDERPRECISION":1,"LINK":null}},
{"type":"Feature","geometry":{"type":"Polygon","coordinates":[[[30.7899,15.5026],[30.7899,11.2037],[31.7453,10.2484],[33.5763,10.0095],[35.4073,11.2833],[35.3277,15.423],[33.8151,16.7763],[31.6656,16.6171],[30.7899,15.5026]]]},"properties":{"NAME":"Alwa","SUBJECTO":"Alwa","PARTOF":"Alwa","BORDERPRECISION":1,"LINK":null}},
{"type":"Feature","geometry":{"type":"Polygon","coordinates":[[[-11.9085,16.3822],[-11.804,15.7553],[-8.8783,14.2925],[-6.9976,14.397],[-4.8033,15.5463],[-5.0123,16.6957],[-7.8335,17.6361],[-11.6995,17.1137],[-11.9085,16.3822]]]},"properties":{"NAME":"Ghana","SUBJECTO":"Ghana","PARTOF":"Ghana","BORDERPRECISION":1,"LINK":null}},
{"type":"Feature","geometry":{"type":"Polygon","coordinates":[[[-0.8577,51.4515],[-2.0399,51.4461],[-1.7713,50.7308],[0.1918,50.7313],[0.2047,51.0919],[0.2666,51.4567],[-0.8577,51.4515]]]},"properties":{"NAME":"Wessex","SUBJECTO":"Wessex","PARTOF":"Wessex","BORDERPRECISION":1,"LINK":null}},
{"type":"Feature","geometry":{"type":"Polygon","coordinates":[[[-93.5879,15.7411],[-91.242,13.9516],[-90,13.753],[-88.2429,14.8358],[-87.5706,15.908],[-88.9408,16.0334],[-88.2834,16.8347],[-88.3114,18.7415],[-87.8771,18.3809],[-87.8582,19.5823],[-86.9216,21.3006],[-89.8628,21.2499],[-90.7975,19.2486],[-91.7297,18.4157],[-92.0979,18.7596],[-94.242,18.2402],[-93.5879,15.7411]]]},"properties":{"NAME":"Maya city-states","SUBJECTO":"Maya city-states","PARTOF":"Maya city-states","BORDERPRECISION":1,"LINK":null}},
{"type":"Feature","geometry":{"type":"Polygon","coordinates":[[[-100.1157,21.2375],[-100.2003,19.6583],[-98.2262,18.8686],[-97.6622,20.3915],[-98.339,21.2939],[-99.0607,21.6166],[-100.1157,21.2375]]]},"properties":{"NAME":"Toltec Empire","SUBJECTO":"Toltec Empire","PARTOF":"Toltec Empire","BORDERPRECISION":1,"LINK":null}},
{"type":"Feature","geometry":{"type":"Polygon","coordinates":[[[-94.242,18.2402],[-96.0123,18.9293],[-97.7093,21.801],[-100.2548,22.5719],[-100.8917,20.7409],[-105.291,20.6704],[-105.6873,20.4026],[-105.173,19.6599],[-103.4939,18.3539],[-100.4126,17.0573],[-96.7517,15.7811],[-94.8347,16.3192],[-93.5879,15.7411],[-94.242,18.2402]],[[-100.1157,21.2375],[-99.0607,21.6166],[-98.339,21.2939],[-97.6622,20.3915],[-98.2262,18.8686],[-100.2003,19.6583],[-100.1157,21.2375]],[[-100.5669,17.8801],[-100.4823,18.5031],[-99.9183,18.5302],[-97.5776,17.853],[-97.1263,16.5257],[-99.0158,16.8237],[-100.5669,17.8801]]]},"properties":{"NAME":"Mesoamerican city-states and chiefdoms","SUBJECTO":"Mesoamerican city-states and chiefdoms","PARTOF":"Mesoamerican city-states and chiefdoms","BORDERPRECISION":1,"LINK":null}},
{"type":"Feature","geometry":{"type":"Polygon","coordinates":[[[-100.5669,17.8801],[-99.0158,16.8237],[-97.1263,16.5257],[-97.5776,17.853],[-99.9183,18.5302],[-100.4823,18.5031],[-100.5669,17.8801]]]},"properties":{"NAME":"Mixtecs","SUBJECTO":"Mixtecs","PARTOF":"Mixtecs","BORDERPRECISION":1,"LINK":"https://en.wikipedia.org/wiki/Mixtec"}},
{"type":"Feature","geometry":{"type":"Polygon","coordinates":[[[-69.5361,-13.8233],[-75.5764,-10.6126],[-77.5147,-6.9702],[-79.7543,-5.6947],[-81.2436,-5.9646],[-79.0602,-8.2155],[-76.0526,-14.4101],[-71.6119,-17.2215],[-69.5361,-13.8233]]]},"properties":{"NAME":"Huari Empire","SUBJECTO":"Huari Empire","PARTOF":"Huari Empire","BORDERPRECISION":1,"LINK":null}},
{"type":"Feature","geometry":{"type":"Polygon","coordinates":[[[-71.6119,-17.2215],[-70.2085,-19.0672],[-70.3981,-25.2489],[-68.1918,-25.492],[-67.2376,-18.3642],[-67.9423,-15.428],[-69.5361,-13.8233],[-71.6119,-17.2215]]]},"properties":{"NAME":"Tiahuanaco Empire","SUBJECTO":"Tiahuanaco Empire","PARTOF":"Tiahuanaco Empire","BORDERPRECISION":1,"LINK":null}},
{"type":"Feature","geometry":{"type":"Polygon","coordinates":[[[39.2079,16.3265],[37.0197,13.626],[36.3892,11.7344],[36.5994,9.2123],[37.8604,7.7411],[39.752,7.9513],[40.1724,9.8429],[40.7391,14.9192],[39.8979,15.502],[39.7964,15.0888],[39.2079,16.3265]]]},"properties":{"NAME":"Axum","SUBJECTO":"Axum","PARTOF":"Axum","BORDERPRECISION":1,"LINK":null}},
{"type":"Feature","geometry":{"type":"Polygon","coordinates":[[[0.4578,32.5474],[7.8923,32.5926],[17.002,28.751],[19.3165,28.4199],[19.1245,30.1989],[15.8433,31.285],[15.0098,32.3634],[10.4126,33.6311],[10.0195,34.0815],[11.1251,35.2406],[10.5115,36.0862],[11.0238,37.0683],[10.3928,36.7166],[9.7322,37.2824],[7.9132,36.7752],[6.3229,37.0906],[5.3827,36.6745],[1.5797,36.5139],[0.4578,32.5474]]]},"properties":{"NAME":"Aghlabid Emirate","SUBJECTO":"Aghlabid Emirate","PARTOF":"Aghlabid Emirate","BORDERPRECISION":1,"LINK":null}},
{"type":"Feature","geometry":{"type":"Polygon","coordinates":[[[-8.6441,42.4197],[-4.1719,42.245],[-1.9417,42.6386],[-1.9146,43.3054],[-7.9795,43.7401],[-9.2708,43.0487],[-8.6441,42.4197]]]},"properties":{"NAME":"Asturias","SUBJECTO":"Asturias","PARTOF":"Asturias","BORDERPRECISION":1,"LINK":null}},
{"type":"Feature","geometry":{"type":"Polygon","coordinates":[[[17.2586,40.956],[14.0764,42.6338],[13.7605,41.2067],[15.8465,39.6299],[16.5321,39.6975],[17.0841,40.5251],[17.2586,40.956]]]},"properties":{"NAME":"Lombard duchies","SUBJECTO":"Lombard duchies","PARTOF":"Lombard duchies","BORDERPRECISION":1,"LINK":null}},
{"type":"Feature","geometry":{"type":"Polygon","coordinates":[[[1.5797,36.5139],[-2.0353,35.0546],[-4.593,35.1512],[-5.9288,35.7279],[-7.004,33.875],[-9.2187,32.5804],[-9.8696,29.643],[-11.5765,28.2286],[-12.8662,27.8573],[-14.632,25.6821],[-9.6818,26.1088],[-4.7728,31.6597],[0.4578,32.5474],[1.5797,36.5139]]]},"properties":{"NAME":"Idrisid Caliphate","SUBJECTO":"Idrisid Caliphate","PARTOF":"Idrisid Caliphate","BORDERPRECISION":1,"LINK":null}},
{"type":"Feature","geometry":{"type":"Polygon","coordinates":[[[-8.6441,42.4197],[-9.549,38.7745],[-9.0408,38.9202],[-9.2366,38.4174],[-8.7889,38.436],[-8.9908,36.99],[-6.948,37.1493],[-5.6606,36.008],[-4.4466,36.722],[-2.2388,36.7284],[-0.8026,37.615],[0.1726,38.7383],[-0.1606,39.886],[0.8792,41.0217],[2.0655,41.2956],[-0.4986,42.9009],[-1.9417,42.6386],[-4.1719,42.245],[-8.6441,42.4197]]]},"properties":{"NAME":"Emirate of Córdoba","SUBJECTO":"Emirate of Córdoba","PARTOF":"Emirate of Córdoba","BORDERPRECISION":1,"LINK":"https://en.wikipedia.org/wiki/Emirate_of_C%C3%B3rdoba"}},
{"type":"Feature","geometry":{"type":"Polygon","coordinates":[[[-2.9145,53.2671],[-4.4919,52.991],[-4.1236,52.3733],[-5.2488,51.8602],[-2.7502,51.644],[-2.9145,53.2671]]]},"properties":{"NAME":"Welsh","SUBJECTO":"Welsh","PARTOF":"Welsh","BORDERPRECISION":1,"LINK":null}},
{"type":"Feature","geometry":{"type":"Polygon","coordinates":[[[35.1899,24.3999],[32.4384,29.7755],[34.2412,27.7589],[35.0734,29.4189],[34.7639,28.0967],[37.2015,24.6583],[38.4901,23.6127],[39.1667,21.2188],[42.5353,17.0707],[43.3408,13.1267],[44.0627,12.6136],[48.7646,14.0977],[51.9504,15.5405],[52.8943,16.61],[54.9106,16.9701],[55.5611,17.9372],[57.8386,19.0348],[57.9313,20.4009],[58.512,20.4212],[59.8373,22.2792],[56.7942,24.2676],[56.1613,25.4733],[56.3671,26.2361],[54.276,24.1098],[51.5859,24.0032],[51.217,26.0665],[50.7783,24.4709],[49.9369,25.9558],[50.1218,26.7376],[48.855,27.5227],[48.1291,29.2682],[47.614,29.2722],[47.9572,29.9476],[49.2222,30.4775],[50.1324,30.0664],[51.3501,28.0361],[54.6461,26.3913],[56.4309,27.1066],[57.4649,25.7048],[61.344,25.0269],[66.4323,25.4886],[68.0722,23.6752],[72.0406,30.1823],[72.8486,33.3457],[73.6519,35.2463],[73.1915,39.965],[71.6953,40.8857],[68.5879,40.6555],[63.5239,45.029],[61.4523,45.2592],[58.6901,44.1083],[58.6901,42.7272],[60.8768,40.6555],[61.4523,39.2745],[61.107,38.699],[54.8676,36.8057],[51.417,36.4557],[48.8372,37.511],[49.5733,40.1765],[50.4668,40.2616],[49.0869,41.4528],[48.6315,41.1955],[48.9594,40.146],[48.2379,39.9492],[41.6805,41.7933],[41.2778,41.28],[40.629,39.8836],[37.3493,38.8341],[34.6624,36.6478],[36.0824,36.6215],[35.8731,34.4223],[33.7096,30.9957],[30.996,31.4689],[28.9664,30.7848],[25.2582,31.4379],[21.6734,32.8156],[20.0684,32.0371],[20.1168,30.9571],[19.1245,30.1989],[19.3165,28.4199],[25.0457,28.0159],[27.3516,24.1348],[29.3447,24.028],[32.5142,23.7331],[35.1899,24.3999]]]},"properties":{"NAME":"Abbasid Caliphate","SUBJECTO":"Abbasid Caliphate","PARTOF":"Abbasid Caliphate","BORDERPRECISION":1,"LINK":null}},
{"type":"Feature","geometry":{"type":"MultiPolygon","coordinates":[[[[68.0722,23.6752],[69.1072,22.8989],[70.3806,22.8606],[72.2656,24.2231],[76.1052,26.9986],[74.1174,26.5443],[72.6277,28.3666],[77.0601,29.4208],[79.1482,28.3367],[78.4857,30.5276],[76.7593,31.9087],[76.7597,33.1839],[72.8486,33.3457],[72.0406,30.1823],[68.0722,23.6752]]],[[[79.0478,27.76],[79.2805,27.6308],[79.2465,27.8119],[79.0478,27.76]]]]},"properties":{"NAME":"Hindu states","SUBJECTO":"Hindu states","PARTOF":"Hindu states","BORDERPRECISION":1,"LINK":null}},
{"type":"Feature","geometry":{"type":"Polygon","coordinates":[[[70.3806,22.8606],[69.9685,22.3515],[68.8942,22.2857],[70.8551,20.6508],[72.1209,21.1553],[72.233,22.0196],[72.6931,22.1047],[73.9152,23.1114],[72.2656,24.2231],[70.3806,22.8606]]]},"properties":{"NAME":"Vallabhi","SUBJECTO":"Vallabhi","PARTOF":"Vallabhi","BORDERPRECISION":1,"LINK":null}},
{"type":"Feature","geometry":{"type":"Polygon","coordinates":[[[80.3135,13.1045],[80.3002,15.6457],[82.0814,16.4627],[85.3791,19.6054],[84.7268,20.8855],[84.9123,22.7405],[84.9032,22.8498],[78.831,20.3996],[79.0611,13.0338],[80.3135,13.1045]]]},"properties":{"NAME":"Hindu states","SUBJECTO":"Hindu states","PARTOF":"Hindu states","BORDERPRECISION":1,"LINK":null}},
{"type":"Feature","geometry":{"type":"Polygon","coordinates":[[[78.831,20.3996],[72.8808,20.3371],[73.5727,16.0379],[75.7344,11.2537],[77.68,12.9187],[79.0611,13.0338],[78.831,20.3996]]]},"properties":{"NAME":"Rashtrakuta state","SUBJECTO":"Rashtrakuta state","PARTOF":"Rashtrakuta state","BORDERPRECISION":1,"LINK":null}},
{"type":"Feature","geometry":{"type":"Polygon","coordinates":[[[102.4245,24.8881],[101.4295,21.9752],[100.1227,20.1694],[100.6982,19.4789],[102.0793,19.8241],[104.3705,19.482],[105.7622,21.8958],[108.4093,23.1618],[108.7545,26.1541],[106.2225,26.6145],[105.3018,26.039],[104.0358,26.3843],[102.4245,24.8881]]]},"properties":{"NAME":"Nan Chao","SUBJECTO":"Nan Chao","PARTOF":"Nan Chao","BORDERPRECISION":1,"LINK":null}},
{"type":"Feature","geometry":{"type":"Polygon","coordinates":[[[97.9791,14.2352],[98.654,12.2447],[99.9771,12.8418],[100.04,13.3947],[100.9087,13.4473],[101.2736,14.4149],[100.5831,14.9903],[97.9791,14.2352]]]},"properties":{"NAME":"Dvaravati","SUBJECTO":"Dvaravati","PARTOF":"Dvaravati","BORDERPRECISION":1,"LINK":null}},
{"type":"Feature","geometry":{"type":"Polygon","coordinates":[[[107.4873,14.9132],[103,13.8394],[102.1805,12.3274],[103.0396,10.898],[103.5249,11.0578],[103.5249,10.5242],[104.9785,9.9809],[104.7425,8.4937],[106.482,9.5521],[106.7732,10.6392],[106.9299,11.8424],[107.8978,12.5684],[107.4873,14.9132]]]},"properties":{"NAME":"Chen-La","SUBJECTO":"Chen-La","PARTOF":"Chen-La","BORDERPRECISION":1,"LINK":null}},
{"type":"Feature","geometry":{"type":"Polygon","coordinates":[[[106.4515,16.188],[104.3811,18.328],[104.3705,19.482],[102.0793,19.8241],[100.6982,19.4789],[100.1227,20.1694],[101.4295,21.9752],[99.4322,21.8958],[98.2813,22.5863],[98.3964,24.4278],[97.936,24.8881],[93.4131,24.2463],[91.6518,22.3569],[92.1763,20.8866],[93.7238,19.594],[93.4579,19.1742],[93.9656,19.1944],[94.2981,22.2963],[95.4596,22.7319],[96.476,21.7639],[96.6993,19.1243],[97.4439,19.1021],[97.7343,18.3761],[97.4185,16.4828],[97.9791,14.2352],[100.5831,14.9903],[101.2736,14.4149],[100.9087,13.4473],[100.8716,12.6785],[102.1805,12.3274],[103,13.8394],[107.4873,14.9132],[106.4515,16.188]]]},"properties":{"NAME":"Rajput Clans and Small States","SUBJECTO":"Rajput Clans and Small States","PARTOF":"Rajput Clans and Small States","BORDERPRECISION":1,"LINK":null}},
{"type":"Feature","geometry":{"type":"Polygon","coordinates":[[[127.6715,39.8664],[124.1497,39.821],[125.2961,39.3643],[124.7697,37.9359],[125.2694,37.4847],[126.2097,37.7541],[126.7863,37.0739],[125.9603,36.7221],[126.6264,35.9281],[126.4096,34.269],[128.9178,35.0296],[129.4668,35.9275],[129.1293,37.3079],[127.2769,39.2217],[127.6715,39.8664]]]},"properties":{"NAME":"Silia","SUBJECTO":"Silia","PARTOF":"Silia","BORDERPRECISION":1,"LINK":null}},
{"type":"Feature","geometry":{"type":"Polygon","coordinates":[[[127.6715,39.8664],[129.4778,40.682],[129.6413,41.6558],[131.5842,43.2127],[132.8274,42.8619],[132.9236,44.3384],[131.7727,45.1441],[126.0181,42.1517],[122.0824,40.488],[121.0653,38.7503],[124.1497,39.821],[127.6715,39.8664]]]},"properties":{"NAME":"Parhae","SUBJECTO":"Parhae","PARTOF":"Parhae","BORDERPRECISION":1,"LINK":null}},
{"type":"Feature","geometry":{"type":"Polygon","coordinates":[[[107.3753,16.6915],[105.5326,18.8442],[106.807,20.905],[108.555,21.8234],[109.7798,21.483],[109.7116,20.5682],[110.2713,20.3153],[110.2388,21.2807],[112.7495,21.7561],[113.4626,22.7739],[114.5587,22.4649],[116.3406,22.9133],[118.8129,24.8494],[119.4289,26.5908],[121.2597,28.1823],[121.7703,29.8343],[119.9437,30.1162],[121.5689,30.7101],[121.606,31.8276],[119.0032,34.9395],[119.9138,36.1434],[122.2556,36.7337],[122.3929,37.3006],[120.6581,37.7365],[118.9546,37.0771],[118.8752,37.9494],[117.4395,38.6028],[121.0106,40.8507],[122.0824,40.488],[126.0181,42.1517],[125.0974,42.9574],[123.3711,42.9574],[116.2354,41.5763],[110.7111,40.8857],[104.8415,41.231],[104.1509,40.3103],[104.0358,38.0085],[104.266,36.5123],[102.7698,33.4048],[104.266,31.9087],[103.5755,30.2974],[104.1509,27.9956],[102.4245,24.8881],[104.0358,26.3843],[105.3018,26.039],[106.2225,26.6145],[108.7545,26.1541],[108.4093,23.1618],[105.7622,21.8958],[104.3705,19.482],[104.3811,18.328],[106.4515,16.188],[107.3753,16.6915]]]},"properties":{"NAME":"Tang Empire","SUBJECTO":"Tang Empire","PARTOF":"Tang Empire","BORDERPRECISION":1,"LINK":null}},
{"type":"Feature","geometry":{"type":"Polygon","coordinates":[[[79.0611,13.0338],[77.68,12.9187],[75.7344,11.2537],[76.0467,10.6122],[76.6442,10.6169],[77.4499,9.5811],[78.9266,9.4927],[79.2225,10.1922],[79.7899,10.2506],[80.3135,13.1045],[79.0611,13.0338]]]},"properties":{"NAME":"Pallava state","SUBJECTO":"Pallava state","PARTOF":"Pallava state","BORDERPRECISION":1,"LINK":null}},
{"type":"Feature","geometry":{"type":"Polygon","coordinates":[[[76.0467,10.6122],[77.3414,8.0533],[78.9266,9.4927],[77.4499,9.5811],[76.6442,10.6169],[76.0467,10.6122]]]},"properties":{"NAME":"Pandya state","SUBJECTO":"Pandya state","PARTOF":"Pandya state","BORDERPRECISION":1,"LINK":null}},
{"type":"Feature","geometry":{"type":"Polygon","coordinates":[[[80.5629,5.9317],[81.4339,6.2703],[81.8662,7.0846],[80.1096,9.6866],[79.6746,8.8049],[79.8541,7.0612],[80.5629,5.9317]]]},"properties":{"NAME":"Sinhalese kingdoms","SUBJECTO":"Sinhalese kingdoms","PARTOF":"Sinhalese kingdoms","BORDERPRECISION":1,"LINK":null}},
{"type":"Feature","geometry":{"type":"MultiPolygon","coordinates":[[[[136.7219,37.2659],[135.7271,35.4505],[132.6629,35.3806],[130.7793,33.9669],[131.995,33.8043],[132.1835,34.2872],[135.2057,34.6171],[135.0629,33.69],[135.7557,33.3423],[136.8986,34.2587],[136.7339,34.8741],[138.1491,34.5279],[138.6837,34.9923],[138.8638,34.5674],[139.9137,35.5544],[139.8301,34.836],[140.3166,35.0338],[140.8343,35.6771],[140.8722,37.9174],[141.9985,39.4489],[141.5662,40.4567],[139.8046,39.8907],[139.7457,38.6796],[138.492,37.3013],[137.1762,36.6431],[137.3096,37.4327],[136.7219,37.2659]]],[[[130.744,30.8878],[131.831,32.6931],[131.5688,33.4861],[130.6444,33.7],[129.3434,33.1514],[130.4965,32.557],[130.0601,31.2166],[130.7325,31.4783],[130.744,30.8878]]],[[[132.6988,32.5489],[133.241,33.2991],[133.9986,33.1483],[134.5404,34.0127],[132.7843,33.9075],[132.1211,33.3475],[132.6988,32.5489]]]]},"properties":{"NAME":"Japan","SUBJECTO":"Japan","PARTOF":"Japan","BORDERPRECISION":1,"LINK":null}},
{"type":"Feature","geometry":{"type":"MultiPolygon","coordinates":[[[[99.8632,2.5676],[99.1133,0.2212],[102.4622,-4.1818],[104.5685,-6.0712],[104.5634,-5.6009],[105.6893,-5.8971],[105.9428,-3.2147],[105.4449,-2.5993],[104.6778,-2.6708],[104.2299,-1.1911],[103.3113,-0.8182],[103.7222,0.0152],[99.8632,2.5676]]],[[[110.9683,1.2255],[109.2824,1.8827],[108.8143,0.8078],[110.1023,-3.0785],[111.3329,-1.3698],[110.7059,-0.6035],[110.6362,0.1628],[111.2632,0.7898],[110.9683,1.2255]]],[[[109.217,-7.0144],[106.9451,-6.026],[105.9332,-6.026],[105.6335,-6.7552],[105.1439,-6.7817],[106.3655,-7.0397],[106.4837,-7.5034],[109.1153,-7.7388],[109.217,-7.0144]]],[[[106.5527,-3.1752],[105.8634,-1.6261],[105.4267,-1.7096],[105.1997,-2.1105],[106.5527,-3.1752]]],[[[100.7548,3.8211],[101.8926,2.3369],[104.1756,1.3887],[103.3511,2.804],[103.0572,5.2235],[100.7548,3.8211]]]]},"properties":{"NAME":"Srivijaya Empire","SUBJECTO":"Srivijaya Empire","PARTOF":"Srivijaya Empire","BORDERPRECISION":1,"LINK":null}},
{"type":"Feature","geometry":{"type":"MultiPolygon","coordinates":[[[[98.654,12.2447],[98.1952,8.3271],[100.222,6.5206],[100.7548,3.8211],[103.0572,5.2235],[101.5599,6.7395],[100.5396,7.0487],[99.8373,9.2265],[99.1187,9.371],[99.9771,12.8418],[98.654,12.2447]]],[[[99.8632,2.5676],[97.3841,5.1801],[95.2161,5.4995],[95.8276,4.2237],[98.671,1.6183],[99.1133,0.2212],[99.8632,2.5676]]]]},"properties":{"NAME":"minor Hindu & Buddhist states","SUBJECTO":"minor Hindu & Buddhist states","PARTOF":"minor Hindu & Buddhist states","BORDERPRECISION":1,"LINK":null}},
{"type":"Feature","geometry":{"type":"MultiPolygon","coordinates":[[[[110.1023,-3.0785],[111.5872,-2.7957],[111.7395,-3.647],[112.7954,-2.971],[113.6084,-3.6111],[113.9706,-3.3625],[113.5699,-1.8749],[111.3329,-1.3698],[110.1023,-3.0785]]],[[[109.1153,-7.7388],[114.3293,-8.783],[114.2308,-7.9315],[112.6784,-7.7188],[112.2748,-7.0269],[110.8146,-6.5343],[109.217,-7.0144],[109.1153,-7.7388]]],[[[115.0724,-8.7814],[115.5005,-8.469],[114.4575,-8.3314],[115.0724,-8.7814]]]]},"properties":{"NAME":"Mataram","SUBJECTO":"Mataram","PARTOF":"Mataram","BORDERPRECISION":1,"LINK":null}},
{"type":"Feature","geometry":{"type":"Polygon","coordinates":[[[-140.0518,62.4951],[-150.1289,63.324],[-160.9395,63.9849],[-162.9701,63.1025],[-164.2918,63.2498],[-166.1895,61.7489],[-165.8981,61.2703],[-163.6888,60.9233],[-165.128,60.5422],[-164.0274,59.7982],[-162.3781,60.1631],[-161.9382,58.7233],[-160.4305,59.0022],[-158.9327,58.4328],[-158.6362,58.971],[-157.1394,58.8558],[-157.6653,57.6042],[-160.4573,56.1999],[-160.1694,55.8066],[-154.6493,58.0765],[-153.4886,58.7945],[-153.976,59.5192],[-150.7806,61.2919],[-149.3169,60.9294],[-151.1596,60.6597],[-151.881,59.1635],[-148.4935,59.904],[-147.9401,61.2059],[-144.4064,60.0926],[-141.1354,59.8394],[-140.0518,62.4951]]]},"properties":{"NAME":"Thule","SUBJECTO":"Thule","PARTOF":"Thule","BORDERPRECISION":1,"LINK":null}},
{"type":"Feature","geometry":{"type":"Polygon","coordinates":[[[-57.8142,49.2015],[-59.1566,47.6701],[-54.7826,47.7112],[-55.9039,47.064],[-55.4079,46.9479],[-54.2114,47.8036],[-54.0824,46.9895],[-53.0696,46.7313],[-52.7352,47.5457],[-53.8817,48.1893],[-53.1239,48.5958],[-54.1296,48.8357],[-53.5091,49.2819],[-55.1073,49.2788],[-56.0671,50.1033],[-56.7326,49.6884],[-55.4716,51.5245],[-57.3556,50.5952],[-57.8142,49.2015]]]},"properties":{"NAME":"Beothuk","SUBJECTO":"Beothuk","PARTOF":"Beothuk","BORDERPRECISION":1,"LINK":null}},
{"type":"Feature","geometry":{"type":"Polygon","coordinates":[[[-141.1354,59.8394],[-139.5726,59.9],[-139.7851,59.5184],[-137.085,58.4468],[-136.3561,58.5239],[-136.9388,58.9432],[-135.3003,58.3745],[-135.3086,59.347],[-132.2556,55.85],[-131.1905,56.0348],[-130.5457,54.9097],[-130.0027,55.2885],[-130.0036,53.938],[-129.4339,53.5175],[-128.8141,53.7639],[-127.8665,52.4125],[-122.4911,54.2436],[-111.4967,57.9886],[-118.1977,62.7126],[-124.9355,64.8346],[-132.4349,62.497],[-140.0518,62.4951],[-141.1354,59.8394]]]},"properties":{"NAME":"Athabaskan","SUBJECTO":"Athabaskan","PARTOF":"Athabaskan","BORDERPRECISION":1,"LINK":null}},
{"type":"Feature","geometry":{"type":"Polygon","coordinates":[[[-97.7093,21.801],[-97.8225,24.2081],[-97.26,25.8114],[-97.5678,27.9089],[-96.6027,28.3836],[-102.5682,29.9923],[-104.232,30.4409],[-112.8923,30.386],[-111.6916,28.4961],[-109.1888,26.4412],[-109.2627,25.6462],[-108.0775,25.0638],[-105.5399,22.2846],[-105.291,20.6704],[-100.8917,20.7409],[-100.2548,22.5719],[-97.7093,21.801]]]},"properties":{"NAME":"Mogollon","SUBJECTO":"Mogollon","PARTOF":"Mogollon","BORDERPRECISION":1,"LINK":"https://en.wikipedia.org/wiki/Mogollon_culture"}},
{"type":"Feature","geometry":{"type":"Polygon","coordinates":[[[-102.5682,29.9923],[-102.5682,38.8801],[-123.6485,38.8801],[-122.4898,38.1645],[-122.4941,37.3008],[-120.6879,34.6217],[-117.4967,33.3254],[-116.0584,30.3392],[-114.0673,28.4229],[-114.2144,27.9075],[-115.0546,27.8532],[-112.411,26.1928],[-112.0928,24.89],[-109.8892,22.8666],[-109.4886,23.5731],[-110.6557,24.2192],[-111.5938,26.7604],[-114.6828,30.1432],[-114.8387,31.8155],[-113.0521,31.1387],[-112.8923,30.386],[-104.232,30.4409],[-102.5682,29.9923]]]},"properties":{"NAME":"Anasazi","SUBJECTO":"Anasazi","PARTOF":"Anasazi","BORDERPRECISION":1,"LINK":"https://en.wikipedia.org/wiki/Ancestral_Puebloans"}},
{"type":"Feature","geometry":{"type":"Polygon","coordinates":[[[-44.9319,-1.6223],[-53.1285,-14.2647],[-47.8678,-24.9724],[-44.5613,-22.9899],[-42.1384,-22.972],[-40.9835,-22.0864],[-39.1425,-17.7747],[-38.7989,-12.6273],[-38.2661,-12.8867],[-37.1865,-10.8447],[-35.5986,-9.6276],[-34.8907,-7.6118],[-35.4644,-5.2683],[-37.1806,-4.9543],[-40.2309,-2.8512],[-43.2332,-2.4193],[-44.5934,-3.1466],[-44.4617,-2.2694],[-44.9319,-1.6223]]]},"properties":{"NAME":"Tupis","SUBJECTO":"Tupis","PARTOF":"Tupis","BORDERPRECISION":1,"LINK":"https://en.wikipedia.org/wiki/Tupi_people"}},
{"type":"Feature","geometry":{"type":"Polygon","coordinates":[[[44.6722,-16.2356],[43.9716,-17.5527],[44.5171,-20.0239],[43.2913,-22.4098],[44.0368,-24.9887],[45.2105,-25.66],[47.2585,-24.7658],[49.8982,-16.4595],[49.6203,-15.4623],[50.1873,-15.9568],[50.4863,-15.4795],[49.8805,-12.9196],[49.1763,-12.2665],[48.7513,-13.4177],[48.3496,-13.838],[47.9425,-13.5847],[47.8837,-14.7161],[47.2446,-15.3657],[44.6722,-16.2356]]]},"properties":{"NAME":"Malagasy","SUBJECTO":"Malagasy","PARTOF":"Malagasy","BORDERPRECISION":1,"LINK":null}},
{"type":"Feature","geometry":{"type":"MultiPolygon","coordinates":[[[[149.379,-6.2094],[150.2763,-6.3409],[151.9199,-5.6573],[152.0899,-4.3604],[151.5393,-4.4061],[151.5699,-5.0289],[150.7216,-5.6218],[148.3063,-5.7732],[149.379,-6.2094]]],[[[142.4133,-3.3073],[137.8543,-1.614],[135.2464,-3.5389],[134.2831,-2.8546],[133.9073,-1.0061],[132.254,-0.5267],[131.0644,-1.5397],[131.8156,-1.6652],[132.219,-2.3443],[133.855,-2.2454],[133.7808,-2.7222],[132.0158,-2.8214],[132.8272,-3.506],[132.9316,-4.2684],[133.7525,-3.1862],[134.0406,-3.9482],[137.8236,-5.4272],[139.0283,-7.0199],[138.6496,-7.1415],[139.1561,-7.7251],[138.917,-8.3167],[139.9769,-8.2382],[140.9476,-9.2739],[142.6074,-9.3766],[143.3311,-9],[142.2489,-8.3095],[143.4368,-8.3578],[143.6648,-7.6709],[144.6274,-7.7832],[145.8196,-8.0984],[147.6155,-10.084],[150.4946,-10.7389],[147.1512,-7.5617],[146.9091,-6.8948],[147.7386,-6.7405],[147.3765,-6.1248],[145.6081,-5.5248],[145.7282,-4.997],[144.5427,-3.9954],[142.4133,-3.3073]]],[[[137.6759,-8.4592],[138.2972,-8.5405],[138.8948,-7.7829],[138.3763,-7.5552],[137.6759,-8.4592]]]]},"properties":{"NAME":"Papou","SUBJECTO":"Papou","PARTOF":"Papou","BORDERPRECISION":1,"LINK":null}},
{"type":"Feature","geometry":{"type":"MultiPolygon","coordinates":[[[[111.3329,-1.3698],[113.5699,-1.8749],[113.9706,-3.3625],[114.5809,-4.2954],[115.5681,-3.8039],[116.3491,-2.4168],[116.0463,-1.9345],[117.3703,-1.0038],[117.5343,0.6107],[118.7652,0.823],[117.7301,1.7994],[117.074,3.5072],[118.3187,4.2342],[117.9484,4.7989],[118.998,5.2777],[117.3701,5.7889],[117.5071,6.3928],[116.5956,6.8991],[115.2917,5.454],[115.3614,4.8759],[114.7452,4.9844],[112.7592,3.0086],[111.3718,2.5989],[110.9683,1.2255],[111.2632,0.7898],[110.6362,0.1628],[110.7059,-0.6035],[111.3329,-1.3698]]],[[[117.7054,-8.4388],[118.0331,-8.692],[116.9584,-8.5293],[116.6632,-9.0593],[118.9705,-8.881],[118.7608,-8.3793],[117.7054,-8.4388]]],[[[120.6355,0.9224],[119.9137,0.5396],[118.6836,-2.9011],[118.7914,-3.6635],[119.4611,-3.8082],[119.4768,-5.8038],[120.2481,-5.586],[120.1442,-3.0759],[120.5928,-2.8016],[121.4413,-4.8653],[122.6484,-4.5131],[121.2535,-1.9613],[123.25,-0.9021],[121.4611,-0.9886],[120.5873,-1.5179],[119.9038,-0.6805],[120.143,0.1905],[124.234,0.3011],[125.0162,1.5419],[123.8262,0.7387],[120.6355,0.9224]]],[[[120.3051,14.5753],[121.2854,14.3424],[120.5106,14.112],[121.0094,13.6557],[121.6249,13.8984],[122.3941,13.3029],[122.4854,13.8812],[123.8189,12.9756],[123.3976,13.5274],[123.7019,13.8203],[122.9851,13.7298],[122.4865,14.3195],[121.7288,14.1083],[121.2422,15.3078],[122.3956,17.1143],[122.0496,18.4475],[120.5644,18.4316],[120.2931,16.2332],[119.6814,16.1875],[120.3051,14.5753]]],[[[120.8908,12.3658],[121.3045,13.129],[120.3405,13.3874],[120.8908,12.3658]]],[[[125.07,11.244],[125.4487,11.2067],[125.2464,12.2926],[124.264,12.4176],[125.07,11.244]]],[[[121.8831,10.6273],[122.9199,11.5253],[121.9936,11.7583],[121.8831,10.6273]]],[[[118.6997,10.0359],[119.5643,10.5016],[119.3539,11.2126],[118.6997,10.0359]]],[[[122.7686,9.2124],[123.133,9.2513],[123.2391,10.9224],[122.3475,9.8151],[122.7686,9.2124]]],[[[125.9546,6.6525],[126.3063,8.2353],[125.4281,9.7836],[125.4013,8.9512],[123.6628,8.0135],[123.4859,8.496],[122.8888,8.3422],[121.8245,7.0565],[122.6351,7.7826],[122.7254,7.4524],[123.8153,7.6581],[123.9735,6.3369],[124.803,5.7859],[125.1295,6.0534],[125.2893,5.4883],[125.6146,7.2363],[125.9546,6.6525]]]]},"properties":{"NAME":"Malay","SUBJECTO":"Malay","PARTOF":"Malay","BORDERPRECISION":1,"LINK":null}},
{"type":"Feature","geometry":{"type":"Polygon","coordinates":[[[28.9182,44.7658],[27.0122,45.0046],[27.0078,45.1945],[26.118,44.837],[26.5125,42.5944],[24.0352,42.1936],[27.4947,42.4009],[28.6862,44.4881],[28.9182,44.7658]]]},"properties":{"NAME":"Bulgars","SUBJECTO":"Bulgars","PARTOF":"Bulgars","BORDERPRECISION":1,"LINK":null}},
{"type":"Feature","geometry":{"type":"Polygon","coordinates":[[[-1.8969,54.3362],[-0.3192,53.5789],[-1.942,55.5561],[-2.0646,55.3003],[-1.8969,54.3362]]]},"properties":{"NAME":"Nothumbria","SUBJECTO":"Nothumbria","PARTOF":"Nothumbria","BORDERPRECISION":1,"LINK":null}},
{"type":"Feature","geometry":{"type":"Polygon","coordinates":[[[0.1918,50.7313],[1.3647,51.3529],[0.2047,51.0919],[0.1918,50.7313]]]},"properties":{"NAME":"Kent","SUBJECTO":"Kent","PARTOF":"Kent","BORDERPRECISION":1,"LINK":null}},
{"type":"Feature","geometry":{"type":"Polygon","coordinates":[[[0.2666,51.4567],[1.2719,51.9194],[-0.8317,51.9276],[-0.8577,51.4515],[0.2666,51.4567]]]},"properties":{"NAME":"Essex","SUBJECTO":"Essex","PARTOF":"Essex","BORDERPRECISION":1,"LINK":null}},
{"type":"Feature","geometry":{"type":"Polygon","coordinates":[[[-0.8577,51.4515],[-0.8317,51.9276],[1.2719,51.9194],[1.5857,52.65],[0.0055,52.7867],[-0.3192,53.5789],[-1.8969,54.3362],[-2.8859,54.1687],[-2.9145,53.2671],[-2.7502,51.644],[-5.7778,50.1341],[-1.7713,50.7308],[-2.0399,51.4461],[-0.8577,51.4515]]]},"properties":{"NAME":"Mercia","SUBJECTO":"Mercia","PARTOF":"Mercia","BORDERPRECISION":1,"LINK":null}},
{"type":"Feature","geometry":{"type":"Polygon","coordinates":[[[132.8274,42.8619],[134.5686,43.2122],[137.2569,45.6124],[130.2559,50.1508],[110.7014,50.9829],[93.9412,51.0959],[82.2087,51.3292],[80.7188,46.436],[91.3339,45.9203],[90.9597,43.5492],[92.0664,43.3026],[94.5984,41.1159],[96.3247,40.6555],[98.9718,41.0008],[100.8133,40.3103],[102.1944,38.4688],[104.0358,38.0085],[104.1509,40.3103],[104.8415,41.231],[110.7111,40.8857],[116.2354,41.5763],[123.3711,42.9574],[125.0974,42.9574],[126.0181,42.1517],[131.7727,45.1441],[132.9236,44.3384],[132.8274,42.8619]]]},"properties":{"NAME":"Ouighurs","SUBJECTO":"Ouighurs","PARTOF":"Ouighurs","BORDERPRECISION":1,"LINK":null}},
{"type":"Feature","geometry":{"type":"Polygon","coordinates":[[[137.2569,45.6124],[140.081,48.5026],[141.1212,53.0516],[139.378,54.0804],[137.0713,53.4895],[137.3829,53.8098],[136.3507,53.7012],[136.4916,54.4555],[134.8937,54.7199],[142.7215,59.239],[137.178,61.3343],[127.8094,61.8038],[116.9616,59.8827],[110.7014,50.9829],[130.2559,50.1508],[137.2569,45.6124]]]},"properties":{"NAME":"Tungus","SUBJECTO":"Tungus","PARTOF":"Tungus","BORDERPRECISION":1,"LINK":null}},
{"type":"Feature","geometry":{"type":"MultiPolygon","coordinates":[[[[28.3666,45.7404],[27.0078,45.1945],[27.0122,45.0046],[28.9182,44.7658],[28.6862,44.4881],[30.8329,46.5766],[32.1502,46.6365],[32.2497,47.3006],[28.3666,45.7404]]],[[[28.1942,48.4943],[29.691,48.4557],[31.075,49.0178],[28.1942,48.4943]]]]},"properties":{"NAME":"Magyars","SUBJECTO":"Khazars","PARTOF":"Magyars","BORDERPRECISION":1,"LINK":null}},
{"type":"Feature","geometry":{"type":"Polygon","coordinates":[[[14.3753,13.2919],[15.6574,11.3062],[18.628,10.1695],[21.5047,12.6825],[20.723,14.7784],[17.0019,15.5931],[15.1258,14.8993],[14.3753,13.2919]]]},"properties":{"NAME":"Kanem","SUBJECTO":"Kanem","PARTOF":"Kanem","BORDERPRECISION":1,"LINK":null}},
{"type":"Feature","geometry":{"type":"Polygon","coordinates":[[[79.0478,27.76],[78.5513,27.6304],[76.3091,27.0451],[76.1052,26.9986],[72.2656,24.2231],[73.9152,23.1114],[72.6931,22.1047],[72.8808,20.3371],[78.831,20.3996],[84.9032,22.8498],[84.8195,23.8535],[83.9848,24.781],[84.0412,24.8328],[81.5931,25.2334],[79.2805,27.6308],[79.0478,27.76]]]},"properties":{"NAME":"Gurjara Pratihara","SUBJECTO":"Gurjara Pratihara","PARTOF":"Gurjara Pratihara","BORDERPRECISION":1,"LINK":null}},
{"type":"Feature","geometry":{"type":"Polygon","coordinates":[[[-61.2917,16.3267],[-61.7836,16.3331],[-61.695,15.9492],[-61.2917,16.3267]]]},"properties":{"NAME":"Arawaks","SUBJECTO":"Arawaks","PARTOF":"Arawaks","BORDERPRECISION":1,"LINK":null}},
{"type":"Feature","geometry":{"type":"Polygon","coordinates":[[[-60.246,53.2768],[-62.5939,54.57],[-65.0068,50.3406],[-60.1378,50.4117],[-55.659,52.1873],[-56.127,53.4658],[-58.7882,52.5726],[-59.717,53.4313],[-60.246,53.2768]]]},"properties":{"NAME":"Innu","SUBJECTO":"Innu","PARTOF":"Innu","BORDERPRECISION":1,"LINK":null}},
{"type":"Feature","geometry":{"type":"Polygon","coordinates":[[[9.5165,55.1421],[9.5177,55.1357],[9.5176,55.1425],[9.5165,55.1421]]]},"properties":{"NAME":"Danes","SUBJECTO":"Danes","PARTOF":"Danes","BORDERPRECISION":1,"LINK":null}},
{"type":"Feature","geometry":{"type":"Polygon","coordinates":[[[12.2516,59.0318],[11.8629,58.3455],[13.9283,57.7015],[14.2176,56.6032],[15.217,56.8341],[15.7725,56.0356],[16.4429,58.6344],[18.6113,59.3333],[16.5232,59.5825],[19.0436,59.7124],[17.1978,60.68],[12.2879,59.2373],[12.2516,59.0318]]]},"properties":{"NAME":"Swedes and Goths","SUBJECTO":"Swedes and Goths","PARTOF":"Swedes and Goths","BORDERPRECISION":1,"LINK":null}},
{"type":"Feature","geometry":{"type":"MultiPolygon","coordinates":[[[[9.5165,55.1421],[10.951,56.4197],[10.1956,56.4897],[10.3449,56.6812],[9.9761,56.6747],[10.3102,56.923],[10.0587,57.0491],[9.211,56.9375],[9.3353,56.5354],[8.1792,56.6674],[8.884,54.2294],[10.1417,54.3368],[9.8648,54.4114],[9.9867,54.5924],[9.6708,54.8434],[9.7299,54.949],[9.5262,55.0903],[9.5177,55.1357],[9.5165,55.1421]]],[[[12.2516,59.0318],[11.8753,59.904],[10.6201,60.1022],[9.6072,59.893],[9.7075,58.9968],[10.5697,59.5805],[12.8716,56.5115],[12.0664,55.6678],[10.9275,55.7151],[11.3677,55.2007],[12.1467,54.9913],[12.5982,56.0221],[13.3019,55.3007],[14.6529,56.1206],[15.7725,56.0356],[15.217,56.8341],[14.2176,56.6032],[13.9283,57.7015],[11.8629,58.3455],[12.2516,59.0318]]],[[[10.1238,57.6218],[8.319,56.676],[9.0044,57.0259],[10.0892,57.0654],[10.2541,57.0162],[10.388,57.0512],[10.1238,57.6218]]],[[[10.0335,55.1881],[10.7115,55.0991],[10.6507,55.5849],[10.0335,55.1881]]]]},"properties":{"NAME":"Danes","SUBJECTO":"Danes","PARTOF":"Danes","BORDERPRECISION":1,"LINK":null}},
{"type":"Feature","geometry":{"type":"Polygon","coordinates":[[[-1.942,55.5561],[-3.8281,55.9482],[-4.6296,55.9241],[-5.1114,54.7941],[-3.3087,54.8847],[-2.8859,54.1687],[-1.8969,54.3362],[-2.0646,55.3003],[-1.942,55.5561]]]},"properties":{"NAME":"Celtic kingdoms","SUBJECTO":"Celtic kingdoms","PARTOF":"Celtic kingdoms","BORDERPRECISION":1,"LINK":null}},
{"type":"Feature","geometry":{"type":"Polygon","coordinates":[[[-3.8947,55.9849],[-2.7209,56.1782],[-1.9446,57.4017],[-4.2485,57.6363],[-3.165,58.5222],[-4.9256,58.567],[-5.2263,57.7105],[-3.8947,55.9849]]]},"properties":{"NAME":"Picts","SUBJECTO":"Picts","PARTOF":"Picts","BORDERPRECISION":1,"LINK":null}},
{"type":"Feature","geometry":{"type":"Polygon","coordinates":[[[-3.8281,55.9482],[-3.8947,55.9849],[-5.2263,57.7105],[-6.0435,56.4748],[-5.2707,56.5441],[-5.5702,55.7505],[-4.6296,55.9241],[-3.8281,55.9482]]]},"properties":{"NAME":"Scots","SUBJECTO":"Scots","PARTOF":"Scots","BORDERPRECISION":1,"LINK":null}},
{"type":"Feature","geometry":{"type":"Polygon","coordinates":[[[-6.6452,55.2064],[-8.3454,55.0953],[-8.5901,54.2028],[-10.1597,54.1331],[-10.1598,53.3741],[-8.9236,53.1606],[-10.4692,52.2066],[-9.8191,51.4346],[-6.406,52.2144],[-6.4434,53.8994],[-5.6615,54.3222],[-6.6452,55.2064]]]},"properties":{"NAME":"Irlanda","SUBJECTO":"Irlanda","PARTOF":"Irlanda","BORDERPRECISION":1,"LINK":null}},
{"type":"Feature","geometry":{"type":"Polygon","coordinates":[[[27.0078,45.1945],[28.3666,45.7404],[32.2497,47.3006],[32.2589,47.362],[30.8387,47.0762],[28.5244,47.9818],[29.691,48.4557],[28.1942,48.4943],[26.7877,48.5305],[20.6437,47.7121],[16.9495,47.9517],[14.3545,45.3229],[15.2859,44.3289],[15.5482,44.2293],[17.1463,44.2128],[18.5893,43.9505],[20.426,42.6386],[21.0819,40.6051],[21.6067,41.7858],[23.7307,42.1754],[24.0352,42.1936],[26.5125,42.5944],[26.118,44.837],[27.0078,45.1945]]]},"properties":{"NAME":"Avars","SUBJECTO":"Avars","PARTOF":"Avars","BORDERPRECISION":1,"LINK":null}},
{"type":"Feature","geometry":{"type":"Polygon","coordinates":[[[49.0869,41.4528],[46.81,44.5363],[47.6282,45.7322],[49.5345,46.5415],[51.1171,47.063],[52.9572,46.9265],[55.1098,48.6015],[53.4341,50.9147],[45.6422,54.2779],[34.9746,52.8589],[35.2194,50.7012],[32.2572,49.498],[33.0154,49.2807],[32.6205,49.1986],[32.4706,49.2714],[32.4082,49.3017],[32.0981,49.4334],[31.075,49.0178],[29.691,48.4557],[28.5244,47.9818],[30.8387,47.0762],[32.2589,47.362],[32.2497,47.3006],[32.1502,46.6365],[32.2022,46.1704],[33.5279,46.1341],[32.5032,45.4451],[34.0137,44.4921],[36.521,45.3883],[35.0634,45.3401],[33.7039,46.2148],[39.1599,47.2689],[37.7571,46.6032],[38.459,46.0789],[36.9599,45.2274],[41.1226,43.0191],[41.6805,41.7933],[48.2379,39.9492],[48.9594,40.146],[48.6315,41.1955],[49.0869,41.4528]],[[33.6554,47.0503],[33.7047,47.0608],[33.984,47.5557],[35.1057,47.8416],[35.3018,47.4918],[35.049,47.4282],[33.9041,47.1587],[33.5594,46.8222],[33.6554,47.0503]]]},"properties":{"NAME":"Khazars","SUBJECTO":"Khazars","PARTOF":"Khazars","BORDERPRECISION":1,"LINK":null}},
{"type":"Feature","geometry":{"type":"Polygon","coordinates":[[[-24.1615,65.6066],[-21.7938,65.2985],[-23.6746,64.6593],[-21.4885,64.3761],[-22.3729,63.7732],[-18.9608,63.3375],[-14.8212,64.195],[-13.5574,65.0094],[-15.8599,66.4187],[-17.8838,65.7568],[-19.9733,66.1107],[-21.0797,65.2054],[-22.6764,66.3913],[-24.1615,65.6066]]]},"properties":{"NAME":"Northmen","SUBJECTO":"Northmen","PARTOF":"Northmen","BORDERPRECISION":1,"LINK":null}},
{"type":"Feature","geometry":{"type":"Polygon","coordinates":[[[12.3988,50.1729],[13.9505,48.7197],[15.7125,49.0138],[16.6856,50.1898],[15.0025,50.9083],[12.3988,50.1729]]]},"properties":{"NAME":"Czechs","SUBJECTO":"Slavic tribes","PARTOF":"Czechs","BORDERPRECISION":1,"LINK":null}},
{"type":"Feature","geometry":{"type":"MultiPolygon","coordinates":[[[[-116.8132,68.9118],[-119.979,69.3781],[-120.4026,67.9475],[-110.8602,65.9435],[-97.3611,65.1243],[-87.8245,64.347],[-87.1573,65.0596],[-90,65.9736],[-87.5498,65.3495],[-85.9871,66.1628],[-86.739,66.5651],[-83.7405,66.3063],[-84.7139,67.0703],[-83.1387,66.3735],[-81.4992,67.0689],[-82.6873,68.6975],[-81.583,68.602],[-81.4799,69.1886],[-84.5702,69.8333],[-84.6246,68.7539],[-87.3254,67.1689],[-88.5761,69.1],[-90,68.3691],[-90,69.489],[-92.6712,69.7424],[-91.6577,70.2858],[-94.4172,71.8843],[-96.3983,71.2028],[-96.464,70.1542],[-92.9925,69.5146],[-92.9855,68.9638],[-94.3425,69.1119],[-93.4141,68.5425],[-95.3225,68.0603],[-95.2587,67.0284],[-97.5718,68.3699],[-98.4071,68.159],[-97.2607,67.5951],[-101.913,67.7053],[-105.912,68.3394],[-107.662,67.9626],[-107.5276,66.563],[-110.1334,67.9058],[-115.5617,67.8957],[-114.1945,68.4962],[-116.8132,68.9118]]],[[[-78.0648,58.4076],[-76.4623,56.5775],[-62.5097,57.9717],[-64.6706,60.1809],[-65.9291,58.4238],[-66.3281,58.8014],[-68.0046,58.1657],[-68.5694,58.7833],[-69.7258,58.5609],[-69.5363,60.9892],[-71.6734,61.2657],[-73.3946,62.355],[-77.3616,62.5175],[-78.1765,60.7418],[-77.3885,60.6943],[-77.2148,59.7475],[-78.0648,58.4076]]],[[[-85.0579,65.6091],[-85.5575,65.8636],[-87.1012,63.5447],[-85.6007,63.7476],[-85.1568,63.1847],[-83.1885,64.1818],[-80.696,63.4996],[-80.1794,63.722],[-81.8721,63.9907],[-82.1096,64.6436],[-85.0579,65.6091]]],[[[-76.2692,67.2488],[-75.1463,67.577],[-75.8847,68.3431],[-77.2475,67.6548],[-76.2692,67.2488]]],[[[-97.4074,69.7487],[-99.365,68.9745],[-96.2127,68.5372],[-95.5146,68.8087],[-97.4074,69.7487]]],[[[-110.0794,72.5622],[-111.7255,72.3306],[-112.8389,72.9527],[-114.4727,72.6251],[-114.647,73.3549],[-118.3988,72.4757],[-118.9684,71.9088],[-115.517,71.4234],[-118.4988,71.0528],[-117.7607,70.7217],[-111.5437,70.3254],[-117.1929,70.123],[-116.6562,69.5159],[-113.7168,69.204],[-113.1522,68.5956],[-109.2094,68.8132],[-106.5924,69.4968],[-102.2779,68.954],[-103.3613,69.6391],[-100.9671,69.6284],[-101.0552,70.0308],[-104.5946,71.0479],[-105.6093,72.8711],[-108.1815,73.3829],[-108.0605,71.7571],[-110.4546,73.0127],[-110.0794,72.5622]]],[[[-101.042,72.7688],[-102.2792,73.1472],[-98.3719,71.37],[-96.3509,72.5012],[-98.3937,73.1306],[-96.9367,73.7877],[-100.934,73.8603],[-101.042,72.7688]]],[[[-95.0685,74.0641],[-94.5424,72.1898],[-90,73.9998],[-95.0685,74.0641]]],[[[-72.73,64.015],[-71.3189,63.0613],[-65.9403,61.79],[-68.8786,63.7503],[-64.7678,62.4774],[-65.2507,63.8716],[-64.4154,63.245],[-64.4739,63.7443],[-68.3757,66.2837],[-67.3055,65.9343],[-66.9128,66.5949],[-63.5406,64.9953],[-63.3809,65.927],[-62.8448,65.6143],[-62.6551,66.3385],[-61.2106,66.635],[-64.6138,67.1153],[-64.8289,67.9533],[-66.7447,67.9273],[-68.6653,68.7161],[-68.3907,69.3337],[-66.6681,69.1861],[-68.2072,69.591],[-67.3307,70.0327],[-69.4627,69.9601],[-68.4694,70.5597],[-71.8815,70.9312],[-71.664,71.5133],[-73.2752,71.1608],[-73.886,71.665],[-75.0015,71.4526],[-75.6319,72.6109],[-77.896,72.7014],[-78.6625,71.8747],[-79.3296,72.3676],[-80.8631,72.0115],[-81.9064,73.7517],[-85.5057,72.9404],[-84.4884,71.3493],[-85.891,71.1217],[-86.8554,72.8587],[-85.2542,73.7775],[-87.7426,73.7327],[-89.9972,71.5413],[-87.1688,71.0186],[-89.0185,70.6753],[-80.8294,69.7114],[-81.0128,70.1831],[-78.7129,70.0114],[-80.6605,70.7526],[-79.1011,70.6553],[-75.5517,69.2223],[-76.5464,68.7314],[-74.7523,69.043],[-73.1849,68.2958],[-72.3049,67.2636],[-74.3333,66.1626],[-73.4942,65.405],[-75.3559,64.9155],[-77.3584,65.3759],[-78.1034,64.5072],[-75.9355,64.2671],[-74.2555,64.7662],[-72.73,64.015]]],[[[-89.3694,75.6516],[-91.1564,75.9743],[-90,76.5908],[-93.0849,76.527],[-91.8668,74.7889],[-84.5679,74.6161],[-83.4487,75.0823],[-82.373,74.5555],[-80.3493,74.6159],[-79.5766,75.3957],[-81.5316,75.8585],[-86.179,75.4081],[-89.3694,75.6516]]],[[[-87.4533,82.1398],[-91.2186,81.8373],[-89.2355,80.8636],[-85.811,81.3945],[-85.5038,80.6181],[-77.5209,80.7499],[-81.7187,80.3854],[-80.7316,79.6585],[-86.1701,80.279],[-81.5972,78.7546],[-85.8068,78.9062],[-86.9172,78.2452],[-83.3188,77.374],[-87.8125,77.8756],[-87.0992,77.2807],[-89.4181,76.6103],[-85.0371,76.4069],[-84.6219,76.8917],[-80.8135,76.2377],[-77.8243,76.8876],[-82.1024,77.3161],[-76.2906,78.0107],[-74.9631,79.1223],[-77.2388,79.5827],[-70.4205,80.0504],[-65.2998,81.4584],[-67.5852,81.9613],[-61.9894,82.3119],[-70.5843,83.176],[-73.2534,82.7729],[-76.3821,83.1519],[-75.9249,82.5174],[-80.4146,82.8666],[-80.0924,81.9659],[-87.4533,82.1398]]],[[[-95.6285,77.0416],[-95.8734,76.5133],[-93.9376,76.3985],[-95.6285,77.0416]]],[[[-89.042,80.1666],[-93.4347,81.4398],[-96.4334,79.9334],[-95.0394,79.3962],[-90,79.1261],[-94.1893,79.1478],[-91.4238,78.305],[-85.2532,79.2592],[-88.1504,80.4601],[-89.042,80.1666]]]]},"properties":{"NAME":"Dorset","SUBJECTO":"Dorset","PARTOF":"Dorset","BORDERPRECISION":1,"LINK":"https://en.wikipedia.org/wiki/Dorset_culture"}},
{"type":"Feature","geometry":{"type":"Polygon","coordinates":[[[79.2805,27.6308],[81.5931,25.2334],[84.0412,24.8328],[85.0978,25.8013],[87.1871,25.1054],[87.8678,27.0179],[91.5807,27.1699],[93.4131,24.2463],[97.936,24.8881],[98.3964,24.4278],[98.2813,22.5863],[99.4322,21.8958],[101.4295,21.9752],[102.4245,24.8881],[104.1509,27.9956],[103.5755,30.2974],[104.266,31.9087],[102.7698,33.4048],[104.266,36.5123],[104.0358,38.0085],[102.1944,38.4688],[100.8133,40.3103],[98.9718,41.0008],[96.3247,40.6555],[94.5984,41.1159],[92.0664,43.3026],[90.9597,43.5492],[85.6213,43.4177],[79.9819,40.7706],[75.3782,40.1952],[75.1481,37.7783],[76.5291,36.9726],[76.7597,33.1839],[76.7593,31.9087],[78.4857,30.5276],[79.1482,28.3367],[79.8537,27.9704],[79.2465,27.8119],[79.2805,27.6308]]]},"properties":{"NAME":"Tibetan Empire","SUBJECTO":"Tibetan Empire","PARTOF":"Tibetan Empire","BORDERPRECISION":1,"LINK":null}},
{"type":"Feature","geometry":{"type":"Polygon","coordinates":[[[45.5413,1.9671],[46.1903,2.5223],[34.406,2.4905],[22.2245,6.1962],[12.6047,7.732],[5.333,5.2479],[6.0888,4.3281],[8.1402,4.466],[8.328,4.8413],[9.7802,3.8532],[9.8943,2.1377],[9.3501,0.5352],[9.8833,0.0788],[8.8152,-0.8958],[11.7726,-4.537],[13.4768,-8.416],[13.0838,-9.2875],[13.8132,-11.6562],[12.5854,-13.4637],[11.782,-15.8675],[11.7947,-17.8439],[12.906,-19.7023],[34.7195,-20.0428],[36.8923,-18],[39.4713,-16.717],[40.5741,-15.4817],[40.6195,-10.766],[39.6576,-9.7957],[39.2701,-7.8011],[39.5664,-7.0442],[38.9338,-5.6348],[40.9154,-2.0781],[41.6099,-1.8767],[43.7243,0.8003],[45.5413,1.9671]]]},"properties":{"NAME":"Bantou","SUBJECTO":"Bantou","PARTOF":"Bantou","BORDERPRECISION":1,"LINK":null}},
{"type":"Feature","geometry":{"type":"MultiPolygon","coordinates":[[[[-1.9417,42.6386],[-0.4986,42.9009],[2.0655,41.2956],[3.1289,41.8572],[3.4787,43.3121],[6.523,43.1509],[8.8966,44.4372],[11.7914,42.1419],[11.6661,44.9072],[12.317,45.1152],[13.5646,45.7265],[14.1885,44.9425],[15.0288,47.827],[13.9505,48.7197],[12.3988,50.1729],[13.8432,50.6513],[12.9643,51.5179],[13.7378,54.0303],[12.9431,54.347],[10.8589,53.8772],[11.0386,54.3133],[10.1417,54.3368],[8.884,54.2294],[8.175,53.3217],[7.3324,53.6044],[7.1599,53.164],[5.3895,53.1386],[5.4732,52.1766],[4.7188,52.8024],[3.775,51.3877],[1.5889,50.8219],[0.3308,49.455],[-1.9413,49.7093],[-1.4566,48.6836],[-2.3429,48.6741],[-2.6364,48.552],[-3.0912,48.8716],[-4.762,48.552],[-3.0912,48.8716],[-2.6364,48.552],[-1.9991,48.677],[-1.752,48.1782],[-2.0104,47.7457],[-2.5755,47.324],[-0.7285,45.0186],[-1.1752,45.5005],[-1.9146,43.3054],[-1.9417,42.6386]]],[[[9.173,41.3499],[9.3671,42.9881],[8.5004,42.3598],[9.173,41.3499]]]]},"properties":{"NAME":"Carolingian Empire","SUBJECTO":"Carolingian Empire","PARTOF":"Carolingian Empire","BORDERPRECISION":1,"LINK":null}},
{"type":"Feature","geometry":{"type":"MultiPolygon","coordinates":[[[[17.0841,40.5251],[18.3649,39.7467],[18.3836,40.3078],[17.2586,40.956],[17.0841,40.5251]]],[[[15.8465,39.6299],[15.7852,37.9097],[17.1807,39.0222],[16.5321,39.6975],[15.8465,39.6299]]],[[[41.2778,41.28],[38.314,40.9209],[36.3829,41.2375],[35.0019,42.0432],[33.1555,41.9496],[31.2177,41.0541],[29.1612,41.2164],[29.8827,40.7464],[29.0524,40.3347],[27.0561,40.4297],[26.186,39.9972],[26.0641,39.4555],[26.9575,39.5483],[27.0349,38.8211],[26.3932,38.1044],[27.1398,37.8891],[27.3081,36.9207],[28.0142,36.5272],[29.0023,36.6948],[29.4719,36.0907],[30.3949,36.118],[30.9053,36.7942],[33.1713,35.9709],[34.6624,36.6478],[37.3493,38.8341],[40.629,39.8836],[41.2778,41.28]]],[[[24.0352,42.1936],[23.7307,42.1754],[21.6067,41.7858],[21.0819,40.6051],[20.426,42.6386],[18.5893,43.9505],[17.1463,44.2128],[15.5482,44.2293],[15.2859,44.3289],[16.0594,43.4335],[19.607,41.7615],[19.3691,40.2603],[21.1595,39.0048],[21.1724,38.3478],[23.1163,38.1574],[21.2284,37.9049],[22.3903,36.5244],[22.9826,36.6148],[22.6423,37.5849],[23.4181,37.4693],[22.8981,37.9],[23.9873,37.7634],[23.8039,38.3465],[22.4905,38.8769],[23.2361,39.2032],[22.4921,40.4983],[23.9066,39.9972],[23.6272,40.3453],[24.2954,40.1765],[23.6347,40.7728],[25.0189,41.0171],[26.5565,40.4983],[26.1409,40.0447],[27.4742,40.9628],[28.8278,40.9147],[29.0811,41.2005],[27.4947,42.4009],[24.0352,42.1936]]],[[[8.1595,40.7847],[8.4172,39.2122],[9.4789,39.1442],[9.5909,40.9029],[8.1595,40.7847]]],[[[12.5166,37.9192],[14.622,36.7761],[15.3013,37.0579],[15.3867,38.2055],[12.5166,37.9192]]],[[[23.5131,35.276],[24.6935,34.9405],[26.2735,35.3127],[23.6967,35.6981],[23.5131,35.276]]],[[[23.2424,39.0441],[22.8699,38.8372],[24.5272,37.9674],[23.2424,39.0441]]]]},"properties":{"NAME":"Byzantine Empire","SUBJECTO":"Byzantine Empire","PARTOF":"Byzantine Empire","BORDERPRECISION":1,"LINK":null}},
{"type":"Feature","geometry":{"type":"Polygon","coordinates":[[[-4.3644,47.8293],[-2.4655,47.4944],[-2.0104,47.7457],[-1.752,48.1782],[-1.9991,48.677],[-2.6364,48.552],[-3.0912,48.8716],[-4.762,48.552],[-4.4738,48.3829],[-4.3889,48.2984],[-4.351,48.2046],[-4.7003,48.0638],[-4.5101,47.9981],[-4.3909,47.9418],[-4.3644,47.8293]]]},"properties":{"NAME":"Britany","SUBJECTO":"Britany","PARTOF":"Britany","BORDERPRECISION":1,"LINK":null}},
{"type":"Feature","geometry":{"type":"Polygon","coordinates":[[[17.1978,60.68],[17.2902,62.4407],[20.7007,63.8181],[22.4898,65.8834],[25.1861,65.2427],[29.2161,65.4841],[34.7256,65.615],[32.2194,66.9937],[38.7821,66.0015],[40.8364,66.5614],[40.9734,67.5344],[35.4366,69.1504],[33.3156,69.0713],[32.0716,69.8835],[29.7286,69.6976],[28.7301,70.1359],[30.7542,70.4304],[28.7948,70.8648],[27.8754,70.4251],[28.2112,71.0179],[25.263,70.1065],[25.8321,70.8978],[23.2036,69.9428],[22.3064,70.2156],[20.1965,69.3177],[20.2864,69.7859],[19.58,69.1811],[18.3191,69.3594],[14.9785,67.5228],[12.2879,59.2373],[17.1978,60.68]]]},"properties":{"NAME":"Sámi","SUBJECTO":"Sámi","PARTOF":"Sámi","BORDERPRECISION":1,"LINK":"https://en.wikipedia.org/wiki/S%C3%A1mi"}},
{"type":"Feature","geometry":{"type":"Polygon","coordinates":[[[28.4754,60.2957],[30.1266,59.806],[27.9417,59.6476],[27.6134,58.3294],[31.5581,56.2545],[35.209,60.2936],[35.6653,60.9134],[35.0369,61.5206],[32.5811,61.0364],[32.5839,60.2089],[31.4548,59.9072],[30.5043,60.7177],[28.4754,60.2957]]]},"properties":{"NAME":"Rus' Khaganate","SUBJECTO":"Rus' Khaganate","PARTOF":"Rus' Khaganate","BORDERPRECISION":1,"LINK":null}},
{"type":"Feature","geometry":{"type":"Polygon","coordinates":[[[56.6036,52.6619],[59.0437,56.4433],[53.9765,57.7086],[49.1029,57.7086],[47.5729,56.8104],[46.8242,56.2028],[46.0663,56.2105],[45.9586,54.2983],[48.3859,54.1772],[49.059,55.4827],[51.9365,55.6991],[49.9878,55.3066],[56.6036,52.6619]]]},"properties":{"NAME":"Volga Bulgars","SUBJECTO":"Volga Bulgars","PARTOF":"Volga Bulgars","BORDERPRECISION":1,"LINK":null}},
{"type":"Feature","geometry":{"type":"Polygon","coordinates":[[[56.6036,52.6619],[55.6028,51.111],[62.741,50.7595],[70.3842,55.5766],[64.6254,57.5787],[60.3131,56.6037],[59.0437,56.4433],[56.6036,52.6619]]]},"properties":{"NAME":"Bashkirs","SUBJECTO":"Bashkirs","PARTOF":"Bashkirs","BORDERPRECISION":1,"LINK":null}},
{"type":"Feature","geometry":{"type":"Polygon","coordinates":[[[53.4341,50.9147],[53.2095,51.2289],[55.6028,51.111],[56.6036,52.6619],[49.9878,55.3066],[48.4994,54.3344],[49.7273,54.2251],[49.063,53.6066],[49.9048,53.4567],[48.8008,53.2806],[48.3859,54.1772],[45.9586,54.2983],[45.6422,54.2779],[53.4341,50.9147]]]},"properties":{"NAME":"Mordvinians","SUBJECTO":"Mordvinians","PARTOF":"Mordvinians","BORDERPRECISION":1,"LINK":null}},
{"type":"Feature","geometry":{"type":"Polygon","coordinates":[[[24.457,57.2807],[23.0709,57.2613],[22.8043,55.9903],[25.329,56.5452],[25.7498,58.5486],[27.3689,58.3581],[27.702,59.2975],[23.5705,59.3181],[24.457,57.2807]]]},"properties":{"NAME":"Ests","SUBJECTO":"Ests","PARTOF":"Finno-Ugric taiga hunter-gatherers","BORDERPRECISION":1,"LINK":null}},
{"type":"Feature","geometry":{"type":"Polygon","coordinates":[[[25.1861,65.2427],[21.0618,62.6117],[21.5602,60.5125],[23.2014,59.8185],[26.5516,60.5707],[28.5215,60.6233],[28.4754,60.2957],[30.5043,60.7177],[29.825,61.2156],[30.7966,61.7506],[29.2161,65.4841],[25.1861,65.2427]]]},"properties":{"NAME":"Finns","SUBJECTO":"Finns","PARTOF":"Finno-Ugric taiga hunter-gatherers","BORDERPRECISION":1,"LINK":null}},
{"type":"Feature","geometry":{"type":"Polygon","coordinates":[[[49.1029,57.7086],[49.1143,57.7153],[44.5121,58.4026],[43.1909,57.4675],[44.402,56.2273],[46.0663,56.2105],[46.8242,56.2028],[47.5729,56.8104],[49.1029,57.7086]]]},"properties":{"NAME":"Mari","SUBJECTO":"Mari","PARTOF":"Mari","BORDERPRECISION":1,"LINK":null}},
{"type":"Feature","geometry":{"type":"Polygon","coordinates":[[[59.0437,56.4433],[60.3131,56.6037],[57.9672,68.707],[53.6257,68.0477],[53.5024,68.8163],[46.4021,66.7186],[44.8712,67.3124],[46.6341,67.7005],[45.8634,68.3833],[43.8532,68.4692],[44.0294,66.0112],[42.2108,66.41],[39.9513,65.5812],[40.3222,64.4629],[36.8839,65.0677],[37.7946,63.8319],[42.8606,61.4775],[43.1716,58.4047],[44.5121,58.4026],[49.1143,57.7153],[49.1029,57.7086],[53.9765,57.7086],[59.0437,56.4433]]]},"properties":{"NAME":"Permians","SUBJECTO":"Permians","PARTOF":"Finno-Ugric taiga hunter-gatherers","BORDERPRECISION":1,"LINK":null}},
{"type":"Feature","geometry":{"type":"Polygon","coordinates":[[[29.2161,65.4841],[30.7966,61.7506],[32.5811,61.0364],[35.0369,61.5206],[33.944,62.5005],[35.1146,62.0536],[34.4895,62.9036],[35.733,62.5231],[36.6808,63.8602],[34.8846,64.3668],[34.7256,65.615],[29.2161,65.4841]]]},"properties":{"NAME":"Karelians","SUBJECTO":"Karelians","PARTOF":"Finno-Ugric taiga hunter-gatherers","BORDERPRECISION":1,"LINK":null}},
{"type":"Feature","geometry":{"type":"Polygon","coordinates":[[[35.209,60.2936],[43.1716,58.4047],[42.8606,61.4775],[37.7946,63.8319],[36.6808,63.8602],[35.733,62.5231],[36.4279,61.3731],[35.6653,60.9134],[35.209,60.2936]]]},"properties":{"NAME":"Veps","SUBJECTO":"Veps","PARTOF":"Finno-Ugric taiga hunter-gatherers","BORDERPRECISION":1,"LINK":null}},
{"type":"Feature","geometry":{"type":"Polygon","coordinates":[[[12.2879,59.2373],[14.9785,67.5228],[11.3641,64.416],[5.1011,61.6986],[5.0962,60.2641],[6.1854,59.8243],[5.0866,59.5092],[6.2375,59.2837],[5.6155,58.4552],[8.0302,58.066],[9.7075,58.9968],[9.6072,59.893],[10.6201,60.1022],[11.8753,59.904],[12.2516,59.0318],[12.2879,59.2373]]]},"properties":{"NAME":"Northmen","SUBJECTO":"Northmen","PARTOF":"Northmen","BORDERPRECISION":1,"LINK":null}},
{"type":"Feature","geometry":{"type":"Polygon","coordinates":[[[14.0764,42.6338],[13.074,43.768],[12.6404,41.532],[13.7605,41.2067],[14.0764,42.6338]]]},"properties":{"NAME":"Carolingian Empire","SUBJECTO":"Carolingian Empire","PARTOF":"Carolingian Empire","BORDERPRECISION":1,"LINK":null}},
{"type":"Feature","geometry":{"type":"Polygon","coordinates":[[[11.7914,42.1419],[12.6404,41.532],[13.074,43.768],[12.317,45.1152],[11.6661,44.9072],[11.7914,42.1419]]]},"properties":{"NAME":"Papal States","SUBJECTO":"Papal States","PARTOF":"Papal States","BORDERPRECISION":1,"LINK":null}},
{"type":"Feature","geometry":{"type":"Polygon","coordinates":[[[85.3791,19.6054],[86.6324,20.2036],[86.8187,21.1865],[88.053,21.9387],[88.8809,21.5149],[90,21.9303],[90,22.561],[91.4102,22.7208],[91.6518,22.3569],[93.4131,24.2463],[91.5807,27.1699],[87.8678,27.0179],[87.1871,25.1054],[85.0978,25.8013],[84.0412,24.8328],[83.9848,24.781],[84.8195,23.8535],[84.9032,22.8498],[84.9123,22.7405],[84.7268,20.8855],[85.3791,19.6054]]]},"properties":{"NAME":"Palas","SUBJECTO":"Palas","PARTOF":"Palas","BORDERPRECISION":1,"LINK":null}},
{"type":"Feature","geometry":{"type":"Polygon","coordinates":[[[79.2465,27.8119],[79.8537,27.9704],[79.1482,28.3367],[77.0601,29.4208],[72.6277,28.3666],[74.1174,26.5443],[76.1052,26.9986],[76.3091,27.0451],[78.5513,27.6304],[79.0478,27.76],[79.2465,27.8119]]]},"properties":{"NAME":"Chauhans","SUBJECTO":"Chauhans","PARTOF":"Chauhans","BORDERPRECISION":1,"LINK":null}}
]}