{"type":"FeatureCollection", "features": [
{"type":"Feature","geometry":{"type":"Polygon","coordinates":[[[34.4121,20.5362],[33.3453,23.354],[32.6053,22.8158],[31.0579,22.6813],[29.8468,20.1247],[29.5104,17.4335],[29.8468,15.3479],[31.7979,12.5222],[34.2156,12.554],[35.7178,13.2216],[35.9692,15.4825],[34.5513,20.1833],[34.4121,20.5362]]]},"properties":{"NAME":"Meroe","SUBJECTO":"Meroe","PARTOF":"Meroe","BORDERPRECISION":1,"LINK":null}},
{"type":"Feature","geometry":{"type":"Polygon","coordinates":[[[79.6371,21.3523],[79.6371,22.4866],[78.6773,23.5337],[79.4626,23.9699],[79.4626,24.8425],[76.0596,26.5876],[75.4488,28.3327],[76.0463,33.5096],[74.7508,33.6553],[74.14,32.6083],[70.2875,31.2877],[67.3873,28.2264],[66.4323,25.4886],[67.3159,24.0929],[68.7908,23.0287],[70.3806,22.8606],[69.9685,22.3515],[68.8942,22.2857],[70.4675,20.777],[71.8944,20.9897],[72.233,22.0196],[72.6956,22.1285],[73.0322,18.2157],[79.6371,21.3523]]]},"properties":{"NAME":"Saka Kingdom","SUBJECTO":"Saka Kingdom","PARTOF":"Saka Kingdom","BORDERPRECISION":1,"LINK":null}},
{"type":"Feature","geometry":{"type":"Polygon","coordinates":[[[73.0322,18.2157],[74.7776,13.5279],[77.6302,12.9757],[80.3199,13.3332],[80.3002,15.6457],[82.0814,16.4627],[84.7535,19.028],[80.6842,19.3454],[80.6171,21.0167],[79.6371,21.3523],[73.0322,18.2157]]]},"properties":{"NAME":"Satavahanihara","SUBJECTO":"Satavahanihara","PARTOF":"Satavahanihara","BORDERPRECISION":1,"LINK":null}},
{"type":"Feature","geometry":{"type":"Polygon","coordinates":[[[49.7129,14.7733],[51.9504,15.5405],[52.8943,16.61],[54.7561,16.9507],[53.0344,17.7912],[48.9973,17.6066],[49.7129,14.7733]]]},"properties":{"NAME":"Hadramaut","SUBJECTO":"Hadramaut","PARTOF":"Hadramaut","BORDERPRECISION":1,"LINK":null}},
{"type":"Feature","geometry":{"type":"Polygon","coordinates":[[[48.9973,17.6066],[45.4329,17.7748],[43.7947,18.6598],[40.9828,22.3993],[40.372,22.7484],[39.0556,22.5719],[39.1667,21.2188],[40.6938,19.8687],[42.7637,16.6455],[43.5601,12.8603],[44.4405,12.6398],[49.7129,14.7733],[48.9973,17.6066]]]},"properties":{"NAME":"Himyarite Kingdom","SUBJECTO":"Himyarite Kingdom","PARTOF":"Himyarite Kingdom","BORDERPRECISION":1,"LINK":null}},
{"type":"Feature","geometry":{"type":"Polygon","coordinates":[[[41.6805,41.7933],[41.436,39.6689],[42.6808,37.6708],[43.9956,37.6239],[44.5511,38.8538],[47.8045,39.2903],[49.0201,39.0064],[49.669,40.2403],[47.0109,41.3931],[41.6805,41.7933]]]},"properties":{"NAME":"Armenia","SUBJECTO":"Armenia","PARTOF":"Armenia","BORDERPRECISION":1,"LINK":null}},
{"type":"Feature","geometry":{"type":"Polygon","coordinates":[[[79.6371,21.3523],[80.6171,21.0167],[80.9459,21.7013],[82.2548,21.9631],[83.0401,22.7484],[83.8254,25.8896],[84.6107,26.1513],[86.094,24.9298],[86.8187,21.1865],[88.053,21.9387],[88.2996,21.5518],[88.5676,21.8954],[88.8809,21.5149],[89.6702,21.7198],[89.8697,22.1332],[90.2746,21.7783],[90.5641,22.9795],[91.5711,22.5433],[92.0413,23.115],[93.4235,25.017],[93.7725,26.5004],[93.0745,26.8494],[89.7588,25.9768],[86.1813,26.4131],[82.8656,27.8965],[79.1136,31.0377],[77.1979,33.284],[76.0463,33.5096],[75.4488,28.3327],[76.0596,26.5876],[79.4626,24.8425],[79.4626,23.9699],[78.6773,23.5337],[79.6371,22.4866],[79.6371,21.3523]]]},"properties":{"NAME":"Hindu kingdoms","SUBJECTO":"Hindu kingdoms","PARTOF":"Hindu kingdoms","BORDERPRECISION":1,"LINK":null}},
{"type":"Feature","geometry":{"type":"Polygon","coordinates":[[[109.5503,19.9136],[108.5605,19.0603],[108.6519,18.4824],[109.4297,18.0966],[110.8854,19.7068],[109.5503,19.9136]]]},"properties":{"NAME":"Hainan","SUBJECTO":"Hainan","PARTOF":"Hainan","BORDERPRECISION":1,"LINK":null}},
{"type":"Feature","geometry":{"type":"Polygon","coordinates":[[[79.7242,8.4166],[80.2222,6.058],[81.2027,6.0792],[81.8049,7.3132],[80.1096,9.6866],[79.7242,8.4166]]]},"properties":{"NAME":"Simhala","SUBJECTO":"Simhala","PARTOF":"Simhala","BORDERPRECISION":1,"LINK":null}},
{"type":"Feature","geometry":{"type":"Polygon","coordinates":[[[-92.0979,18.7596],[-92.9379,18.5862],[-93.5879,15.7411],[-91.5157,14.0589],[-90.105,13.753],[-88.2429,14.8358],[-87.5706,15.908],[-88.9408,16.0334],[-88.2834,16.8347],[-88.3114,18.7415],[-87.8771,18.3809],[-87.8582,19.5823],[-86.9216,21.3006],[-88.3337,21.59],[-90.2775,21.1414],[-91.479,18.6338],[-92.0979,18.7596]]]},"properties":{"NAME":"Maya chiefdoms and states","SUBJECTO":"Maya chiefdoms and states","PARTOF":"Maya chiefdoms and states","BORDERPRECISION":1,"LINK":null}},
{"type":"Feature","geometry":{"type":"Polygon","coordinates":[[[-57.8601,49.9879],[-57.8142,49.2015],[-58.6805,48.7026],[-58.1395,48.5991],[-59.1566,47.6701],[-54.7826,47.7112],[-55.9039,47.064],[-55.4079,46.9479],[-54.2114,47.8036],[-54.0824,46.9895],[-53.0696,46.7313],[-52.7352,47.5457],[-53.8817,48.1893],[-53.1239,48.5958],[-54.1296,48.8357],[-53.5091,49.2819],[-55.1073,49.2788],[-56.0671,50.1033],[-56.7326,49.6884],[-55.4716,51.5245],[-56.7015,51.1845],[-57.8601,49.9879]]]},"properties":{"NAME":"Paleo-Inuit","SUBJECTO":"Paleo-Inuit","PARTOF":"Paleo-Inuit","BORDERPRECISION":1,"LINK":null}},
{"type":"Feature","geometry":{"type":"Polygon","coordinates":[[[-3.1889,51.1787],[-4.281,51.1872],[-5.7778,50.1341],[-3.715,50.2193],[-3.1889,51.1787]]]},"properties":{"NAME":"Dumonii","SUBJECTO":"Dumonii","PARTOF":"Dumonii","BORDERPRECISION":1,"LINK":null}},
{"type":"Feature","geometry":{"type":"Polygon","coordinates":[[[-76.6487,-12.8423],[-75.9894,-12.1943],[-76.358,-10.9657],[-79.6139,-5.4983],[-80.3511,-5.314],[-81.297,-6.0409],[-80.0659,-6.7563],[-79.0602,-8.2155],[-76.6487,-12.8423]]]},"properties":{"NAME":"Moche","SUBJECTO":"Moche","PARTOF":"Moche","BORDERPRECISION":1,"LINK":null}},
{"type":"Feature","geometry":{"type":"Polygon","coordinates":[[[-97.6855,16.3931],[-95.5014,16.5318],[-95.4321,17.4332],[-97.0615,18.0572],[-99.2109,17.7105],[-99.0158,16.8237],[-97.6855,16.3931]]]},"properties":{"NAME":"Monte Albán","SUBJECTO":"Monte Albán","PARTOF":"Monte Albán","BORDERPRECISION":1,"LINK":null}},
{"type":"Feature","geometry":{"type":"Polygon","coordinates":[[[39.7964,15.0888],[39.5179,15.463],[38.305,15.0577],[37.8877,13.5555],[39.5569,13.0547],[42.4084,13.1755],[39.8979,15.502],[39.7964,15.0888]]]},"properties":{"NAME":"Axum","SUBJECTO":"Axum","PARTOF":"Axum","BORDERPRECISION":1,"LINK":null}},
{"type":"Feature","geometry":{"type":"Polygon","coordinates":[[[74.7508,33.6553],[73.0929,34.6151],[70.5625,34.8769],[62.7967,34.6151],[59.5683,27.2857],[59.3021,25.3402],[61.344,25.0269],[66.4323,25.4886],[67.3873,28.2264],[70.2875,31.2877],[74.14,32.6083],[74.7508,33.6553]]]},"properties":{"NAME":"Suren Kingdom","SUBJECTO":"Suren Kingdom","PARTOF":"Suren Kingdom","BORDERPRECISION":1,"LINK":null}},
{"type":"Feature","geometry":{"type":"Polygon","coordinates":[[[25.2646,43.8209],[25.7092,43.9255],[25.5697,45.6432],[27.0935,46.0541],[27.3393,46.9003],[25.1273,47.7003],[22.8662,47.2685],[21.7343,44.8452],[22.9546,44.6525],[23.1394,43.9133],[25.2646,43.8209]]]},"properties":{"NAME":"Dacia","SUBJECTO":"Dacia","PARTOF":"Dacia","BORDERPRECISION":1,"LINK":null}},
{"type":"Feature","geometry":{"type":"Polygon","coordinates":[[[84.7535,19.028],[86.6324,20.2036],[86.8187,21.1865],[86.094,24.9298],[84.6107,26.1513],[83.8254,25.8896],[83.0401,22.7484],[82.2548,21.9631],[80.9459,21.7013],[80.6171,21.0167],[80.6842,19.3454],[84.7535,19.028]]]},"properties":{"NAME":"Kalinga","SUBJECTO":"Kalinga","PARTOF":"Kalinga","BORDERPRECISION":1,"LINK":null}},
{"type":"Feature","geometry":{"type":"Polygon","coordinates":[[[74.7776,13.5279],[76.7035,8.7064],[77.4195,8.028],[79.1596,9.2772],[79.2225,10.1922],[79.7899,10.2506],[80.3199,13.3332],[77.6302,12.9757],[74.7776,13.5279]]]},"properties":{"NAME":"Hindu kingdoms","SUBJECTO":"Hindu kingdoms","PARTOF":"Hindu kingdoms","BORDERPRECISION":1,"LINK":null}},
{"type":"Feature","geometry":{"type":"Polygon","coordinates":[[[-101.0088,20.2772],[-99.9089,19.027],[-98.6215,19.2062],[-98.4828,19.8021],[-99.1069,20.5863],[-100.4936,20.8999],[-101.0088,20.2772]]]},"properties":{"NAME":"Teotihuacán","SUBJECTO":"Teotihuacán","PARTOF":"Teotihuacán","BORDERPRECISION":1,"LINK":null}},
{"type":"Feature","geometry":{"type":"Polygon","coordinates":[[[17.8032,47.1015],[18.9056,47.4409],[19.4253,47.601],[18.9829,49.8698],[17.8523,50.4367],[16.476,49.5839],[16.0788,48.4267],[15.8861,47.8655],[17.8032,47.1015]]]},"properties":{"NAME":"Boihaenum","SUBJECTO":"Boihaenum","PARTOF":"Boihaenum","BORDERPRECISION":1,"LINK":null}},
{"type":"Feature","geometry":{"type":"MultiPolygon","coordinates":[[[[34.762,45.1688],[33.5311,45.0602],[33.3955,44.6005],[36.521,45.3883],[34.762,45.1688]]],[[[38.594,44.7563],[37.6827,45.4567],[36.9599,45.2274],[38.277,44.4232],[38.594,44.7563]]]]},"properties":{"NAME":"Bosporian Kingdom","SUBJECTO":"Roman Empire","PARTOF":"Bosporian Kingdom","BORDERPRECISION":1,"LINK":null}},
{"type":"Feature","geometry":{"type":"Polygon","coordinates":[[[42.6808,37.6708],[42.2165,35.368],[39.9561,35.7566],[38.3757,33.5316],[47.614,29.2722],[47.9572,29.9476],[49.2222,30.4775],[49.3214,30.1029],[50.1324,30.0664],[51.3501,28.0361],[52.8908,27.0523],[54.6461,26.3913],[55.4249,26.9631],[56.6678,27.0499],[57.2548,25.7933],[59.3021,25.3402],[59.5683,27.2857],[62.7967,34.6151],[60.9644,37.3201],[57.3017,38.0847],[53.7997,36.679],[51.417,36.4557],[48.8372,37.511],[49.0201,39.0064],[47.8045,39.2903],[44.5511,38.8538],[43.9956,37.6239],[42.6808,37.6708]]]},"properties":{"NAME":"Parthian Empire","SUBJECTO":"Parthian Empire","PARTOF":"Parthian Empire","BORDERPRECISION":1,"LINK":null}},
{"type":"Feature","geometry":{"type":"Polygon","coordinates":[[[27.898,43.0873],[24.081,42.2035],[25.236,40.9103],[26.5565,40.4983],[26.1409,40.0447],[27.4742,40.9628],[28.9645,40.9892],[27.4947,42.4009],[27.898,43.0873]]]},"properties":{"NAME":"Odrysian Kingdom","SUBJECTO":"Roman Empire","PARTOF":"Odrysian Kingdom","BORDERPRECISION":1,"LINK":null}},
{"type":"Feature","geometry":{"type":"Polygon","coordinates":[[[34.2904,31.3574],[36.8178,30.3433],[37.574,32.0326],[38.1278,33.1826],[37.1575,33.3554],[35.8621,31.6255],[34.6669,32.006],[34.2904,31.3574]]]},"properties":{"NAME":"Judea","SUBJECTO":"Roman Empire","PARTOF":"Judea","BORDERPRECISION":1,"LINK":null}},
{"type":"Feature","geometry":{"type":"MultiPolygon","coordinates":[[[[33.3453,23.354],[33.6572,24.018],[35.1899,24.3999],[32.6493,28.7658],[32.4911,29.7948],[32.3698,31.0588],[30.996,31.4689],[28.9664,30.7848],[25.2582,31.4379],[21.6734,32.8156],[20.0684,32.0371],[19.9815,30.7217],[18.915,30.2049],[15.8433,31.285],[15.0098,32.3634],[12.5648,32.7396],[10.4126,33.6311],[10.0195,34.0815],[11.1251,35.2406],[10.5115,36.0862],[11.0238,37.0683],[10.3928,36.7166],[9.7322,37.2824],[7.9132,36.7752],[6.3229,37.0906],[5.3827,36.6745],[1.0576,36.4619],[-2.0353,35.0546],[-3.009,35.39],[-4.593,35.1512],[-5.565,35.8623],[-7.004,33.875],[-8.6403,33.1217],[7.9859,35.5049],[8.6327,34.0265],[9.8339,32.9178],[18.6118,29.4066],[22.3078,29.961],[28.4062,27.7434],[31.0579,22.6813],[32.6053,22.8158],[33.3453,23.354]]],[[[41.6805,41.7933],[40.361,40.9634],[38.314,40.9209],[36.3829,41.2375],[35.0019,42.0432],[33.1555,41.9496],[31.2177,41.0541],[29.1612,41.2164],[29.8827,40.7464],[28.9016,40.6201],[29.0524,40.3347],[27.0561,40.4297],[26.186,39.9972],[26.0641,39.4555],[26.9575,39.5483],[26.9974,38.4001],[26.3932,38.1044],[27.1398,37.8891],[27.3081,36.9207],[29.0657,37.0787],[29.4719,36.0907],[30.3949,36.118],[30.9053,36.7942],[32.9041,35.9767],[34.4851,36.6268],[36.0824,36.6215],[35.6649,36.1335],[35.8731,34.4223],[34.6669,32.006],[35.8621,31.6255],[37.1575,33.3554],[38.1278,33.1826],[38.3757,33.5316],[39.9561,35.7566],[42.2165,35.368],[42.6808,37.6708],[41.436,39.6689],[41.6805,41.7933]]],[[[22.9546,44.6525],[20.3858,44.7976],[20.167,45.2809],[18.8643,45.5816],[18.9056,47.4409],[17.8032,47.1015],[15.8861,47.8655],[16.0788,48.4267],[14.7556,48.1871],[12.3038,49.1005],[12.1952,50.3715],[13.8783,50.8196],[8.8559,53.7508],[8.175,53.3217],[7.1656,53.5917],[7.1599,53.164],[5.9663,53.335],[5.3321,53.0114],[5.7569,52.3337],[4.9498,52.2779],[4.7188,52.8024],[3.775,51.3877],[1.5889,50.8219],[0.3308,49.455],[-1.1771,49.3325],[-1.9413,49.7093],[-1.4566,48.6836],[-4.762,48.552],[-4.6754,48.0169],[-2.6137,47.5722],[-1.166,46.1837],[-0.7285,45.0186],[-1.1752,45.5005],[-1.7461,43.3602],[-7.9795,43.7401],[-9.1975,43.1582],[-8.6941,40.9922],[-9.549,38.7745],[-9.0408,38.9202],[-9.2366,38.4174],[-8.7889,38.436],[-8.9908,36.99],[-6.948,37.1493],[-5.6606,36.008],[-4.4466,36.722],[-2.2388,36.7284],[0.1726,38.7383],[-0.3948,39.4345],[0.8792,41.0217],[3.1289,41.8572],[3.4787,43.3121],[6.523,43.1509],[8.8966,44.4372],[9.9093,44.1105],[10.7428,42.8505],[12.6415,41.5311],[15.6662,40.0919],[16.2122,38.778],[15.6275,38.0042],[16.0529,37.9312],[17.1807,39.0222],[16.5321,39.6975],[16.9487,40.4811],[18.3649,39.7467],[18.5226,40.0941],[15.991,41.4061],[16.1874,41.8409],[14.7385,42.0472],[12.6972,43.9348],[12.1804,45.2703],[13.1562,45.7265],[13.8,45.5664],[13.8951,44.7592],[14.3545,45.3229],[14.8154,45.0779],[16.0594,43.4335],[19.607,41.7615],[19.3691,40.2603],[21.1595,39.0048],[20.7718,38.8509],[21.1724,38.3478],[23.1163,38.1574],[21.2284,37.9049],[22.3903,36.5244],[22.9826,36.6148],[22.6423,37.5849],[23.4181,37.4693],[22.8981,37.9],[23.9873,37.7634],[23.8039,38.3465],[22.4905,38.8769],[22.8509,39.3661],[23.2361,39.2032],[22.4921,40.4983],[23.5969,39.9341],[23.2918,40.2873],[24.2954,40.1765],[23.6347,40.7728],[25.236,40.9103],[24.081,42.2035],[27.898,43.0873],[29.6159,45.4102],[28.2214,45.4841],[28.0366,44.3753],[25.2646,43.8209],[23.1394,43.9133],[22.9546,44.6525]]],[[[15.2206,37.0004],[15.3867,38.2055],[12.5166,37.9192],[14.622,36.7761],[15.2206,37.0004]]],[[[26.2427,35.1449],[23.6967,35.6981],[23.4669,35.3179],[24.6935,34.9405],[26.2427,35.1449]]],[[[32.271,34.8142],[32.9145,34.5413],[34.4582,35.6446],[32.7951,35.3606],[32.271,34.8142]]],[[[8.7269,41.5606],[9.3045,41.5753],[9.3671,42.9881],[8.5004,42.3598],[8.7269,41.5606]]],[[[9.2963,39.2331],[9.7937,40.5637],[9.3062,41.1844],[8.1595,40.7847],[8.4172,39.2122],[9.2963,39.2331]]],[[[24.588,38.1529],[23.2424,39.0441],[22.8699,38.8372],[24.588,38.1529]]]]},"properties":{"NAME":"Roman Empire","SUBJECTO":"Roman Empire","PARTOF":"Roman Empire","BORDERPRECISION":1,"LINK":null}},
{"type":"Feature","geometry":{"type":"Polygon","coordinates":[[[101.3638,40.6358],[103.3707,40.2868],[103.8069,39.5015],[105.2903,39.5015],[106.3374,42.0319],[106.9481,42.3809],[109.083,42.1177],[113.3178,41.5956],[120.4728,41.6829],[121.3453,42.5554],[122.3052,42.7299],[123.265,41.8574],[125.3803,42.5625],[126.6679,42.9917],[131.0843,46.1951],[128.2343,47.0812],[126.6705,51.2745],[119.3581,51.8662],[106.6699,52.8928],[95.8241,51.1777],[85.4139,48.3591],[76.6278,48.4094],[77.6155,45.5464],[92.3485,44.4992],[95.0814,40.8103],[98.2226,41.5083],[98.7461,41.4211],[98.4843,39.8505],[100.5785,39.5887],[100.8402,40.374],[101.3638,40.6358]]]},"properties":{"NAME":"Xiongnu","SUBJECTO":"Xiongnu","PARTOF":"Xiongnu","BORDERPRECISION":1,"LINK":null}},
{"type":"Feature","geometry":{"type":"Polygon","coordinates":[[[34.5513,20.1833],[37.1357,21.1281],[35.1899,24.3999],[33.6572,24.018],[33.3453,23.354],[34.4121,20.5362],[34.5513,20.1833]]]},"properties":{"NAME":"Blemmyes","SUBJECTO":"Blemmyes","PARTOF":"Blemmyes","BORDERPRECISION":1,"LINK":null}},
{"type":"Feature","geometry":{"type":"Polygon","coordinates":[[[-88.0729,35.1097],[-89.4482,35.4742],[-90.6217,34.1709],[-89.6553,33.3963],[-88.3782,33.1944],[-88.0729,35.1097]]]},"properties":{"NAME":"Miller","SUBJECTO":"Miller","PARTOF":"Miller","BORDERPRECISION":1,"LINK":null}},
{"type":"Feature","geometry":{"type":"MultiPolygon","coordinates":[[[[-96.2289,54.3833],[-97.0909,55.0654],[-101.0495,54.6243],[-101.5603,53.8971],[-101.2092,53.2717],[-98.7191,52.2283],[-97.1548,50.413],[-96.9313,48.5465],[-93.6431,47.1324],[-91.2022,47.3345],[-88.1618,48.9875],[-89.9398,49.0303],[-91.4403,49.6336],[-90.706,50.2704],[-91.153,50.6362],[-93.9942,50.6362],[-95.2712,51.1197],[-96.197,52.3844],[-95.2712,53.8594],[-96.2289,54.3833]]],[[[-83.4911,47.4572],[-84.385,48.3347],[-87.9916,48.9834],[-84.8935,47.8599],[-84.4922,46.475],[-88.4838,46.81],[-87.8812,47.4617],[-89.2945,46.8874],[-87.6732,46.4549],[-87.197,45.5676],[-84.8177,45.882],[-85.5384,44.7515],[-85.5434,45.2118],[-86.072,44.8652],[-85.7897,44.5306],[-84.1724,45.5889],[-84.6328,46.0289],[-83.0879,46.1852],[-83.4911,47.4572]]]]},"properties":{"NAME":"Laurel complex","SUBJECTO":"Laurel complex","PARTOF":"Laurel complex","BORDERPRECISION":1,"LINK":null}},
{"type":"Feature","geometry":{"type":"Polygon","coordinates":[[[-88.3782,33.1944],[-88.5391,32.8223],[-86.9938,32.8223],[-85.8486,34.4306],[-86.3039,34.9299],[-88.0729,35.1097],[-88.3782,33.1944]]]},"properties":{"NAME":"Copena","SUBJECTO":"Copena","PARTOF":"Copena","BORDERPRECISION":1,"LINK":null}},
{"type":"Feature","geometry":{"type":"Polygon","coordinates":[[[-88.5391,32.8223],[-89.3475,32.6165],[-89.67,31.7848],[-89.1939,30.9587],[-88.1649,30.9982],[-87.7746,30.2628],[-87.0891,30.359],[-86.9938,32.8223],[-88.5391,32.8223]]]},"properties":{"NAME":"Porter","SUBJECTO":"Porter","PARTOF":"Porter","BORDERPRECISION":1,"LINK":null}},
{"type":"Feature","geometry":{"type":"Polygon","coordinates":[[[-83.7441,43.6207],[-84.7731,43.3828],[-85.3346,43.9919],[-86.4534,44.1299],[-86.2301,42.6166],[-87.3751,41.6344],[-87.192,40.705],[-86.5225,40.7378],[-85.7018,41.6962],[-84.7383,41.7239],[-83.7441,43.6207]]]},"properties":{"NAME":"Goodall Focus","SUBJECTO":"Goodall Focus","PARTOF":"Goodall Focus","BORDERPRECISION":1,"LINK":null}},
{"type":"Feature","geometry":{"type":"Polygon","coordinates":[[[-80.0534,43.8084],[-81.698,45.2461],[-81.297,44.7131],[-82.1656,43.084],[-81.8586,42.2641],[-79.637,42.8531],[-80.0534,43.8084]]]},"properties":{"NAME":"Saugeen Complex","SUBJECTO":"Saugeen Complex","PARTOF":"Saugeen Complex","BORDERPRECISION":1,"LINK":null}},
{"type":"Feature","geometry":{"type":"Polygon","coordinates":[[[-84.7383,41.7239],[-83.6443,40.6013],[-81.9576,41.1531],[-81.9452,41.5088],[-83.4428,41.7022],[-82.4689,41.9911],[-82.7481,43.962],[-83.7441,43.6207],[-84.7383,41.7239]]]},"properties":{"NAME":"Couture Complex","SUBJECTO":"Couture Complex","PARTOF":"Couture Complex","BORDERPRECISION":1,"LINK":null}},
{"type":"Feature","geometry":{"type":"Polygon","coordinates":[[[-72.7989,47.5565],[-74.1904,47.9657],[-80.2996,45.9479],[-79.8213,43.8695],[-77.1754,43.8433],[-76.8808,44.0927],[-77.5398,44.0906],[-76.017,44.3359],[-76.1812,43.6126],[-74.5817,43.8225],[-73.0816,44.7562],[-70.5596,45.3093],[-70.364,46.8772],[-72.7989,47.5565]]]},"properties":{"NAME":"Point Peninsula","SUBJECTO":"Point Peninsula","PARTOF":"Point Peninsula","BORDERPRECISION":1,"LINK":null}},
{"type":"Feature","geometry":{"type":"Polygon","coordinates":[[[-75.5642,-12.8732],[-76.2418,-14.1056],[-74.3834,-15.8232],[-73.8897,-14.855],[-75.5642,-12.8732]]]},"properties":{"NAME":"Nazca","SUBJECTO":"Nazca","PARTOF":"Nazca","BORDERPRECISION":1,"LINK":null}},
{"type":"Feature","geometry":{"type":"Polygon","coordinates":[[[126.849,36.9649],[126.1236,36.7092],[126.873,36.0547],[126.2492,35.1167],[126.5564,34.3005],[129.4394,35.4758],[128.8942,37.8369],[126.849,36.9649]]]},"properties":{"NAME":"Silla","SUBJECTO":"Silla","PARTOF":null,"BORDERPRECISION":1,"LINK":null}},
{"type":"Feature","geometry":{"type":"Polygon","coordinates":[[[54.7561,16.9507],[55.5611,17.9372],[57.8386,19.0348],[57.9313,20.4009],[58.512,20.4212],[59.8373,22.2792],[58.6285,23.4583],[56.7942,24.2676],[56.1613,25.4733],[56.3671,26.2361],[54.7242,24.6275],[56.1148,21.6496],[53.0344,17.7912],[54.7561,16.9507]]]},"properties":{"NAME":"Mascat","SUBJECTO":"Mascat","PARTOF":"Mascat","BORDERPRECISION":1,"LINK":null}},
{"type":"Feature","geometry":{"type":"Polygon","coordinates":[[[21.8631,57.5967],[21.07,56.8458],[21.1725,54.919],[21.9796,54.9915],[22.8161,56.1438],[21.8631,57.5967]]]},"properties":{"NAME":"Curonians","SUBJECTO":"Curonians","PARTOF":"Baltic archeological cultures","BORDERPRECISION":1,"LINK":null}},
{"type":"Feature","geometry":{"type":"Polygon","coordinates":[[[91.5711,22.5433],[92.1763,20.8866],[92.9261,20.3489],[92.9018,21.6087],[92.0413,23.115],[91.5711,22.5433]]]},"properties":{"NAME":"Arakan","SUBJECTO":"Arakan","PARTOF":"Arakan","BORDERPRECISION":1,"LINK":null}},
{"type":"Feature","geometry":{"type":"Polygon","coordinates":[[[34.2904,31.3574],[32.3698,31.0588],[32.4911,29.7948],[34.2412,27.7589],[35.0734,29.4189],[34.7639,28.0967],[36.1435,26.6585],[38.5145,30.883],[37.574,32.0326],[36.8178,30.3433],[34.2904,31.3574]]]},"properties":{"NAME":"Nabatean Kingdom","SUBJECTO":"Nabatean Kingdom","PARTOF":"Nabatean Kingdom","BORDERPRECISION":1,"LINK":null}},
{"type":"Feature","geometry":{"type":"Polygon","coordinates":[[[95.0814,40.8103],[94.7323,40.025],[100.8402,37.1456],[100.2295,35.575],[103.5452,34.7897],[103.8942,31.6485],[102.6726,31.7357],[99.7524,27.4708],[100.4148,25.0859],[102.0112,24.6807],[102.3837,24.01],[103.5671,19.602],[104.3811,18.328],[106.3938,17.6645],[105.5326,18.8442],[106.807,20.905],[108.555,21.8234],[109.7798,21.483],[109.7116,20.5682],[110.2713,20.3153],[110.2388,21.2807],[112.7495,21.7561],[113.4626,22.7739],[113.8452,22.4634],[115.7067,22.6389],[118.8129,24.8494],[119.4286,25.6509],[119.4289,26.5908],[121.2597,28.1823],[121.7744,29.7645],[121.0825,30.2138],[119.9437,30.1162],[121.5689,30.7101],[121.2683,31.4523],[121.645,31.688],[119.0032,34.9395],[119.9138,36.1434],[122.2556,36.7337],[122.3929,37.3006],[120.6581,37.7365],[118.9546,37.0771],[118.8752,37.9494],[117.4395,38.6028],[117.7529,39.2025],[118.9776,39.2241],[121.0106,40.8507],[122.1079,40.3537],[121.0653,38.7503],[123.0391,39.6722],[124.4428,39.573],[125.3803,42.5625],[123.265,41.8574],[122.3052,42.7299],[121.3453,42.5554],[120.4728,41.6829],[113.3178,41.5956],[109.083,42.1177],[106.9481,42.3809],[106.3374,42.0319],[105.2903,39.5015],[103.8069,39.5015],[103.3707,40.2868],[101.3638,40.6358],[100.8402,40.374],[100.5785,39.5887],[98.4843,39.8505],[98.7461,41.4211],[98.2226,41.5083],[95.0814,40.8103]]]},"properties":{"NAME":"Han","SUBJECTO":"Han","PARTOF":"Han","BORDERPRECISION":1,"LINK":null}},
{"type":"Feature","geometry":{"type":"Polygon","coordinates":[[[125.3803,42.5625],[124.4428,39.573],[125.2961,39.3643],[124.7697,37.9359],[125.2694,37.4847],[126.6885,37.8339],[126.849,36.9649],[128.8942,37.8369],[127.2769,39.2217],[129.4778,40.682],[129.6413,41.6558],[126.6679,42.9917],[125.3803,42.5625]]]},"properties":{"NAME":"Koguryo","SUBJECTO":"Koguryo","PARTOF":"Koguryo","BORDERPRECISION":1,"LINK":null}}
]}