{"type":"FeatureCollection", "features": [
{"type":"Feature","geometry":{"type":"Polygon","coordinates":[[[43.0533,14.6065],[44.6947,15.5333],[45.4329,17.7748],[43.7947,18.6598],[41.6286,18.0472],[42.7637,16.6455],[43.0533,14.6065]]]},"properties":{"NAME":"Saba","SUBJECTO":"Saba","PARTOF":"Saba","BORDERPRECISION":1,"LINK":null}},
{"type":"Feature","geometry":{"type":"Polygon","coordinates":[[[32.648,29.8522],[33.5576,30.9677],[30.996,31.4689],[29.3594,30.8111],[30.94,25.9618],[31.0579,22.6813],[33.3453,23.354],[33.7373,24.4995],[32.648,29.8522]]]},"properties":{"NAME":"Egypt","SUBJECTO":"Egypt","PARTOF":"Egypt","BORDERPRECISION":1,"LINK":null}},
{"type":"Feature","geometry":{"type":"Polygon","coordinates":[[[49.0202,30.4326],[50.1324,30.0664],[51.3501,28.0361],[52.8908,27.0523],[54.6461,26.3913],[56.6678,27.0499],[57.2548,25.7933],[58.3687,25.5479],[59.7049,28.6064],[59.3321,29.5384],[54.2993,30.6569],[51.8761,32.3345],[49.4529,32.5209],[49.0202,30.4326]]]},"properties":{"NAME":"Elam","SUBJECTO":"Elam","PARTOF":"Elam","BORDERPRECISION":1,"LINK":null}},
{"type":"Feature","geometry":{"type":"Polygon","coordinates":[[[119.0209,34.6919],[119.9138,36.1434],[122.2556,36.7337],[122.3929,37.3006],[120.6581,37.7365],[118.9546,37.0771],[118.8752,37.9494],[117.4395,38.6028],[119.3855,39.8434],[116.9826,40.3506],[113.4765,39.994],[109.1978,36.0719],[104.3248,34.408],[104.5625,33.8731],[106.0482,34.2891],[105.2756,33.4572],[106.6424,32.5658],[104.6814,29.8322],[104.8002,28.0494],[106.4642,27.158],[109.6732,29.1785],[113.0605,28.8219],[113.833,29.119],[114.0113,30.6641],[116.6732,32.8044],[119.0209,34.6919]]]},"properties":{"NAME":"Zhoa","SUBJECTO":"Zhoa","PARTOF":"Zhoa","BORDERPRECISION":1,"LINK":null}},
{"type":"Feature","geometry":{"type":"Polygon","coordinates":[[[35.1323,33.2315],[33.7096,30.9957],[34.7643,29.2467],[35.0955,29.3427],[36.1836,30.3403],[37.4534,33.6205],[39.3791,35.0384],[39.2945,35.9695],[38.5115,36.1177],[38.4181,36.1488],[38.321,36.1811],[36.5645,35.7156],[35.1323,33.2315]]]},"properties":{"NAME":"Kingdom of David and Solomon","SUBJECTO":"Kingdom of David and Solomon","PARTOF":"Kingdom of David and Solomon","BORDERPRECISION":1,"LINK":null}},
{"type":"Feature","geometry":{"type":"Polygon","coordinates":[[[31.0579,22.6813],[29.8468,20.1247],[30.0458,17.0909],[32.8293,15.9286],[34.353,16.4365],[35.3899,17.7463],[33.3453,23.354],[31.0579,22.6813]]]},"properties":{"NAME":"Kush","SUBJECTO":"Kush","PARTOF":"Kush","BORDERPRECISION":1,"LINK":null}},
{"type":"Feature","geometry":{"type":"Polygon","coordinates":[[[45.3193,37.1534],[41.9738,37.6376],[40.7853,35.2166],[42.9422,33.3237],[43.9987,33.3678],[46.1116,34.6883],[45.3193,37.1534]]]},"properties":{"NAME":"Assyria","SUBJECTO":"Assyria","PARTOF":"Assyria","BORDERPRECISION":1,"LINK":null}},
{"type":"Feature","geometry":{"type":"Polygon","coordinates":[[[43.9987,33.3678],[44.3949,31.739],[48.0902,30.9961],[49.4529,32.5209],[46.1116,34.6883],[43.9987,33.3678]]]},"properties":{"NAME":"Babylonia","SUBJECTO":"Babylonia","PARTOF":"Babylonia","BORDERPRECISION":1,"LINK":null}},
{"type":"Feature","geometry":{"type":"Polygon","coordinates":[[[32.648,29.8522],[34.058,27.7903],[34.7643,29.2467],[33.7096,30.9957],[33.5576,30.9677],[32.648,29.8522]]]},"properties":{"NAME":"state societies and Aramaean kingdoms","SUBJECTO":"state societies and Aramaean kingdoms","PARTOF":"state societies and Aramaean kingdoms","BORDERPRECISION":1,"LINK":null}},
{"type":"Feature","geometry":{"type":"Polygon","coordinates":[[[-93.0238,18.5677],[-94.242,18.2402],[-95.8557,18.8055],[-96.3439,17.9377],[-95.3186,17.1556],[-93.1508,17.2396],[-92.5942,17.9934],[-93.0238,18.5677]]]},"properties":{"NAME":"Olmec","SUBJECTO":"Olmec","PARTOF":"Olmec","BORDERPRECISION":1,"LINK":null}},
{"type":"Feature","geometry":{"type":"Polygon","coordinates":[[[116.6732,32.8044],[118.8157,28.6709],[120.6732,27.8493],[121.7744,29.7645],[119.9437,30.1162],[121.5689,30.7101],[121.645,31.688],[119.0209,34.6919],[116.6732,32.8044]]]},"properties":{"NAME":"Wu","SUBJECTO":"Wu","PARTOF":"Wu","BORDERPRECISION":1,"LINK":null}},
{"type":"Feature","geometry":{"type":"Polygon","coordinates":[[[27.7292,36.9127],[29.662,36.0783],[30.5936,36.7617],[31.9987,40.0512],[35.6779,41.6209],[33.1555,41.9496],[27.5813,40.2948],[27.7292,36.9127]]]},"properties":{"NAME":"Phrygians","SUBJECTO":"Phrygians","PARTOF":"Phrygians","BORDERPRECISION":1,"LINK":null}},
{"type":"Feature","geometry":{"type":"Polygon","coordinates":[[[45.3193,37.1534],[48.9989,38.8787],[49.669,40.2403],[44.8256,40.7672],[41.6805,41.7933],[40.4588,40.9888],[41.1781,39.8972],[38.3528,36.7312],[38.8098,36.7667],[40.7745,36.9196],[41.9738,37.6376],[45.3193,37.1534]]]},"properties":{"NAME":"Urartu","SUBJECTO":"Urartu","PARTOF":"Urartu","BORDERPRECISION":1,"LINK":null}},
{"type":"Feature","geometry":{"type":"Polygon","coordinates":[[[38.4181,36.1488],[38.8098,36.7667],[38.3528,36.7312],[41.1781,39.8972],[40.4588,40.9888],[35.6779,41.6209],[31.9987,40.0512],[30.5936,36.7617],[33.1713,35.9709],[35.9568,36.7475],[35.1323,33.2315],[36.5645,35.7156],[38.321,36.1811],[38.4181,36.1488]]]},"properties":{"NAME":"Hittites","SUBJECTO":"Hittites","PARTOF":"Hittites","BORDERPRECISION":1,"LINK":null}},
{"type":"Feature","geometry":{"type":"Polygon","coordinates":[[[51.8761,32.3345],[54.7603,36.2576],[54.0674,36.9415],[50.561,36.6864],[48.8372,37.511],[48.9989,38.8787],[45.3193,37.1534],[46.1116,34.6883],[49.4529,32.5209],[51.8761,32.3345]]]},"properties":{"NAME":"state societies and Aramaean kingdoms","SUBJECTO":"state societies and Aramaean kingdoms","PARTOF":"state societies and Aramaean kingdoms","BORDERPRECISION":1,"LINK":null}},
{"type":"Feature","geometry":{"type":"Polygon","coordinates":[[[49.4529,32.5209],[48.0902,30.9961],[44.3949,31.739],[43.9987,33.3678],[42.9422,33.3237],[40.7853,35.2166],[41.9738,37.6376],[40.7745,36.9196],[38.8098,36.7667],[38.4181,36.1488],[38.5115,36.1177],[39.2945,35.9695],[39.3791,35.0384],[37.4534,33.6205],[36.1836,30.3403],[35.0955,29.3427],[42.9272,30.7796],[47.614,29.2722],[49.0202,30.4326],[49.4529,32.5209]]]},"properties":{"NAME":"Arameans","SUBJECTO":"Arameans","PARTOF":"Arameans","BORDERPRECISION":1,"LINK":null}},
{"type":"Feature","geometry":{"type":"Polygon","coordinates":[[[119.3855,39.8434],[121.7536,40.737],[121.2165,38.757],[126.2929,40.296],[128.3388,40.0166],[131.5091,43.1404],[130.4301,44.1909],[120.373,44.1909],[108.5333,39.7939],[105.3058,39.5618],[102.7312,34.9453],[104.4802,31.8],[104.0766,30.4757],[102.408,29.4073],[103.1348,26.1843],[105.6651,23.0431],[109.0547,23.9605],[118.8157,28.6709],[116.6732,32.8044],[114.0113,30.6641],[113.833,29.119],[113.0605,28.8219],[109.6732,29.1785],[106.4642,27.158],[104.8002,28.0494],[104.6814,29.8322],[106.6424,32.5658],[105.2756,33.4572],[106.0482,34.2891],[104.5625,33.8731],[104.3248,34.408],[109.1978,36.0719],[113.4765,39.994],[116.9826,40.3506],[119.3855,39.8434]]]},"properties":{"NAME":"Sinic","SUBJECTO":"Sinic","PARTOF":"Sinic","BORDERPRECISION":1,"LINK":null}},
{"type":"Feature","geometry":{"type":"MultiPolygon","coordinates":[[[[27.5813,40.2948],[26.7653,40.3769],[26.0641,39.4555],[26.9575,39.5483],[26.3932,38.1044],[27.7292,36.9127],[27.5813,40.2948]]],[[[24.0333,35.5985],[23.4669,35.3179],[26.2427,35.1449],[24.0333,35.5985]]],[[[24.2258,41.3144],[22.0395,41.2638],[19.9001,39.9298],[21.1724,38.3478],[23.1163,38.1574],[21.2284,37.9049],[22.3903,36.5244],[22.9826,36.6148],[22.6423,37.5849],[23.4181,37.4693],[22.8981,37.9],[23.9873,37.7634],[22.4905,38.8769],[23.2361,39.2032],[22.4921,40.4983],[24.2954,40.1765],[23.633,40.7132],[24.6204,40.876],[24.2258,41.3144]]]]},"properties":{"NAME":"Greek city-states","SUBJECTO":"Greek city-states","PARTOF":"Greek city-states","BORDERPRECISION":1,"LINK":null}}
]}