{"type":"FeatureCollection", "features": [
{"type":"Feature","geometry":{"type":"Polygon","coordinates":[[[80.5629,5.9317],[80.8518,5.9513],[81.2027,6.0792],[81.4339,6.2703],[81.5999,6.4486],[81.779,6.754],[81.8662,7.0846],[81.8049,7.3132],[81.446,7.9287],[81.3261,8.2589],[81.0601,8.4108],[81.0491,8.4743],[81.0934,8.6269],[81.0149,8.7728],[80.7676,9.1218],[80.6624,9.2995],[80.3476,9.4703],[80.1096,9.6866],[80.1781,9.4452],[80.0765,9.2791],[80.0526,9.1139],[79.896,8.9204],[79.7058,8.9309],[79.6746,8.8049],[79.8087,8.6475],[79.7242,8.4166],[79.8322,8.1031],[79.8407,7.6965],[79.8387,7.3534],[79.8541,7.0612],[80.0168,6.496],[80.1277,6.2167],[80.2222,6.058],[80.3411,5.9693],[80.5629,5.9317]]]},"properties":{"NAME":"Simhala","SUBJECTO":"Simhala","PARTOF":"Simhala","BORDERPRECISION":1,"LINK":null}},
{"type":"Feature","geometry":{"type":"Polygon","coordinates":[[[-100.4936,20.8999],[-101.0088,20.2772],[-100.755,19.5883],[-99.9089,19.027],[-99.1415,18.9239],[-98.6215,19.2062],[-98.4828,19.8021],[-99.1069,20.5863],[-99.8349,20.8999],[-100.4936,20.8999]]]},"properties":{"NAME":"Teotihuacán","SUBJECTO":"Teotihuacán","PARTOF":"Teotihuacán","BORDERPRECISION":1,"LINK":null}},
{"type":"Feature","geometry":{"type":"Polygon","coordinates":[[[-99.2109,17.7105],[-99.1762,17.2945],[-99.0158,16.8237],[-97.6855,16.3931],[-96.4375,16.2198],[-95.5014,16.5318],[-95.4321,17.4332],[-96.1879,17.8798],[-96.2059,17.8861],[-97.0615,18.0572],[-98.5869,17.9879],[-99.2109,17.7105]]]},"properties":{"NAME":"Monte Albán","SUBJECTO":"Monte Albán","PARTOF":"Monte Albán","BORDERPRECISION":1,"LINK":null}},
{"type":"Feature","geometry":{"type":"Polygon","coordinates":[[[-90.8962,19.7535],[-90.9348,19.3815],[-91.2197,19.1025],[-91.7025,18.8235],[-91.5256,18.7448],[-91.479,18.6338],[-91.611,18.5445],[-91.7297,18.4157],[-92.107,18.5159],[-92.0979,18.7596],[-92.4591,18.6889],[-92.9379,18.5862],[-93.144,16.9825],[-93.5879,15.7411],[-93.3305,15.5342],[-92.9005,15.1919],[-92.4721,14.7923],[-92.1554,14.5428],[-91.9247,14.3541],[-91.5157,14.0589],[-91.242,13.9516],[-90,13.9372],[-90,13.7978],[-90,13.7727],[-90,13.753],[-88.2429,14.8358],[-87.5706,15.908],[-87.8581,15.882],[-88.1335,15.7606],[-88.2739,15.7472],[-88.4802,15.9125],[-88.6313,15.9833],[-88.6014,15.8116],[-88.6643,15.7258],[-88.8043,15.8617],[-88.9408,15.9046],[-88.9408,16.0334],[-88.7661,16.1407],[-88.7418,16.2695],[-88.5798,16.2838],[-88.4445,16.4412],[-88.2834,16.8347],[-88.2419,17.0135],[-88.327,17.1566],[-88.2205,17.5143],[-88.3004,17.6354],[-88.1119,18.1939],[-88.1237,18.3871],[-88.3992,18.309],[-88.3205,18.4944],[-88.3114,18.7415],[-88.1377,18.8944],[-88.105,18.8245],[-88.0301,18.6213],[-87.8771,18.3809],[-87.8495,18.489],[-87.8004,18.7434],[-87.6822,19.2813],[-87.6371,19.5747],[-87.7886,19.5125],[-87.8582,19.5823],[-87.774,19.7414],[-87.6597,19.8751],[-87.6507,20.1899],[-87.5081,20.3902],[-87.3133,20.5815],[-87.07,20.8045],[-86.9359,20.9764],[-86.9002,21.1672],[-86.9216,21.3006],[-87.2006,21.5289],[-87.3709,21.5707],[-87.5969,21.4835],[-88.1094,21.5651],[-88.3337,21.59],[-88.6011,21.564],[-89.0581,21.3978],[-89.5475,21.2951],[-89.8628,21.2499],[-90.2037,21.1607],[-90.2775,21.1414],[-90.5588,20.9912],[-90.6428,20.7599],[-90.7148,20.1613],[-90.6724,19.9467],[-90.8962,19.7535]]]},"properties":{"NAME":"Maya chiefdoms and states","SUBJECTO":"Maya chiefdoms and states","PARTOF":"Maya chiefdoms and states","BORDERPRECISION":1,"LINK":null}},
{"type":"Feature","geometry":{"type":"Polygon","coordinates":[[[33.3453,23.354],[32.6053,22.8158],[31.9998,22.6813],[31.0579,22.6813],[30.7887,21.9412],[29.8468,20.1247],[29.9998,17.4129],[30.2679,15.5365],[31.0579,13.1277],[31.7979,12.5222],[32.879,12.4706],[32.8803,12.4705],[34.2156,12.554],[35.384,12.8043],[35.7178,13.2216],[35.8293,14.224],[35.9692,15.4825],[35.4982,17.2317],[35.2291,18.51],[34.6236,19.9228],[34.5513,20.1833],[34.5278,20.1748],[34.4218,20.506],[34.4121,20.5362],[33.7653,22.4766],[33.3453,23.354]]]},"properties":{"NAME":"Meroe","SUBJECTO":"Meroe","PARTOF":"Meroe","BORDERPRECISION":1,"LINK":null}},
{"type":"Feature","geometry":{"type":"Polygon","coordinates":[[[7.9132,36.7752],[7.792,36.8324],[7.719,36.9533],[7.5449,37.0421],[7.307,37.0608],[7.2049,36.9905],[7.0632,36.8819],[6.923,36.8178],[6.7705,36.8621],[6.3229,37.0906],[6.0474,36.8416],[5.7302,36.7517],[5.3827,36.6745],[5.1445,36.6677],[4.7772,36.7434],[4.6321,36.7941],[4.5326,36.813],[4.3946,36.8382],[4.1639,36.8314],[3.7412,36.8369],[3.5869,36.792],[3.3238,36.6512],[3.07,36.6189],[2.8099,36.7139],[2.5244,36.5732],[2.2938,36.5408],[1.5797,36.5139],[1.0576,36.4619],[0.7812,36.3849],[0.4744,36.225],[0.1987,36.0333],[0.0153,35.8037],[-0.0917,35.7398],[-0.2037,35.7507],[-0.283,35.7585],[-0.4288,35.8601],[-0.7343,35.7385],[-0.9175,35.668],[-1.1467,35.6294],[-1.3291,35.4889],[-1.1269,32.193],[8.1422,33.9344],[8.6327,34.0265],[7.9132,36.7752]]]},"properties":{"NAME":"Numidia","SUBJECTO":"Numidia","PARTOF":"Numidia","BORDERPRECISION":1,"LINK":null}},
{"type":"Feature","geometry":{"type":"Polygon","coordinates":[[[41.6805,41.7933],[41.6661,41.7292],[41.5211,41.4658],[41.484,41.4365],[41.2931,41.2858],[41.2778,41.28],[40.6099,41.028],[40.361,40.9634],[40.0067,40.9563],[39.663,41.0005],[39.3702,41.064],[39.1386,41.0443],[38.6512,40.9216],[38.314,40.9209],[37.8218,41.0096],[37.2528,41.0277],[36.817,41.2897],[36.6412,41.315],[36.3829,41.2375],[36.1614,41.3525],[35.9578,41.6856],[35.6779,41.6209],[35.4114,41.6268],[35.2861,41.6715],[35.0988,41.8059],[35.0019,42.0432],[34.6629,41.8756],[34.3039,41.8941],[33.8967,41.9511],[33.5555,41.9825],[33.1555,41.9496],[32.6879,41.846],[32.419,41.7492],[31.8713,41.4914],[31.6664,41.3948],[31.3857,41.285],[31.4041,41.1635],[31.2177,41.0541],[30.7448,41.0403],[30.2561,41.1847],[30.1376,41.1318],[29.5778,41.1534],[29.1612,41.2164],[29.0145,40.9787],[29.2896,40.8067],[29.3204,40.7411],[29.4172,40.7411],[29.6834,40.7516],[29.8827,40.7464],[29.7131,40.6936],[29.5252,40.6883],[28.9016,40.6201],[28.778,40.5247],[28.8732,40.4719],[29.0835,40.4561],[29.1223,40.4139],[29.0524,40.3347],[28.9268,40.3558],[28.7564,40.3765],[28.4777,40.3951],[29.9998,39.5276],[31.6081,39.3936],[32.0102,38.1873],[32.6804,38.0533],[32.9484,37.3831],[34.0582,37.4925],[37.009,37.4925],[39.2742,38.219],[41.4008,38.4532],[43.3909,39.3453],[43.9956,37.6239],[44.6947,36.669],[46.2044,36.3945],[47.9199,36.6004],[50.9393,36.1887],[51.417,36.4557],[50.561,36.6864],[50.2522,36.8948],[50.1113,37.0978],[50.0387,37.2247],[49.848,37.2682],[49.4758,37.2916],[49.0595,37.3976],[48.8372,37.511],[48.7448,37.727],[48.8092,37.9886],[48.8315,38.3063],[48.825,38.3096],[48.9882,38.7192],[48.9457,38.8362],[48.9989,38.8787],[49.0521,38.9319],[49.0201,39.0064],[49.0414,39.1447],[49.1159,39.1872],[49.1797,39.1447],[49.2223,39.0383],[49.2754,39.017],[49.3074,39.134],[49.3393,39.283],[49.3818,39.3255],[49.4882,39.2936],[49.4988,39.3787],[49.4031,39.4851],[49.4456,39.6553],[49.4882,39.7616],[49.5414,39.8786],[49.552,40.0914],[49.5733,40.1765],[49.669,40.2403],[48.955,40.3218],[48.5583,40.5599],[47.0109,41.3931],[44.7891,41.7501],[43.7671,41.8103],[42.7657,41.8692],[41.6805,41.7933]]]},"properties":{"NAME":"minor states","SUBJECTO":"minor states","PARTOF":"minor states","BORDERPRECISION":1,"LINK":null}},
{"type":"Feature","geometry":{"type":"Polygon","coordinates":[[[61.1641,37.6984],[58.2133,39.0022],[57.2526,39.2767],[56.8409,39.1394],[56.0174,38.0415],[53.9852,37.5177],[54.0151,37.3483],[54.0087,37.3487],[54.0674,36.9415],[54.9194,31.5909],[55.4684,31.1792],[57.5957,30.9733],[60.6151,31.3165],[61.3013,32.8262],[60.9582,34.6103],[60.5465,35.0907],[60.3406,35.9828],[61.1641,37.6984]]]},"properties":{"NAME":"Parthia","SUBJECTO":"Parthia","PARTOF":"Parthia","BORDERPRECISION":1,"LINK":null}},
{"type":"Feature","geometry":{"type":"Polygon","coordinates":[[[37.2183,25.1666],[39.151,26.2469],[36.8059,30.3166],[35.7711,31.6396],[35.0875,30.4244],[32.8136,29.4777],[32.9438,29.1984],[33.1785,28.9956],[33.3307,28.5512],[33.5041,28.3292],[33.856,28.025],[34.058,27.7903],[34.2412,27.7589],[34.322,27.829],[34.3988,28.096],[34.5489,28.7316],[34.7643,29.2467],[34.9355,29.4181],[34.9543,29.4368],[34.9847,29.4672],[35.0734,29.4189],[35.0955,29.3427],[35.0721,29.2114],[35.0257,28.9486],[34.8856,28.3575],[34.7989,28.2302],[34.7639,28.0967],[34.8756,28.097],[35.1116,28.0721],[35.4365,27.7297],[35.5948,27.514],[35.8311,27.0952],[36.3122,26.4227],[36.3298,26.4028],[36.6693,26.0168],[37.0053,25.5347],[37.2183,25.1666]]]},"properties":{"NAME":"Nabatean Kingdom","SUBJECTO":"Nabatean Kingdom","PARTOF":"Nabatean Kingdom","BORDERPRECISION":1,"LINK":null}},
{"type":"Feature","geometry":{"type":"Polygon","coordinates":[[[37.2183,25.1666],[37.2685,24.9698],[37.2015,24.6583],[37.4188,24.3983],[37.5572,24.2715],[37.7818,24.2148],[37.9884,24.1136],[38.3294,23.8347],[38.4901,23.6127],[38.9151,22.8702],[39.0556,22.5719],[39.1022,22.4004],[39.1033,22.0002],[39.1304,21.6508],[39.1667,21.2188],[39.5269,20.6922],[39.7641,20.4068],[40.3363,20.0967],[40.6938,19.8687],[40.8198,19.6847],[41.033,19.2849],[41.2015,18.8964],[41.3992,18.4406],[41.6286,18.0472],[42.0094,17.7367],[42.2065,17.5147],[43.7947,18.6598],[43.4663,19.1793],[42.3378,20.7164],[39.151,26.2469],[37.2183,25.1666]]]},"properties":{"NAME":"Maan","SUBJECTO":"Maan","PARTOF":"Maan","BORDERPRECISION":1,"LINK":null}},
{"type":"Feature","geometry":{"type":"Polygon","coordinates":[[[42.2065,17.5147],[42.5353,17.0707],[42.7637,16.6455],[42.8144,16.4041],[42.828,16.3215],[42.8839,15.9849],[42.7635,15.667],[42.7959,15.4701],[43.0533,14.6065],[44.6947,15.5333],[45.1064,16.2881],[45.4329,17.7748],[43.7947,18.6598],[42.2065,17.5147]]]},"properties":{"NAME":"Saba","SUBJECTO":"Saba","PARTOF":"Saba","BORDERPRECISION":1,"LINK":null}},
{"type":"Feature","geometry":{"type":"Polygon","coordinates":[[[43.0533,14.6065],[43.2069,14.0795],[43.3476,13.851],[43.384,13.5652],[43.3028,13.241],[43.3408,13.1267],[43.4836,12.93],[43.5601,12.8603],[43.6049,12.8289],[43.8406,12.6639],[44.0627,12.6136],[44.4405,12.6398],[44.6811,12.8246],[44.7888,12.8057],[44.9636,12.8252],[45.1934,12.9337],[45.396,13.0739],[45.5186,13.2076],[45.6925,13.3478],[45.8259,13.4052],[46.0793,13.3994],[46.6012,13.4005],[46.8777,13.4739],[46.9394,13.4902],[47.3696,13.6691],[47.6623,13.8476],[48.0362,14.0454],[48.2701,14.0776],[48.5367,14.0464],[48.7646,14.0977],[48.8793,14.1687],[48.9604,14.2189],[49.1732,14.4989],[49.3338,14.6327],[49.7129,14.7733],[48.9973,17.6066],[47.7015,17.4258],[45.4329,17.7748],[45.1064,16.2881],[44.6947,15.5333],[43.0533,14.6065]]]},"properties":{"NAME":"Qataban","SUBJECTO":"Qataban","PARTOF":"Qataban","BORDERPRECISION":1,"LINK":null}},
{"type":"Feature","geometry":{"type":"Polygon","coordinates":[[[49.7129,14.7733],[50.2911,14.9588],[51.3126,15.2469],[51.599,15.3788],[51.9504,15.5405],[52.1352,15.6871],[52.1629,15.8714],[52.2376,16.1003],[52.3566,16.2339],[52.6522,16.4887],[52.8943,16.61],[53.0209,16.6538],[53.2085,16.7186],[53.3357,16.7634],[53.6813,16.8975],[54.0843,17.0191],[54.4069,17.0452],[54.7561,16.9507],[54.9106,16.9701],[55.1948,17.1486],[55.2356,17.2884],[55.2344,17.4473],[55.2904,17.6761],[53.6156,18.1409],[51.4535,17.9493],[48.9973,17.6066],[49.7129,14.7733]]]},"properties":{"NAME":"Hadramaut","SUBJECTO":"Hadramaut","PARTOF":"Hadramaut","BORDERPRECISION":1,"LINK":null}},
{"type":"Feature","geometry":{"type":"Polygon","coordinates":[[[74.4214,14.3755],[74.5209,14.1551],[74.703,13.7513],[74.7336,13.6834],[74.7776,13.5279],[74.9617,12.877],[75.2109,12.1024],[75.4399,11.7498],[75.5907,11.5175],[75.6518,11.4235],[75.7344,11.2537],[76.0467,10.6122],[76.0751,10.554],[76.2484,10.1035],[76.294,9.9849],[76.3853,9.7477],[76.4672,9.4101],[76.5379,9.119],[76.6624,8.8842],[76.7035,8.7064],[77.3414,8.0533],[77.4195,8.028],[77.4844,8.0282],[77.5888,8.0983],[77.6186,8.1174],[77.6632,8.1429],[77.7339,8.1773],[77.848,8.2327],[77.8998,8.2578],[78.0649,8.3853],[78.1358,8.4998],[78.1811,8.8112],[78.3138,8.9958],[78.6601,9.1236],[78.7976,9.1302],[79.1596,9.2772],[78.9377,9.4355],[78.9266,9.4927],[79.0723,9.7599],[79.2225,10.1922],[79.3063,10.2559],[79.5009,10.25],[79.7899,10.2506],[79.8263,10.3587],[79.7318,11.1527],[79.7122,11.4245],[79.7107,11.4449],[79.7253,11.5159],[79.7694,11.731],[79.8667,11.9691],[79.9228,12.1062],[77.908,11.9649],[77.4277,11.3473],[76.8787,11.3473],[75.6435,13.5432],[74.4214,14.3755]]]},"properties":{"NAME":"Hindu kingdoms","SUBJECTO":"Hindu kingdoms","PARTOF":"Hindu kingdoms","BORDERPRECISION":1,"LINK":null}},
{"type":"Feature","geometry":{"type":"Polygon","coordinates":[[[79.9228,12.1062],[80.2238,12.8311],[80.3135,13.1045],[80.3199,13.3332],[80.2018,13.4917],[80.1781,13.5235],[80.0759,13.6694],[80.1697,13.892],[80.1617,14.2541],[80.0871,14.9464],[80.0894,15.1752],[80.1634,15.3913],[80.3002,15.6457],[80.4598,15.7731],[80.736,15.8373],[80.9631,15.7234],[81.0879,15.8268],[81.2531,16.2259],[81.3691,16.3469],[81.5968,16.3029],[81.789,16.3287],[82.0814,16.4627],[82.2346,16.6473],[82.2674,16.857],[82.354,17.0859],[82.5464,17.2261],[82.7496,17.3345],[82.8461,17.3834],[83.077,17.5004],[83.3814,17.7107],[83.6847,18.0834],[83.9877,18.2075],[84.2627,18.4558],[84.3245,18.5303],[84.6588,18.9331],[84.7535,19.028],[84.9066,19.1814],[85.1132,19.4423],[85.3791,19.6054],[85.7148,19.6977],[85.9089,19.7235],[86.1192,19.8065],[86.3856,20.0167],[86.6324,20.2036],[86.6379,20.3191],[86.7752,20.4686],[86.9261,20.6913],[86.8442,20.8753],[86.7962,21.1357],[86.8187,21.1865],[86.9372,21.2884],[87.1942,21.3843],[87.6407,21.5631],[87.8675,21.697],[88.053,21.9387],[88.0904,21.8972],[88.1216,21.8627],[88.2479,21.5961],[88.2996,21.5518],[88.3771,21.5773],[88.4539,21.7363],[88.5676,21.8954],[88.657,21.8574],[88.7235,21.54],[88.8809,21.5149],[89.0255,21.547],[88.9948,21.6295],[89.0723,21.7743],[89.2339,21.6554],[89.4566,21.9417],[89.579,21.7006],[89.6702,21.7198],[89.7963,21.8321],[89.8697,22.1332],[89.9027,22.1078],[90,21.9303],[90,22.0199],[90,22.0584],[90,22.1348],[90,22.3254],[90,22.561],[91.0814,22.5613],[91.4102,22.7208],[91.5711,22.5433],[92.0413,23.115],[92.0852,23.1685],[93.4235,25.017],[93.6853,25.7151],[93.7725,26.5004],[93.0745,26.8494],[91.5911,26.5876],[89.7588,25.9768],[87.9264,26.0641],[86.1813,26.4131],[83.2447,27.3888],[81.9567,27.8167],[80.6623,28.4496],[79.8316,26.6935],[72.6846,22.0251],[72.6659,21.8489],[72.7147,21.4361],[72.7657,21.1504],[72.9311,20.9538],[73.1129,20.8271],[73.1097,20.6873],[72.8808,20.3371],[72.8644,20.312],[72.7595,20.0576],[72.7825,19.9497],[72.8534,19.2447],[72.9761,18.5386],[73.0322,18.2157],[73.0642,18.0317],[73.1847,17.5173],[73.3957,16.6164],[73.4093,16.5585],[73.4942,16.288],[73.5081,16.244],[73.5727,16.0379],[73.8414,15.3905],[74.0322,15.0588],[74.1531,14.8495],[74.3771,14.4619],[74.4015,14.4196],[74.4214,14.3755],[75.6435,13.5432],[76.8787,11.3473],[77.4277,11.3473],[77.908,11.9649],[79.9228,12.1062]],[[83.5224,23.6307],[85.1388,23.0131],[86.4858,21.8465],[86.4858,21.4348],[84.9761,20.68],[81.3391,17.1802],[80.2412,17.3861],[79.4863,18.2095],[79.8405,19.1703],[81.8161,21.0917],[81.9059,21.7093],[81.7263,22.6014],[82.1753,23.3562],[83.5224,23.6307]]]},"properties":{"NAME":"Mauryan Empire","SUBJECTO":"Mauryan Empire","PARTOF":"Mauryan Empire","BORDERPRECISION":1,"LINK":null}},
{"type":"Feature","geometry":{"type":"MultiPolygon","coordinates":[[[[114.0465,22.34],[113.9496,22.3028],[113.9015,22.2909],[113.8585,22.2577],[113.8362,22.2139],[113.8671,22.1973],[113.9037,22.2185],[113.9317,22.2059],[113.9546,22.2338],[113.9891,22.2145],[114.0221,22.2285],[114.0307,22.3101],[114.0465,22.34]]],[[[114.0845,22.5283],[114.0292,22.5085],[114.0421,22.4985],[113.9812,22.4687],[113.9014,22.4065],[113.9254,22.3672],[113.9467,22.3659],[114.0077,22.3719],[114.0866,22.3606],[114.1024,22.3287],[114.144,22.3314],[114.1607,22.3138],[114.1533,22.2987],[114.1159,22.2784],[114.1275,22.2544],[114.0988,22.2165],[114.134,22.1717],[114.2072,22.2218],[114.2163,22.1923],[114.2312,22.2223],[114.2631,22.2044],[114.2588,22.2218],[114.3291,22.2723],[114.398,22.3964],[114.4131,22.4369],[114.3578,22.5051],[114.309,22.5535],[114.2186,22.5509],[114.1663,22.5608],[114.0845,22.5283]]],[[[113.4956,22.7425],[113.536,22.7041],[113.7168,22.4822],[113.8452,22.4634],[113.9891,22.5527],[114.3039,22.6486],[114.5375,22.6745],[114.5587,22.4649],[114.8478,22.51],[115.0435,22.5994],[115.1855,22.7458],[115.3088,22.7714],[115.5425,22.6957],[115.7067,22.6389],[115.86,22.8361],[116.0847,22.8874],[116.3406,22.9133],[116.4002,22.9833],[116.4039,23.1993],[116.4521,23.2502],[116.7091,23.346],[116.9627,23.5562],[117.2454,23.633],[117.4059,23.6905],[117.7532,23.9834],[117.8491,24.0471],[117.7961,24.4217],[117.8613,24.5108],[117.9249,24.5617],[118.1242,24.5304],[118.3456,24.4673],[118.5312,24.69],[118.8129,24.8494],[118.9454,25.1355],[119.0237,25.3135],[119.0959,25.4407],[119.3354,25.5301],[119.4286,25.6509],[118.3953,26.5815],[116.5425,27.7481],[116.0622,27.6795],[114.8956,25.8953],[113.578,22.9278],[113.4956,22.7425]]]]},"properties":{"NAME":"Min-Yue","SUBJECTO":"Min-Yue","PARTOF":"Min-Yue","BORDERPRECISION":1,"LINK":null}},
{"type":"Feature","geometry":{"type":"MultiPolygon","coordinates":[[[[113.578,22.9278],[111.2574,22.8387],[106.8667,22.67],[105.7688,22.3955],[104.9453,22.0524],[104.6708,21.5034],[104.7394,20.5427],[105.8434,19.7024],[105.9649,19.8805],[106.0417,19.9379],[106.2814,20.0464],[106.3809,20.1101],[106.6443,20.4664],[106.7716,20.6381],[106.7462,20.8159],[106.807,20.905],[107.3743,20.8808],[107.4658,20.9763],[107.4178,21.1858],[107.7898,21.4025],[107.8756,21.4621],[107.9,21.479],[108.1167,21.4985],[108.2659,21.4734],[108.3873,21.5309],[108.4589,21.7089],[108.4666,21.7851],[108.555,21.8234],[108.813,21.4936],[109.1174,21.399],[109.3219,21.4312],[109.4143,21.5648],[109.5161,21.5968],[109.7798,21.483],[109.7868,21.4068],[109.6081,21.057],[109.6029,20.8792],[109.7116,20.5682],[109.9283,20.2447],[110.2713,20.3153],[110.4337,20.4363],[110.4141,20.5252],[110.2932,20.5821],[110.0772,20.8675],[110.0724,20.9183],[110.2026,21.0964],[110.2338,21.2553],[110.2388,21.2807],[110.3634,21.2429],[110.5664,21.2306],[110.7496,21.3771],[111.0856,21.4794],[111.4342,21.4611],[111.5361,21.4931],[111.734,21.7095],[111.8312,21.7541],[112.0395,21.6593],[112.3079,21.6789],[112.4725,21.7301],[112.7495,21.7561],[112.8153,21.8261],[112.8156,21.9341],[112.8713,22.0612],[113.0967,21.9791],[113.2837,22.0303],[113.3777,22.1639],[113.3991,22.4752],[113.4193,22.5705],[113.3766,22.6466],[113.4626,22.7739],[113.4956,22.7425],[113.578,22.9278]]],[[[109.4297,18.0966],[109.6691,18.4147],[110.1313,18.5872],[110.2625,18.6256],[110.3615,18.7656],[110.2987,18.8988],[110.427,19.2294],[110.6125,19.4712],[110.8118,19.6304],[110.8854,19.7068],[110.6174,20.0175],[110.2583,19.9405],[110.0606,19.9401],[109.9159,19.8],[109.6577,19.9011],[109.5503,19.9136],[109.4423,19.7355],[109.4201,19.6592],[109.1982,19.6841],[108.8737,19.404],[108.685,19.2956],[108.5769,19.1874],[108.5605,19.0603],[108.6519,18.4824],[108.9386,18.3306],[109.4297,18.0966]]]]},"properties":{"NAME":"Nan-Yue","SUBJECTO":"Nan-Yue","PARTOF":"Nan-Yue","BORDERPRECISION":1,"LINK":null}},
{"type":"Feature","geometry":{"type":"Polygon","coordinates":[[[119.4286,25.6509],[119.4703,25.7717],[119.436,26.0383],[119.5549,26.2672],[119.4289,26.5908],[119.6007,26.6928],[119.857,26.706],[119.9714,26.7888],[120.0841,26.9859],[120.3518,27.177],[120.4089,27.3105],[120.5059,27.5901],[120.6865,27.8699],[120.9424,28.2133],[121.0086,28.277],[121.1659,28.1249],[121.2597,28.1823],[121.3585,28.3857],[121.3458,28.5444],[121.4325,28.8367],[121.5668,29.1735],[121.6492,29.3197],[121.5582,29.3576],[121.4115,29.3446],[121.3619,29.4144],[121.4984,29.5226],[121.6704,29.6245],[121.7744,29.7645],[121.7703,29.8343],[121.5652,29.8466],[121.3913,29.9224],[121.1552,30.1886],[121.0825,30.2138],[120.8627,30.188],[120.4379,29.9966],[120.2676,30.0216],[119.9437,30.1162],[120.2269,30.2502],[120.6087,30.3462],[121.0355,30.5947],[121.3284,30.6905],[121.5689,30.7101],[121.6319,30.7928],[121.6402,30.9261],[121.4989,31.2814],[121.3079,31.4207],[121.2683,31.4523],[121.6233,31.6182],[121.645,31.688],[121.606,31.8276],[121.4837,31.948],[121.2305,32.0618],[121.0508,32.328],[120.7383,32.4607],[120.6609,32.5431],[120.7194,32.848],[120.6406,33.0446],[120.3403,33.3361],[120.1494,33.8943],[119.9736,34.1352],[119.6205,34.3694],[119.2999,34.5909],[119.0209,34.6919],[119.0032,34.9395],[119.0602,35.0413],[119.6888,35.545],[119.9073,35.7681],[119.9756,35.9336],[119.9138,36.1434],[120.1393,36.1948],[120.1965,36.1567],[120.2037,36.0359],[120.2697,35.9851],[120.5048,36.0556],[120.5373,36.3865],[120.8555,36.5844],[121.6099,36.8342],[121.8467,36.8602],[121.9801,36.8222],[122.2556,36.7337],[122.2813,36.982],[122.3929,37.3006],[122.2695,37.3003],[122.0576,37.3636],[121.8948,37.376],[121.4343,37.3368],[121.1898,37.4255],[120.7874,37.7049],[120.6581,37.7365],[120.4181,37.6787],[120.1694,37.5763],[119.9407,37.3529],[119.5989,37.1166],[119.2844,37.046],[118.9546,37.0771],[118.837,37.2042],[118.8116,37.4461],[118.8673,37.7074],[118.8752,37.9494],[118.7446,38.0638],[118.2003,38.0436],[117.8407,38.1639],[117.5895,38.2845],[117.479,38.4499],[117.4395,38.6028],[117.5101,38.7656],[117.5751,38.9153],[117.7529,39.2025],[117.9101,39.2602],[118.0699,39.2542],[118.2746,38.9996],[118.4124,39.0509],[118.5593,39.1723],[118.7813,39.1664],[118.9776,39.2241],[119.0906,39.3391],[119.1494,39.454],[119.2107,39.639],[119.3855,39.8434],[119.5478,39.933],[119.8238,40.0422],[120.1127,40.0811],[120.2727,40.1518],[120.7884,40.6838],[121.0106,40.8507],[121.0853,40.8572],[121.368,40.8706],[121.4267,40.8643],[121.7536,40.737],[122.0824,40.488],[122.1079,40.3537],[122.0365,40.264],[121.789,40.0781],[121.6681,39.9054],[121.2394,39.5538],[121.2133,39.4836],[121.2822,39.3499],[121.449,39.3821],[121.6602,39.3315],[121.5118,39.1719],[121.1237,38.8651],[121.0653,38.7503],[121.2165,38.757],[121.4884,38.8786],[121.7432,39.0894],[122.0275,39.2558],[123.0391,39.6722],[123.3664,39.7494],[123.9165,39.8079],[124.1041,39.8848],[124.091,41.2667],[123.7479,41.6785],[122.5002,41.8096],[120.4728,41.6829],[118.5462,41.425],[114.54,41.5557],[113.3178,41.5956],[111.5029,41.8194],[109.083,42.1177],[107.6216,42.0902],[107.2099,41.7471],[106.7981,39.1394],[106.0433,37.5611],[105.1512,37.6297],[104.3963,37.218],[104.3963,37.0121],[104.6708,36.8063],[104.7394,36.6004],[103.6203,34.0387],[102.5109,31.4996],[101.6514,29.5323],[101.5828,28.7088],[102.1318,28.0226],[102.9553,28.0226],[105.0826,28.0226],[108.1706,27.5422],[109.6116,26.5815],[110.8469,24.8659],[111.2574,22.8387],[113.578,22.9278],[114.8956,25.8953],[116.0622,27.6795],[116.5425,27.7481],[118.3953,26.5815],[119.4286,25.6509]]]},"properties":{"NAME":"Han Empire","SUBJECTO":"Han Empire","PARTOF":"Han Empire","BORDERPRECISION":1,"LINK":null}},
{"type":"Feature","geometry":{"type":"MultiPolygon","coordinates":[[[[37.7741,44.7445],[39.2478,45.9609],[40.32,48.2394],[39.7839,48.7755],[38.4436,48.7755],[37.7735,48.6415],[35.2124,46.6371],[35.4161,46.4947],[35.6243,46.5211],[35.8506,46.6644],[36.354,46.7758],[36.8646,46.8093],[37.1926,46.8944],[37.4221,47.0769],[37.8593,47.1037],[38.2097,47.1505],[38.8002,47.2292],[39.1599,47.2689],[39.1941,47.243],[39.2824,47.074],[38.7227,46.8779],[38.4011,46.7214],[38.0319,46.6687],[37.8666,46.6554],[37.7571,46.6032],[37.9702,46.4413],[38.2649,46.3186],[38.459,46.0789],[38.2272,46.0201],[37.9899,46.0067],[37.8679,45.7925],[37.7061,45.5784],[37.6613,45.3452],[37.461,45.3125],[37.2277,45.312],[36.9599,45.2274],[37.3179,44.9242],[37.4739,44.6924],[37.6217,44.6733],[37.7741,44.7445]]],[[[35.0319,45.5343],[33.5594,44.9361],[33.3955,44.6005],[33.6602,44.5237],[34.0137,44.4921],[34.135,44.5375],[34.3722,44.7572],[34.6142,44.8415],[35.0673,44.8617],[35.3867,45.0819],[35.5996,45.1017],[35.8655,45.0311],[36.0047,45.0443],[36.2648,45.0966],[36.3671,45.1615],[36.4151,45.2716],[36.521,45.3883],[36.3232,45.4397],[35.8498,45.4452],[35.5462,45.3799],[35.3167,45.3212],[35.0634,45.3401],[34.99,45.45],[35.0319,45.5343]]]]},"properties":{"NAME":"Bosporan Kingdom","SUBJECTO":"Bosporan Kingdom","PARTOF":"Bosporan Kingdom","BORDERPRECISION":1,"LINK":null}},
{"type":"Feature","geometry":{"type":"Polygon","coordinates":[[[-1.3291,35.4889],[-1.4951,35.2339],[-1.7383,35.1188],[-2.0353,35.0546],[-2.193,35.0542],[-2.3259,35.054],[-2.3557,35.0539],[-2.7148,35.0977],[-2.8299,35.1421],[-3.009,35.39],[-3.2058,35.2686],[-3.4408,35.1663],[-4.0279,35.1332],[-4.2954,35.1518],[-4.593,35.1512],[-5.1096,35.3793],[-5.1718,35.4238],[-5.4794,35.8052],[-5.565,35.8623],[-5.8079,35.7854],[-5.9288,35.7279],[-6.302,34.8614],[-6.3277,34.8116],[-6.472,34.5309],[-6.5115,34.4543],[-6.753,34.1234],[-7.004,33.875],[-7.3326,33.6964],[-7.9024,33.4855],[-8.3144,33.3385],[-8.6403,33.1217],[-9.2187,32.5804],[-9.2508,32.4214],[-9.2223,32.2562],[-9.3176,31.9637],[-9.6353,31.5754],[-9.8133,31.2891],[-9.8578,31.0602],[-9.817,30.7552],[-9.625,30.4061],[-4.1775,31.6199],[-1.1269,32.193],[-1.3291,35.4889]]]},"properties":{"NAME":"Mauretania","SUBJECTO":"Mauretania","PARTOF":"Mauretania","BORDERPRECISION":1,"LINK":null}},
{"type":"Feature","geometry":{"type":"MultiPolygon","coordinates":[[[[33.3453,23.354],[33.6901,23.5495],[33.6572,24.018],[35.1899,24.3999],[34.9974,24.7172],[34.5148,25.5739],[34.1042,26.3545],[33.9288,26.5638],[33.8041,26.9321],[33.5669,27.37],[33.3542,27.9095],[32.9347,28.3788],[32.6493,28.7658],[32.5906,28.9372],[32.3185,29.5402],[32.4384,29.7755],[32.648,29.8522],[32.7373,29.6935],[32.8136,29.4777],[35.0875,30.4244],[35.7711,31.6396],[36.3227,32.6203],[36.3913,33.581],[35.821,34.3438],[35.7162,34.3124],[35.5321,34.1187],[35.5244,33.9748],[35.4919,33.8308],[35.4299,33.7445],[35.3486,33.7445],[35.3561,33.6398],[35.2084,33.3336],[35.1323,33.2315],[35.089,33.0693],[34.972,32.9384],[34.9591,32.7967],[34.9566,32.7048],[34.895,32.6628],[34.8429,32.6707],[34.7585,32.3007],[34.6813,32.046],[34.5991,31.8179],[34.5007,31.6211],[34.1953,31.2381],[34.1463,31.2086],[33.917,31.0701],[33.7096,30.9957],[33.5576,30.9677],[33.2546,31.0265],[33.1296,31.0517],[33.0214,31.1321],[32.7687,30.9516],[32.5972,30.9639],[32.3094,31.084],[32.0765,31.0137],[31.8081,31.1783],[31.7174,31.3878],[31.3923,31.4443],[31.1514,31.4437],[30.996,31.4689],[30.8271,31.4367],[30.4761,31.3153],[30.0991,31.2319],[29.6831,31.0532],[29.3594,30.8111],[29.2488,30.7537],[28.9664,30.7848],[28.5172,30.9618],[28.0998,30.9991],[27.9194,30.9987],[27.7633,31.1826],[27.4388,31.2518],[27.0881,31.3067],[26.824,31.3586],[26.1433,31.4906],[25.7895,31.4898],[25.5072,31.4448],[25.2582,31.4379],[25.1066,31.5138],[24.9822,31.647],[24.9515,31.8185],[24.8159,31.9072],[24.2369,31.925],[24.0344,31.9373],[23.7424,32.0641],[23.714,32.0764],[23.2886,32.1327],[23.1533,32.1388],[23.0267,32.2529],[23.0073,32.4816],[22.9228,32.5577],[22.5431,32.7221],[22.216,32.7913],[21.6734,32.8156],[21.0545,32.6301],[20.7651,32.496],[20.5155,32.3875],[20.3657,32.2982],[20.0684,32.0371],[19.9615,31.7955],[19.9416,31.6112],[19.9921,31.3508],[20.1167,31.0715],[20.1168,30.9571],[22.0921,31.7539],[25.4428,30.6817],[25.4548,28.9775],[26.743,28.575],[28.4062,27.7434],[29.9316,25.8392],[31.2061,24.2483],[31.0579,22.6813],[31.9998,22.6813],[32.6053,22.8158],[33.3453,23.354]]],[[[33.9247,34.9532],[33.7727,35.1293],[33.7805,35.2081],[34.0484,35.4079],[34.2447,35.5118],[34.4582,35.6446],[34.2173,35.5736],[33.9073,35.4368],[33.539,35.3317],[33.3737,35.3065],[33.0775,35.3186],[32.7951,35.3606],[32.8191,35.2817],[32.7795,35.1529],[32.745,35.1143],[32.597,35.1556],[32.4831,35.1529],[32.301,35.0163],[32.2345,35.0136],[32.1805,35.0583],[32.1437,35.0425],[32.1985,34.8614],[32.271,34.8142],[32.2711,34.7197],[32.3572,34.6803],[32.6034,34.6147],[32.7841,34.6252],[32.8167,34.5386],[32.9145,34.5413],[32.9145,34.6357],[32.9586,34.6593],[33.1314,34.6803],[33.4839,34.7958],[33.5385,34.9442],[33.6858,34.9349],[33.7326,34.9086],[33.792,34.9574],[33.9247,34.9532]]],[[[24.6901,35.0924],[24.7156,35.0348],[24.6935,34.9405],[25.5907,35.0164],[25.7417,35.0089],[25.8987,35.0453],[26.1605,35.0243],[26.2427,35.1449],[26.236,35.2288],[26.2735,35.3127],[26.1688,35.2471],[26.0994,35.2156],[26.0642,35.2392],[25.9355,35.213],[25.789,35.137],[25.7418,35.137],[25.6685,35.1868],[25.7135,35.327],[25.6732,35.3494],[25.5116,35.2948],[25.374,35.3179],[25.1001,35.3467],[25.0136,35.3625],[24.9975,35.421],[24.7686,35.428],[24.3883,35.373],[24.2296,35.3913],[24.2197,35.449],[24.1777,35.47],[24.1132,35.4857],[24.0733,35.4962],[24.0915,35.5198],[24.1358,35.5224],[24.1527,35.5644],[24.0819,35.6116],[24.0333,35.5985],[24.039,35.5618],[23.9568,35.5277],[23.8795,35.5524],[23.7429,35.5618],[23.7337,35.6273],[23.6967,35.6981],[23.6651,35.6667],[23.6691,35.6116],[23.6715,35.5722],[23.5294,35.5696],[23.4669,35.3179],[23.5131,35.276],[23.5677,35.255],[23.7856,35.2629],[24.0132,35.2104],[24.3244,35.2078],[24.6901,35.0924]]]]},"properties":{"NAME":"Ptolemaic Kingdom","SUBJECTO":"Ptolemaic Kingdom","PARTOF":"Ptolemaic Kingdom","BORDERPRECISION":1,"LINK":null}},
{"type":"Feature","geometry":{"type":"MultiPolygon","coordinates":[[[[-7.4275,55.0638],[-7.4978,55.0497],[-7.6573,55.1168],[-7.7562,55.2527],[-8.1183,55.1766],[-8.3454,55.0953],[-8.4763,54.8799],[-8.5037,54.7496],[-8.76,54.7014],[-8.8294,54.6339],[-8.2115,54.6339],[-8.3006,54.4893],[-8.6867,54.3641],[-8.5901,54.2028],[-9.0858,54.2582],[-9.3229,54.2751],[-9.4743,54.2413],[-9.892,54.3256],[-9.9888,54.2537],[-10.1597,54.1331],[-10.1785,53.9119],[-9.9129,53.9696],[-9.6965,53.8734],[-9.8724,53.7677],[-9.8096,53.6324],[-10.1514,53.5756],[-10.0211,53.5119],[-10.1598,53.3741],[-9.8848,53.2974],[-9.8029,53.3454],[-9.6167,53.3459],[-9.4407,53.2662],[-9.2974,53.2798],[-9.1582,53.2207],[-9.0017,53.3004],[-8.9236,53.1606],[-8.997,53.1204],[-9.3093,53.1153],[-9.5258,52.9046],[-9.4416,52.8333],[-9.6157,52.6366],[-9.1343,52.6809],[-9.1926,52.5545],[-9.504,52.5405],[-9.7357,52.4803],[-9.784,52.3407],[-9.8016,52.2411],[-9.8906,52.1944],[-10.4692,52.2066],[-10.4973,52.1017],[-9.9638,52.0921],[-10.294,51.9776],[-10.2169,51.7583],[-9.8354,51.8033],[-9.7952,51.6046],[-9.8191,51.4346],[-9.2433,51.4726],[-8.8478,51.5998],[-8.5652,51.6155],[-8.1588,51.8396],[-7.8616,51.9681],[-7.7506,52.0327],[-7.3724,52.0921],[-6.9617,52.1112],[-6.8939,52.2066],[-6.6168,52.2207],[-6.4892,52.1944],[-6.406,52.2144],[-6.3409,52.4271],[-6.2321,52.6133],[-6.0707,52.7666],[-6.0431,52.8931],[-6.1722,53.4392],[-6.335,53.786],[-6.4434,53.8994],[-6.3431,53.9396],[-6.2064,53.9567],[-6.0717,53.9736],[-5.9122,54.0274],[-5.7314,54.1749],[-5.6615,54.3222],[-5.7999,54.5229],[-5.7637,54.657],[-5.7849,54.7374],[-6.0182,55.093],[-6.1165,55.1602],[-6.2793,55.1397],[-6.4543,55.1865],[-6.6452,55.2064],[-6.9968,55.172],[-7.2255,55.1042],[-7.4275,55.0638]]],[[[-5.6982,55.3307],[-5.6203,55.3295],[-5.4824,55.4427],[-5.5178,55.668],[-5.6887,55.6281],[-5.7557,55.4773],[-5.6982,55.3307]]],[[[-0.2037,53.5233],[-0.3192,53.5789],[-0.2349,53.7994],[-0.2955,54.0332],[-0.6048,54.3002],[-0.8706,54.5472],[-1.1921,54.5954],[-1.3889,54.6805],[-1.5556,54.9216],[-1.696,55.2725],[-1.666,55.3796],[-1.719,55.4537],[-1.942,55.5561],[-2.245,55.811],[-2.5403,55.8847],[-2.7421,55.9572],[-2.9279,55.946],[-3.1615,55.8457],[-3.3559,55.8427],[-3.5772,55.8847],[-3.713,55.8847],[-3.895,55.9851],[-3.2935,55.9739],[-3.1698,56.0621],[-2.8953,56.0855],[-2.7729,56.1713],[-2.7209,56.1782],[-2.9494,56.253],[-3.1524,56.3368],[-2.9805,56.3536],[-2.6671,56.471],[-2.5148,56.6673],[-2.4131,56.7173],[-2.1589,57.0143],[-2.2032,57.0648],[-2.1078,57.2103],[-1.9446,57.4017],[-2.1504,57.572],[-2.854,57.5433],[-3.0926,57.577],[-3.4008,57.5764],[-3.7958,57.5415],[-4.1484,57.5545],[-4.2485,57.6363],[-4.1505,57.8348],[-3.9432,57.9584],[-3.1664,58.2751],[-3.0284,58.4057],[-3.165,58.5222],[-3.4405,58.5285],[-3.8305,58.5072],[-4.1389,58.4448],[-4.5099,58.4029],[-4.9256,58.567],[-5.1127,58.3949],[-4.9071,58.169],[-5.3459,58.0927],[-5.0556,57.751],[-5.23,57.7096],[-5.5685,57.7774],[-5.763,57.6198],[-5.4606,57.3881],[-5.5616,57.2993],[-5.7263,57.258],[-5.6253,56.9992],[-5.6659,56.9378],[-5.909,56.7333],[-6.0435,56.4748],[-5.8217,56.4005],[-5.6445,56.5163],[-5.5466,56.6524],[-5.4583,56.6321],[-5.2707,56.5441],[-5.3001,56.4287],[-5.497,56.1773],[-5.6331,55.9399],[-5.5702,55.7505],[-5.3336,55.8795],[-5.1346,55.8934],[-4.8484,56.0972],[-4.7107,56.1313],[-4.6233,55.908],[-4.7584,55.8197],[-4.8951,55.7721],[-4.9078,55.6639],[-4.7705,55.4884],[-4.6384,55.4279],[-4.91,55.1103],[-5.0667,54.9485],[-5.1114,54.7941],[-4.9025,54.7341],[-4.5999,54.6878],[-4.5003,54.7751],[-4.4607,54.8624],[-4.1216,54.7624],[-3.9077,54.7897],[-3.5767,54.9245],[-3.3087,54.8847],[-3.1525,54.8381],[-3.4304,54.6431],[-3.5692,54.415],[-3.4793,54.2746],[-3.2615,54.1412],[-2.8859,54.1687],[-2.8653,54.0283],[-2.9795,53.8209],[-3.0567,53.5136],[-2.9145,53.2671],[-3.3295,53.233],[-3.9567,53.2052],[-4.3175,53.0912],[-4.4919,52.991],[-4.6214,52.831],[-4.4683,52.8113],[-4.1475,52.8319],[-4.0939,52.7455],[-4.1236,52.3733],[-4.2947,52.2003],[-4.6191,52.0935],[-5.0615,52.0064],[-5.2488,51.8602],[-5.1786,51.7875],[-4.999,51.7017],[-4.1593,51.6768],[-3.4991,51.4597],[-3.1728,51.4669],[-2.7502,51.644],[-2.8947,51.3938],[-3.0331,51.3299],[-3.066,51.1777],[-3.483,51.1811],[-3.8252,51.2348],[-4.281,51.1872],[-4.2773,51.0637],[-4.4426,50.9687],[-4.5515,50.9972],[-4.6046,50.7787],[-4.8153,50.6042],[-5.0166,50.5605],[-5.2378,50.3463],[-5.7778,50.1341],[-5.4292,50.0679],[-5.2823,49.9638],[-4.967,50.2122],[-4.5406,50.358],[-4.3033,50.3235],[-4.2426,50.3915],[-4.0042,50.3141],[-3.8817,50.2004],[-3.715,50.2193],[-3.5632,50.3614],[-3.5215,50.6174],[-3.1109,50.6574],[-2.9606,50.7218],[-2.5505,50.57],[-2.432,50.6459],[-2.0237,50.57],[-2.0854,50.7028],[-1.3725,50.7663],[-1.1034,50.8167],[-0.839,50.7218],[-0.3357,50.8167],[-0.2037,50.7953],[0.1918,50.7313],[0.6726,50.9307],[0.8883,50.8927],[0.886,50.9819],[1.335,51.1207],[1.3647,51.3529],[1.1894,51.4055],[1.0301,51.3588],[0.8043,51.3783],[0.2542,51.4536],[0.6862,51.5604],[1.0313,51.8127],[1.5119,52.0258],[1.6569,52.2118],[1.6917,52.3114],[1.5857,52.65],[1.3759,52.8092],[1.0127,52.8884],[0.7418,52.9012],[0.5047,52.8475],[0.3268,52.7075],[0.0055,52.7867],[0.2509,53.0401],[0.2678,53.1267],[0.1745,53.2931],[0.081,53.3862],[-0.2037,53.5233]]]]},"properties":{"NAME":"Celts","SUBJECTO":"Celts","PARTOF":"Celts","BORDERPRECISION":1,"LINK":null}},
{"type":"Feature","geometry":{"type":"Polygon","coordinates":[[[32.9484,37.3831],[31.3707,36.7123],[31.902,36.4969],[32.0946,36.3329],[33.0023,36.567],[34.0394,36.3261],[34.1032,36.3803],[34.4851,36.6268],[34.6624,36.6478],[34.8699,36.5769],[35.0714,36.4877],[35.2205,36.388],[35.3542,36.4142],[35.3887,36.4536],[35.4171,36.4326],[35.4946,36.4431],[35.5476,36.5402],[35.5062,36.5586],[35.5676,36.5874],[35.6717,36.6058],[35.8909,36.7711],[35.9568,36.7475],[36.0824,36.6215],[36.1045,36.5612],[36.0953,36.4825],[35.8172,36.301],[35.8141,36.2985],[35.7086,36.2122],[35.6649,36.1335],[35.7185,36.0916],[35.8291,35.8848],[35.8559,35.8345],[35.7395,35.6903],[35.6914,35.685],[35.7332,35.5854],[35.6804,35.5277],[35.664,35.4595],[35.6073,35.4175],[35.7964,35.2707],[35.8414,35.0426],[35.8089,35.0138],[35.7508,34.7468],[35.8519,34.4929],[35.8731,34.4223],[35.821,34.3438],[36.3913,33.581],[36.3227,32.6203],[35.7711,31.6396],[37.2148,32.6889],[37.9082,32.7794],[38.7931,32.8948],[41.0577,32.8948],[41.9498,32.2086],[47.614,29.2722],[47.8449,29.5032],[47.996,29.4903],[47.9359,29.8014],[47.9114,29.8903],[47.9572,29.9476],[48.0283,29.9731],[48.2118,29.9481],[48.5106,29.9932],[48.5536,29.9946],[48.7138,30],[48.8013,30.0827],[48.9457,30.3879],[49.0202,30.4326],[49.2222,30.4775],[49.2351,30.2234],[49.3214,30.1029],[49.4524,30.0777],[49.511,30.0207],[49.7178,30.0021],[50.1324,30.0664],[50.3598,29.7429],[50.7047,29.4006],[50.7025,29.1338],[50.7968,29.0133],[51.0823,28.512],[51.3501,28.0361],[51.6113,27.827],[51.6989,27.8145],[51.9616,27.7769],[52.4104,27.581],[52.6338,27.3146],[52.7799,27.1878],[52.8908,27.0523],[53.3807,26.9096],[53.6339,26.7479],[54.0649,26.7014],[54.6461,26.3913],[54.7599,26.4106],[54.9255,26.538],[55.0981,26.7374],[55.3401,26.7994],[55.4249,26.9631],[55.6576,26.9969],[55.8053,27.0051],[55.8997,27.1048],[56.0678,27.1122],[56.4309,27.1066],[56.6678,27.0499],[56.6836,26.9684],[56.7904,26.9739],[56.9291,26.7519],[56.935,26.4645],[57.0663,26.3075],[57.1124,26.0762],[57.2451,26.0185],[57.2548,25.7933],[57.328,25.7871],[57.4649,25.7048],[57.8051,25.6483],[57.9005,25.5409],[58.1096,25.5473],[58.3687,25.5479],[58.7444,25.536],[58.3506,27.1991],[58.4192,27.7481],[59.8159,27.8478],[60.3406,27.8853],[60.6837,28.6402],[60.4331,29.249],[60.2034,29.8068],[60.6151,31.3165],[57.5957,30.9733],[55.4684,31.1792],[54.9194,31.5909],[54.0674,36.9415],[53.9845,36.7819],[53.7997,36.679],[53.139,36.6435],[52.6022,36.5769],[51.9931,36.4589],[51.7955,36.4323],[51.417,36.4557],[50.9393,36.1887],[47.9199,36.6004],[46.2044,36.3945],[44.6947,36.669],[43.9956,37.6239],[43.3909,39.3453],[41.4008,38.4532],[39.2742,38.219],[37.009,37.4925],[34.0582,37.4925],[32.9484,37.3831]]]},"properties":{"NAME":"Seleucid Kingdom","SUBJECTO":"Seleucid Kingdom","PARTOF":"Seleucid Kingdom","BORDERPRECISION":1,"LINK":null}},
{"type":"Feature","geometry":{"type":"Polygon","coordinates":[[[28.4777,40.3951],[28.004,40.3621],[27.9082,40.3506],[28.0065,40.4508],[27.9538,40.4877],[27.8078,40.5036],[27.6793,40.4614],[27.7998,40.4033],[27.8302,40.3453],[27.7639,40.2873],[27.5735,40.2952],[27.526,40.2971],[27.4496,40.3098],[27.3292,40.3558],[27.2718,40.4508],[27.0561,40.4297],[26.9965,40.3717],[26.7653,40.3769],[26.4817,40.187],[26.4031,40.1765],[26.3203,39.9919],[26.186,39.9972],[26.1276,39.8786],[26.1407,39.75],[26.1419,39.6606],[26.0849,39.604],[26.0641,39.4555],[26.139,39.4397],[26.5462,39.5133],[26.8043,39.5672],[26.9575,39.5483],[26.9262,39.4765],[26.8535,39.4608],[26.7202,39.3372],[26.6022,39.2557],[26.7041,39.2505],[26.7079,39.1821],[26.7971,39.1296],[26.8699,39.0568],[26.8708,39.056],[26.7898,39.0244],[26.7853,38.9403],[26.9368,38.9246],[27.0042,38.8848],[27.0349,38.8211],[26.9664,38.7699],[26.7095,38.6986],[26.6957,38.6408],[26.8288,38.583],[26.8197,38.5273],[26.9974,38.4001],[26.7425,38.2784],[26.5274,38.4182],[26.4687,38.4448],[26.3916,38.2191],[26.3932,38.1044],[26.5123,38.0663],[26.6793,38.1049],[26.9614,37.9461],[27.1398,37.8891],[27.1798,37.7744],[27.1411,37.6469],[27.1226,37.4939],[27.1604,37.3601],[27.3646,37.3286],[27.4887,37.2424],[28.24,37.4268],[28.6675,37.0955],[28.6274,36.6452],[28.8135,36.5352],[29.0023,36.6948],[29.2982,36.1731],[29.4719,36.0907],[29.662,36.0783],[30.1661,36.1876],[30.2799,36.1178],[30.3949,36.118],[30.4728,36.1883],[30.4967,36.373],[30.5401,36.647],[30.5936,36.7617],[30.9053,36.7942],[31.3707,36.7123],[32.9484,37.3831],[32.6804,38.0533],[32.0102,38.1873],[31.6081,39.3936],[29.9998,39.5276],[28.4777,40.3951]]]},"properties":{"NAME":"Roman Republic","SUBJECTO":"Roman Republic","PARTOF":"Roman Republic","BORDERPRECISION":1,"LINK":null}},
{"type":"Feature","geometry":{"type":"MultiPolygon","coordinates":[[[[8.6327,34.0265],[9.8339,32.9178],[10.9565,33.5751],[10.7781,33.473],[10.6502,33.4982],[10.4126,33.6311],[10.1487,33.8784],[10.0195,34.0815],[10.1164,34.2342],[10.574,34.6481],[10.8394,34.8012],[11.0828,35.145],[11.1251,35.2406],[10.989,35.6223],[10.8308,35.6793],[10.6026,35.8889],[10.5115,36.0862],[10.5092,36.2136],[10.6334,36.424],[10.9201,36.6539],[11.0394,36.909],[11.0238,37.0683],[10.8433,36.9915],[10.5806,36.7934],[10.3928,36.7166],[10.2715,36.7546],[10.1589,36.9965],[10.1327,37.1047],[10.0214,37.2001],[9.7322,37.2824],[9.4161,37.2754],[9.1503,37.1729],[8.8655,36.9684],[8.6367,36.8853],[8.145,36.8139],[7.9132,36.7752],[8.6327,34.0265]]],[[[32.0946,36.3329],[32.335,36.1284],[32.6403,36.008],[32.9041,35.9767],[33.1713,35.9709],[33.4817,36.0543],[33.7532,36.1466],[33.8337,36.0706],[33.8359,36.1073],[33.891,36.1388],[33.9541,36.1598],[33.9517,36.2516],[34.0394,36.3261],[33.0023,36.567],[32.0946,36.3329]]],[[[7.0731,43.5356],[6.8937,43.7745],[6.2016,44.0394],[4.6898,44.0527],[4.6662,44.0705],[4.2769,45.0566],[2.1225,42.3952],[-1.3629,42.2081],[-1.765,41.9401],[-1.7277,41.8133],[-8.8263,41.8676],[-8.9207,41.767],[-8.8548,41.5969],[-8.8518,41.4078],[-8.6941,40.9922],[-8.9697,40.19],[-8.9156,40.1381],[-9.1179,39.644],[-9.2993,39.4177],[-9.4153,39.3667],[-9.3977,39.2304],[-9.4598,38.9531],[-9.549,38.7745],[-9.5224,38.6899],[-9.3616,38.6711],[-9.1758,38.7322],[-9.0408,38.9202],[-8.9608,38.8185],[-8.9419,38.7419],[-9.0692,38.643],[-9.2852,38.6195],[-9.2366,38.4174],[-9.0223,38.461],[-8.8537,38.4996],[-8.7889,38.436],[-8.8473,38.3846],[-8.823,38.2061],[-8.9328,37.9618],[-8.851,37.9102],[-8.8487,37.8168],[-8.8415,37.5251],[-9.0166,37.0698],[-8.9908,36.99],[-8.6671,37.1214],[-8.5411,37.0886],[-8.2802,37.0886],[-8.0336,37.0088],[-7.836,37.0323],[-7.6034,37.163],[-7.4915,37.2082],[-7.2278,37.2259],[-7.0101,37.1653],[-6.948,37.1493],[-6.6322,37.0218],[-6.4217,36.7922],[-6.5005,36.7188],[-6.444,36.6232],[-6.2889,36.5722],[-6.305,36.4542],[-6.2045,36.2821],[-5.85,36.0717],[-5.6606,36.008],[-5.4855,36.0654],[-5.4879,36.1737],[-5.4571,36.1674],[-5.4243,36.0717],[-5.3867,36.11],[-5.3742,36.2375],[-5.2167,36.4096],[-4.7573,36.4861],[-4.4466,36.722],[-2.9698,36.7411],[-2.9153,36.6901],[-2.7615,36.6901],[-2.6243,36.8113],[-2.3551,36.8241],[-2.2388,36.7284],[-1.9405,36.9516],[-1.8169,37.2925],[-1.6257,37.4395],[-1.3646,37.5484],[-0.9183,37.5703],[-0.8026,37.615],[-0.8723,37.7598],[-0.6647,38.1766],[-0.5641,38.2149],[-0.4352,38.4303],[-0.2037,38.544],[-0.107,38.5915],[0.1726,38.7383],[0.1261,38.8214],[-0.1657,38.9541],[-0.2037,39.0127],[-0.2359,39.0624],[-0.3948,39.4345],[-0.2845,39.6368],[-0.2037,39.7994],[-0.1606,39.886],[0.2379,40.2402],[0.5051,40.5928],[0.7876,40.6569],[0.8271,40.7274],[0.7098,40.7851],[0.7338,40.875],[0.8792,41.0217],[1.3112,41.1573],[1.4421,41.18],[1.6098,41.2092],[2.0655,41.2956],[2.0807,41.2985],[2.2006,41.4461],[2.6283,41.6195],[3.1289,41.8572],[3.1566,42.0757],[3.0863,42.1207],[3.0865,42.3291],[3.0871,42.3686],[3.0685,42.4459],[3.0459,42.5395],[3.0019,42.7708],[3.0679,42.9446],[3.3179,43.196],[3.4787,43.3121],[3.8075,43.4672],[4.0782,43.4871],[4.4168,43.3461],[4.6465,43.3209],[4.7506,43.3533],[4.9098,43.3664],[5.0391,43.3315],[5.3792,43.5317],[5.5528,43.6338],[6.5044,43.5398],[6.8363,43.3833],[6.9231,43.4477],[7.0731,43.5356]]],[[[24.3143,37.9853],[24.5272,37.9674],[24.588,38.1529],[24.2915,38.1948],[24.2079,38.5524],[24.1319,38.6534],[23.7898,38.7186],[23.4097,38.9437],[23.2424,39.0441],[23.0143,38.9614],[22.8699,38.8372],[23.1208,38.8668],[23.4629,38.6237],[23.6377,38.5226],[23.5997,38.4572],[23.6605,38.4036],[24.0254,38.3857],[24.1927,38.1529],[24.3143,37.9853]]],[[[25.7359,36.3865],[25.7131,36.3498],[25.7664,36.3376],[25.8728,36.3559],[25.7892,36.4049],[25.7359,36.3865]]],[[[25.3862,36.3192],[25.4927,36.3314],[25.4927,36.4232],[25.371,36.4966],[25.333,36.4599],[25.3178,36.3988],[25.3862,36.3192]]],[[[25.9488,36.9111],[25.8576,36.8381],[25.7511,36.8138],[25.7511,36.7833],[25.8348,36.7833],[25.9564,36.8442],[26.0856,36.8989],[26.0248,36.9597],[25.9488,36.9111]]],[[[24.2991,36.7529],[24.4664,36.6493],[24.6792,36.759],[24.588,36.8685],[24.4284,36.7955],[24.2991,36.7529]]],[[[24.8237,36.6371],[24.9453,36.5699],[24.9757,36.6371],[24.8769,36.6797],[24.8237,36.6614],[24.8237,36.6371]]],[[[25.0441,36.6614],[25.0593,36.6187],[25.105,36.6371],[25.1962,36.6736],[25.1658,36.7407],[25.0441,36.6614]]],[[[25.3862,36.6371],[25.4319,36.698],[25.295,36.8077],[25.2494,36.759],[25.2418,36.7529],[25.2646,36.7041],[25.3862,36.6371]]],[[[24.5348,37.1175],[24.4284,37.2083],[24.4436,37.0993],[24.5348,37.1175]]],[[[24.3827,37.5707],[24.398,37.6671],[24.2991,37.6611],[24.2611,37.5406],[24.3827,37.5707]]],[[[24.3599,37.3052],[24.4892,37.3958],[24.398,37.4682],[24.3599,37.3958],[24.3599,37.3052]]],[[[25.0441,37.3777],[24.9453,37.5105],[24.8617,37.5286],[24.8465,37.3656],[25.0441,37.3777]]],[[[25.3178,37.4018],[25.4699,37.4381],[25.2722,37.5647],[24.7629,38.0033],[24.6564,37.9014],[24.9225,37.6912],[25.3178,37.4018]]],[[[24.7857,36.9475],[24.7172,37.0508],[24.6488,37.0143],[24.6792,36.905],[24.7857,36.9475]]],[[[25.1506,37.172],[24.9377,36.9597],[25.1126,36.9415],[25.3102,37.0022],[25.3102,37.1962],[25.1506,37.172]]],[[[25.6067,37.1235],[25.5383,37.2204],[25.3786,37.1175],[25.3406,37.0871],[25.3634,37.0083],[25.4547,36.9232],[25.5459,36.9597],[25.5991,37.0265],[25.6067,37.1235]]],[[[17.2586,40.956],[16.946,41.0938],[16.4203,41.2787],[15.991,41.4061],[15.8733,41.5021],[15.9891,41.6346],[16.1984,41.7457],[16.1874,41.8409],[16.0128,41.9043],[15.4486,41.8567],[14.9224,41.9718],[14.7385,42.0472],[14.72,42.1418],[14.5193,42.2297],[14.4294,42.3267],[14.4049,42.3531],[14.0928,42.6095],[14.0764,42.6338],[13.9151,42.8728],[13.7916,43.1233],[13.7316,43.3742],[13.6009,43.5348],[12.6972,43.9348],[12.5081,44.1315],[12.3451,44.301],[12.2807,44.5501],[12.2736,44.6726],[12.3778,44.7315],[12.476,44.7871],[12.5231,44.8828],[12.409,44.989],[12.3221,45.0424],[12.3125,45.1783],[12.1762,45.2143],[12.1804,45.2703],[12.2514,45.2903],[12.2797,45.4023],[12.4832,45.4623],[12.4482,45.3943],[12.8987,45.5584],[13.1046,45.5824],[13.1562,45.7265],[13.3677,45.6945],[13.4377,45.6384],[13.5646,45.7265],[13.6732,45.7145],[13.7824,46.7651],[11.7719,46.8991],[10.9678,46.8991],[10.0296,46.4971],[7.349,46.4971],[6.8129,45.8269],[6.8129,45.1568],[7.2976,43.6673],[7.3971,43.7641],[7.4675,43.8108],[7.5528,43.8675],[7.6891,43.887],[7.9795,43.9649],[8.0481,44.0184],[8.0896,44.0508],[8.1864,44.1264],[8.3428,44.2202],[8.6717,44.4174],[8.8966,44.4372],[9.157,44.3732],[9.6919,44.2196],[9.8255,44.1525],[9.9093,44.1105],[10.1367,43.9048],[10.1552,43.8811],[10.2614,43.7452],[10.2925,43.7054],[10.3379,43.5962],[10.4877,43.2359],[10.7428,42.8505],[11.1048,42.5491],[11.4974,42.3764],[11.9601,42.0074],[11.9634,42.0047],[12.3948,41.7295],[12.6415,41.5311],[12.9768,41.3714],[13.2714,41.3142],[13.3291,41.3111],[13.4984,41.3019],[13.7605,41.2067],[13.797,41.1934],[13.8525,41.091],[13.9419,40.998],[14.0509,40.7675],[14.24,40.8529],[14.3703,40.8515],[14.4946,40.73],[14.3498,40.6425],[14.3341,40.5936],[14.7433,40.7048],[14.951,40.5515],[14.9923,40.3722],[14.8987,40.2415],[15.0273,40.2122],[15.432,39.989],[15.5159,40.0659],[15.6662,40.0919],[15.757,39.9336],[15.8247,39.6606],[15.8465,39.6299],[15.9896,39.4284],[16.0826,39.0125],[16.1772,38.931],[16.2122,38.778],[16.1522,38.7013],[15.9898,38.7348],[15.8273,38.6227],[15.9335,38.5399],[15.7909,38.2964],[15.6266,38.2331],[15.6275,38.0042],[15.7102,37.9414],[15.7852,37.9097],[16.0529,37.9312],[16.3307,38.3207],[16.572,38.4571],[16.5222,38.725],[16.6133,38.8273],[16.7977,38.9259],[17.0947,38.915],[17.1807,39.0222],[17.121,39.086],[17.1074,39.2805],[17.1491,39.4218],[16.874,39.5437],[16.5321,39.6975],[16.535,39.8316],[16.6239,39.9678],[16.6044,40.0899],[16.7276,40.1836],[16.8441,40.3631],[16.9487,40.4811],[17.0841,40.5251],[17.2428,40.4958],[17.2042,40.3979],[17.4017,40.2919],[17.6191,40.2878],[17.8496,40.2435],[17.9677,40.1669],[18.0171,39.9479],[18.1601,39.8731],[18.3649,39.7467],[18.4337,39.8984],[18.5226,40.0941],[18.3836,40.3078],[18.0599,40.5135],[18.0339,40.5967],[17.3193,40.9293],[17.2586,40.956]]],[[[23.0361,41.7979],[22.9488,41.9145],[22.3602,41.9401],[20.8834,41.8443],[19.607,41.7615],[19.6194,41.5593],[19.4989,41.5236],[19.417,41.3453],[19.53,41.2184],[19.4454,40.9649],[19.5273,40.8659],[19.3392,40.5887],[19.4945,40.4027],[19.4837,40.2959],[19.3802,40.3236],[19.3691,40.2603],[19.8036,40.017],[20.0286,39.8138],[20.0908,39.6025],[20.1224,39.551],[20.2118,39.4049],[20.6778,39.0804],[20.9011,39.0617],[21.0072,39.113],[21.1595,39.0048],[21.1047,38.9218],[21.0065,38.8705],[20.8926,38.8958],[20.7718,38.8509],[21.1724,38.3478],[21.3645,38.412],[21.6613,38.4381],[21.8265,38.464],[22.3337,38.4267],[22.8756,38.2046],[22.9967,38.1793],[23.1163,38.1574],[22.8987,37.9976],[22.7472,37.9526],[21.9967,38.2508],[21.9058,38.2697],[21.7145,38.1354],[21.4405,38.1795],[21.2284,37.9049],[21.2211,37.8284],[21.2963,37.7265],[21.5173,37.5358],[21.6137,37.4148],[21.6265,37.3065],[21.5314,37.1151],[21.5882,36.9814],[21.7809,36.8225],[21.9842,37.0205],[22.1914,36.8552],[22.3903,36.5244],[22.5244,36.7221],[22.6736,36.7543],[22.9826,36.6148],[22.8869,37.0467],[22.7931,37.1386],[22.8133,37.2121],[22.7262,37.2885],[22.6387,37.4923],[22.6423,37.5849],[22.7133,37.5434],[22.9421,37.5184],[23.0253,37.4798],[22.971,37.3853],[23.1096,37.3466],[23.1858,37.3748],[23.185,37.4273],[23.4181,37.4693],[23.3122,37.5481],[23.3217,37.6374],[23.2205,37.6018],[23.1514,37.5901],[23.0489,37.6426],[23.0454,37.7736],[23.04,37.858],[22.8981,37.9],[22.9806,37.9578],[23.1958,38.005],[23.4193,38.0681],[23.4957,38.0681],[23.5407,38.0041],[23.6341,37.879],[23.7337,37.8579],[23.8355,37.6846],[23.9182,37.6846],[23.9873,37.7634],[23.88,38.1154],[23.967,38.1521],[23.9607,38.2099],[23.8039,38.3465],[23.6828,38.3465],[23.5558,38.3518],[23.4938,38.4831],[23.3562,38.4895],[23.191,38.6103],[23.1695,38.667],[23.0998,38.6723],[22.9842,38.667],[22.8994,38.7669],[22.7233,38.7932],[22.6023,38.8562],[22.4905,38.8769],[22.7842,38.9403],[22.8711,39.0243],[22.8349,39.1664],[22.7661,39.2028],[22.7203,39.2873],[22.8509,39.3661],[22.919,39.3451],[22.9813,39.3293],[23.0453,39.2715],[23.0998,39.1874],[23.0519,39.1033],[23.1585,39.1401],[23.2361,39.2032],[23.0742,39.4135],[22.8134,39.6027],[22.7545,39.8183],[22.6951,39.8345],[22.5551,39.9867],[22.5256,40.0642],[22.4674,40.1185],[22.4896,40.2305],[22.6023,40.3972],[22.4921,40.4983],[22.7013,40.5774],[22.77,40.6672],[22.8519,40.6513],[22.8755,40.5963],[22.8639,40.5352],[22.7481,40.4825],[22.9602,40.3147],[23.1411,40.2662],[23.2148,40.1818],[23.2763,40.0499],[23.2605,39.9709],[23.3744,39.9551],[23.5969,39.9341],[23.6386,39.9603],[23.5922,40.0025],[23.5233,40.0183],[23.4365,40.0447],[23.3668,40.1079],[23.321,40.1554],[23.2591,40.2292],[23.2931,40.2451],[23.2918,40.2873],[23.3491,40.282],[23.4425,40.2556],[23.5958,40.1923],[23.796,39.9867],[23.9066,39.9972],[23.9201,40.0552],[23.8687,40.1607],[23.8037,40.1554],[23.6517,40.2292],[23.6588,40.2873],[23.6272,40.3453],[23.7222,40.3482],[23.7748,40.3928],[23.9235,40.3453],[24.0478,40.3084],[24.0548,40.2609],[24.2206,40.1448],[24.2954,40.1765],[23.9237,40.4508],[23.7852,40.4772],[23.7091,40.63],[23.633,40.7132],[23.6347,40.7728],[23.7484,40.8044],[23.886,40.7329],[24.0252,40.7464],[24.2191,40.8297],[24.3543,40.971],[24.505,40.9841],[24.5191,40.8731],[24.7007,40.8783],[24.8121,40.9334],[25.0189,41.0171],[25.0463,40.9523],[25.3011,40.8959],[25.6357,40.8774],[25.9929,40.8525],[26.0207,40.6693],[26.124,40.6028],[26.4181,40.5778],[26.4548,40.5843],[26.5565,40.4983],[26.4575,40.435],[26.1948,40.3031],[26.2228,40.224],[26.2143,40.1607],[26.1409,40.0447],[26.2552,40.0816],[26.3759,40.2134],[26.5139,40.282],[26.6136,40.398],[26.8889,40.5247],[27.2638,40.6672],[27.313,40.7899],[27.4742,40.9628],[27.9322,40.9575],[26.8046,41.3419],[26.7387,41.3644],[26.2464,41.4605],[23.0361,41.7979]]],[[[8.2016,40.663],[8.4282,40.4649],[8.488,40.2088],[8.5085,39.9465],[8.465,39.6399],[8.3742,39.3078],[8.4172,39.2122],[8.5824,39.0658],[8.6961,38.9958],[8.8196,38.9769],[8.9314,39.0537],[8.9985,39.1751],[9.0625,39.2199],[9.2963,39.2331],[9.4789,39.1442],[9.6483,39.4572],[9.698,39.6935],[9.6308,40.0959],[9.6957,40.3137],[9.7878,40.442],[9.7937,40.5637],[9.5909,40.9029],[9.3062,41.1844],[8.9184,40.94],[8.7661,40.8628],[8.4056,40.8621],[8.2407,40.8553],[8.1595,40.7847],[8.2016,40.663]]],[[[9.0133,41.4577],[9.0389,41.3695],[9.173,41.3499],[9.3045,41.5753],[9.3575,41.9012],[9.4525,42.0483],[9.4867,42.4064],[9.4586,42.5561],[9.4055,42.5806],[9.4322,42.7941],[9.4142,42.9095],[9.3671,42.9881],[9.3032,42.9832],[9.2705,42.8825],[9.2804,42.7279],[9.2377,42.664],[9.1495,42.7107],[9.0184,42.691],[9.0004,42.6346],[8.879,42.6248],[8.6093,42.4873],[8.5004,42.3598],[8.6284,42.2617],[8.5172,42.2077],[8.5107,42.1341],[8.6265,42.0973],[8.6683,42.0287],[8.5896,41.9576],[8.5379,41.9478],[8.5619,41.8816],[8.6928,41.9135],[8.7424,41.8816],[8.6269,41.7321],[8.8233,41.688],[8.8546,41.6537],[8.7269,41.5606],[8.8288,41.492],[9.0133,41.4577]]],[[[12.6643,38.0725],[12.5166,37.9192],[12.4541,37.766],[12.532,37.6387],[12.6369,37.5815],[13.0116,37.5249],[13.8684,37.157],[14.2159,37.0493],[14.622,36.7761],[14.9424,36.7386],[15.0273,36.7451],[15.2206,37.0004],[15.3013,37.0579],[15.1162,37.2869],[15.1122,37.459],[15.181,37.6823],[15.4225,38.0526],[15.4729,38.1101],[15.4537,38.1674],[15.3867,38.2055],[14.7659,38.0576],[14.1345,37.9735],[13.8095,37.9664],[13.628,38.0298],[13.3225,38.2205],[13.066,38.0669],[12.7828,38.1174],[12.6643,38.0725]]]]},"properties":{"NAME":"Roman Republic","SUBJECTO":"Roman Republic","PARTOF":"Roman Republic","BORDERPRECISION":1,"LINK":null}},
{"type":"Feature","geometry":{"type":"Polygon","coordinates":[[[123.7479,41.6785],[125.8792,41.4754],[131.0843,46.1951],[124.2001,50.3279],[107.0738,50.9667],[100.7103,51.086],[100.6847,51.0193],[100.6882,50.983],[100.5072,50.8087],[100.4716,50.7391],[100.4452,50.6589],[100.4734,50.6251],[100.4726,50.6032],[100.4443,50.5681],[100.37,50.5383],[100.1934,50.4938],[100.1795,50.5313],[100.1938,50.594],[100.2281,50.6539],[100.2478,50.7428],[100.2942,51.0938],[95.8241,51.1777],[85.4139,48.3591],[94.9845,41.2233],[106.0433,37.5611],[106.7981,39.1394],[107.2099,41.7471],[107.6216,42.0902],[109.083,42.1177],[111.5029,41.8194],[113.3178,41.5956],[114.54,41.5557],[118.5462,41.425],[120.4728,41.6829],[122.5002,41.8096],[123.7479,41.6785]]]},"properties":{"NAME":"Xiongnu","SUBJECTO":"Xiongnu","PARTOF":"Xiongnu","BORDERPRECISION":1,"LINK":null}},
{"type":"Feature","geometry":{"type":"Polygon","coordinates":[[[-69.8561,-16.5057],[-70.3442,-17.1353],[-69.8349,-17.7224],[-68.7315,-17.682],[-68.7951,-16.3836],[-69.8561,-16.5057]]]},"properties":{"NAME":"Wankarani","SUBJECTO":"Wankarani","PARTOF":"Wankarani","BORDERPRECISION":1,"LINK":null}},
{"type":"Feature","geometry":{"type":"Polygon","coordinates":[[[34.5513,20.1833],[37.1357,21.1281],[37.1278,21.2272],[36.9035,21.7286],[36.8001,21.9149],[36.6604,22.1665],[36.4732,22.3377],[36.2902,22.5724],[36.1114,22.6483],[35.7463,22.9143],[35.6893,23.0213],[35.5759,23.2317],[35.4685,23.7207],[35.4879,23.7906],[35.6163,23.8353],[35.7247,23.9118],[35.6566,23.9943],[35.4535,24.1527],[35.1899,24.3999],[33.6572,24.018],[33.6901,23.5495],[33.3453,23.354],[33.7653,22.4766],[34.4121,20.5362],[34.4218,20.506],[34.5278,20.1748],[34.5513,20.1833]]]},"properties":{"NAME":"Blemmyes","SUBJECTO":"Blemmyes","PARTOF":"Blemmyes","BORDERPRECISION":1,"LINK":null}},
{"type":"Feature","geometry":{"type":"Polygon","coordinates":[[[-88.0729,35.1097],[-88.4127,35.4742],[-89.4482,35.4742],[-89.7933,35.2772],[-90.6217,34.1709],[-89.6553,33.3963],[-88.3782,33.1944],[-87.9044,34.4078],[-87.9632,34.5468],[-88.1252,34.9299],[-88.0729,35.1097]]]},"properties":{"NAME":"Miller","SUBJECTO":"Miller","PARTOF":"Miller","BORDERPRECISION":1,"LINK":null}},
{"type":"Feature","geometry":{"type":"MultiPolygon","coordinates":[[[[-96.2289,54.3833],[-97.0909,55.0654],[-101.0495,54.6243],[-101.5603,53.8971],[-101.2092,53.2717],[-100.2514,52.9843],[-98.7191,52.2283],[-97.1548,50.413],[-97.2825,49.5715],[-96.9313,48.5465],[-95.6224,47.7156],[-94.8442,47.4863],[-94.5053,47.3864],[-93.6431,47.1324],[-91.2022,47.3345],[-91.1503,47.3676],[-90.4567,47.7051],[-89.8159,47.9034],[-89.5167,48.0037],[-89.5592,48.006],[-89.5016,48.0542],[-89.3441,48.1482],[-89.2556,48.2498],[-89.236,48.3589],[-89.1136,48.4539],[-89.001,48.4943],[-88.8883,48.5347],[-88.8165,48.5071],[-88.8983,48.3711],[-88.8917,48.3144],[-88.8442,48.3257],[-88.7967,48.3371],[-88.6802,48.4732],[-88.5421,48.7228],[-88.43,48.825],[-88.3442,48.7798],[-88.3641,48.7023],[-88.4897,48.5926],[-88.5544,48.5058],[-88.5583,48.442],[-88.5269,48.4496],[-88.4602,48.5287],[-88.3959,48.5678],[-88.3647,48.5673],[-88.3342,48.5669],[-88.312,48.5865],[-88.3292,48.6265],[-88.3022,48.6323],[-88.231,48.6039],[-88.1695,48.6364],[-88.1176,48.7296],[-88.1258,48.7925],[-88.1941,48.825],[-88.2361,48.8715],[-88.2517,48.9321],[-88.2047,48.9765],[-88.1618,48.9875],[-89.9398,49.0303],[-91.4403,49.6336],[-91.078,49.9477],[-90.8829,50.117],[-90.706,50.2704],[-91.153,50.6362],[-93.9942,50.6362],[-95.2712,51.1197],[-96.197,52.3844],[-95.2393,53.157],[-95.2712,53.8594],[-96.2289,54.3833]]],[[[-83.4911,47.4572],[-84.385,48.3347],[-86.4601,48.9465],[-87.9916,48.9834],[-87.8474,48.9537],[-87.6548,48.8888],[-87.4621,48.8238],[-87.1916,48.7738],[-87.0357,48.8038],[-86.9342,48.8003],[-86.8872,48.7633],[-86.8237,48.7614],[-86.7437,48.7946],[-86.6868,48.7909],[-86.653,48.7503],[-86.5842,48.7411],[-86.4802,48.7632],[-86.384,48.7253],[-86.2955,48.6275],[-86.2246,48.4952],[-86.1714,48.3284],[-86.0769,48.1794],[-85.9412,48.0482],[-85.7973,47.9663],[-85.6453,47.9337],[-85.3884,47.9248],[-85.0266,47.9395],[-84.8935,47.8599],[-84.9892,47.6858],[-84.924,47.5242],[-84.6979,47.3749],[-84.6234,47.2609],[-84.7005,47.1823],[-84.7491,47.1007],[-84.7692,47.0161],[-84.7384,46.9526],[-84.6567,46.9102],[-84.6047,46.9029],[-84.5824,46.9307],[-84.519,46.9312],[-84.4146,46.9043],[-84.3724,46.8724],[-84.3925,46.8354],[-84.4422,46.817],[-84.4819,46.8171],[-84.5215,46.8171],[-84.5624,46.7852],[-84.5624,46.7841],[-84.5648,46.7214],[-84.5451,46.7076],[-84.503,46.7438],[-84.4668,46.7441],[-84.4515,46.7263],[-84.4362,46.7084],[-84.4657,46.6548],[-84.5552,46.5833],[-84.564,46.5233],[-84.4922,46.475],[-84.6,46.4597],[-84.8876,46.4773],[-85.0149,46.5578],[-84.9818,46.7012],[-85.1002,46.7487],[-85.3702,46.7002],[-85.6678,46.6748],[-85.9931,46.6722],[-86.2779,46.6057],[-86.5221,46.4754],[-86.7345,46.4411],[-86.9148,46.5029],[-87.0942,46.5265],[-87.2726,46.5119],[-87.4189,46.574],[-87.5329,46.713],[-87.6468,46.8096],[-87.7605,46.8639],[-87.8834,46.8984],[-88.0156,46.9132],[-88.1135,46.9141],[-88.1453,46.9075],[-88.1771,46.901],[-88.2228,46.8782],[-88.2505,46.8457],[-88.2704,46.8276],[-88.2825,46.8239],[-88.2525,46.8583],[-88.1805,46.9308],[-88.2327,46.9141],[-88.295,46.8767],[-88.4091,46.8081],[-88.4838,46.81],[-88.4566,46.9197],[-88.3896,47.0305],[-88.2827,47.1425],[-88.1612,47.2457],[-88.025,47.3402],[-87.8951,47.3921],[-87.7717,47.4014],[-87.7675,47.4223],[-87.767,47.4246],[-87.8241,47.4431],[-87.8812,47.4617],[-88.0586,47.4532],[-88.157,47.4311],[-88.2993,47.3991],[-88.5596,47.279],[-88.6997,47.1858],[-88.8396,47.0927],[-89.0902,46.9602],[-89.2945,46.8874],[-87.6732,46.4549],[-87.2582,45.6127],[-87.197,45.5676],[-87.1948,45.5699],[-87.0383,45.7612],[-86.9952,45.8638],[-86.9721,45.8532],[-86.9689,45.7294],[-86.9352,45.6811],[-86.9031,45.6947],[-86.8709,45.7083],[-86.8244,45.7566],[-86.7956,45.826],[-86.7201,45.8672],[-86.5978,45.8801],[-86.5426,45.8578],[-86.5542,45.8002],[-86.5996,45.7481],[-86.6391,45.7248],[-86.6787,45.7016],[-86.6808,45.6948],[-86.6922,45.6588],[-86.6489,45.6263],[-86.6402,45.6198],[-86.606,45.6282],[-86.5894,45.6839],[-86.5244,45.7316],[-86.4112,45.7713],[-86.3349,45.8293],[-86.2955,45.9053],[-86.1297,45.947],[-85.8375,45.9542],[-85.6447,45.9924],[-85.5512,46.0616],[-85.3818,46.0748],[-85.1365,46.0321],[-84.9484,45.9678],[-84.883,45.9249],[-84.8177,45.882],[-84.763,45.8167],[-84.7843,45.7719],[-84.8496,45.7532],[-84.9586,45.7605],[-84.9957,45.7508],[-84.9608,45.7241],[-84.9872,45.678],[-85.0746,45.6124],[-85.1044,45.5474],[-85.0765,45.4831],[-85.0257,45.4367],[-84.9519,45.4082],[-85.0269,45.3673],[-85.2506,45.3141],[-85.3692,45.2026],[-85.3826,45.0329],[-85.4234,44.8981],[-85.4916,44.7982],[-85.5384,44.7515],[-85.5638,44.7578],[-85.5511,44.8187],[-85.5004,44.9339],[-85.5048,44.9357],[-85.5346,44.8799],[-85.5645,44.824],[-85.6088,44.7886],[-85.6379,44.8294],[-85.6308,44.8991],[-85.5873,44.9976],[-85.5778,45.0668],[-85.6022,45.1068],[-85.6005,45.1284],[-85.5725,45.1318],[-85.5506,45.1467],[-85.5349,45.1733],[-85.53,45.1924],[-85.533,45.1982],[-85.536,45.2039],[-85.5405,45.2104],[-85.5434,45.2118],[-85.611,45.1466],[-85.7433,45.0149],[-85.8735,44.9385],[-86.0018,44.9172],[-86.072,44.8652],[-86.0843,44.7826],[-86.1029,44.7614],[-85.7897,44.5306],[-84.6404,45.1868],[-84.385,45.5233],[-84.1724,45.5889],[-84.1823,45.5995],[-84.3552,45.6738],[-84.6338,45.751],[-84.7468,45.8544],[-84.6942,45.9842],[-84.6328,46.0289],[-84.5627,45.9884],[-84.3941,45.9624],[-84.1272,45.9508],[-83.9716,45.9505],[-83.9273,45.9614],[-83.9147,45.9909],[-83.9307,46.031],[-83.9339,46.039],[-83.9274,46.0867],[-83.8953,46.1342],[-83.8627,46.1508],[-83.8297,46.1366],[-83.8066,46.1719],[-83.7936,46.257],[-83.6136,46.266],[-83.2666,46.199],[-83.0879,46.1852],[-83.4911,47.4572]]]]},"properties":{"NAME":"Laurel complex","SUBJECTO":"Laurel complex","PARTOF":"Laurel complex","BORDERPRECISION":1,"LINK":null}},
{"type":"Feature","geometry":{"type":"Polygon","coordinates":[[[-88.3782,33.1944],[-88.5943,33.0076],[-88.5391,32.8223],[-87.4738,32.8103],[-86.9938,32.8223],[-86.842,32.6482],[-85.7658,34.1456],[-85.7699,34.1596],[-85.8486,34.4306],[-86.3039,34.9299],[-87.1456,35.0542],[-88.0562,35.1671],[-88.0729,35.1097],[-88.1252,34.9299],[-87.9632,34.5468],[-87.9044,34.4078],[-88.3782,33.1944]]]},"properties":{"NAME":"Copena","SUBJECTO":"Copena","PARTOF":"Copena","BORDERPRECISION":1,"LINK":null}},
{"type":"Feature","geometry":{"type":"Polygon","coordinates":[[[-88.5391,32.8223],[-89.3475,32.6165],[-89.67,31.7848],[-89.1939,30.9587],[-88.6718,30.985],[-88.1649,30.9982],[-88.0346,30.6794],[-87.9729,30.5806],[-87.7746,30.2628],[-87.6922,30.263],[-87.404,30.3074],[-87.383,30.4416],[-87.0891,30.359],[-87.3049,31.3005],[-86.842,32.6482],[-86.9938,32.8223],[-87.4738,32.8103],[-88.5391,32.8223]]]},"properties":{"NAME":"Porter","SUBJECTO":"Porter","PARTOF":"Porter","BORDERPRECISION":1,"LINK":null}},
{"type":"Feature","geometry":{"type":"Polygon","coordinates":[[[-83.7441,43.6207],[-83.81,43.6529],[-83.8745,43.6845],[-84.7731,43.3828],[-84.9027,43.5239],[-85.3346,43.9919],[-86.4534,44.1299],[-86.4877,44.0194],[-86.4941,43.9991],[-86.4518,43.8823],[-86.4583,43.7762],[-86.5138,43.6808],[-86.4744,43.5152],[-86.4697,43.4955],[-86.3262,43.2202],[-86.2426,42.9879],[-86.219,42.7986],[-86.2301,42.6166],[-86.2759,42.442],[-86.3718,42.2482],[-86.5178,42.0351],[-86.6745,41.8744],[-86.8418,41.766],[-87.0251,41.6861],[-87.2245,41.6346],[-87.3751,41.6344],[-87.3528,41.167],[-87.192,40.705],[-86.5225,40.7378],[-86.1337,41.1293],[-85.7018,41.6962],[-84.7383,41.7239],[-84.4491,42.8943],[-84.4066,43.0422],[-83.7796,43.3357],[-83.7441,43.6207]]]},"properties":{"NAME":"Goodall Focus","SUBJECTO":"Goodall Focus","PARTOF":"Goodall Focus","BORDERPRECISION":1,"LINK":null}},
{"type":"Feature","geometry":{"type":"Polygon","coordinates":[[[-80.0534,43.8084],[-80.4048,44.3796],[-80.5045,44.5886],[-80.5204,44.596],[-80.605,44.635],[-80.6326,44.6929],[-80.6837,44.7175],[-80.7583,44.7087],[-80.8328,44.67],[-80.9072,44.6015],[-80.9343,44.6235],[-80.9139,44.736],[-80.9627,44.7808],[-81.0217,44.7694],[-81.0807,44.7581],[-81.0949,44.7992],[-81.0052,44.9042],[-80.9907,44.9405],[-81.0513,44.9079],[-81.1174,44.9086],[-81.1888,44.9426],[-81.2524,45.0053],[-81.3082,45.0967],[-81.3248,45.1681],[-81.3023,45.2195],[-81.3904,45.248],[-81.5892,45.2538],[-81.698,45.2461],[-81.7168,45.225],[-81.6892,45.2087],[-81.6151,45.1973],[-81.5428,45.1366],[-81.4723,45.0265],[-81.4196,44.9788],[-81.3848,44.9934],[-81.344,44.9049],[-81.297,44.7131],[-81.3546,44.5462],[-81.5167,44.4042],[-81.6381,44.2683],[-81.6783,44.2035],[-81.7186,44.1386],[-81.7522,43.8923],[-81.7387,43.5294],[-81.8079,43.3176],[-81.9598,43.2569],[-82.0699,43.1845],[-82.138,43.1004],[-82.1656,43.084],[-81.8586,42.2641],[-81.8384,42.2903],[-81.8153,42.3585],[-81.6823,42.4574],[-81.4395,42.5871],[-81.0142,42.6242],[-80.4064,42.5687],[-80.0876,42.543],[-80.0577,42.5471],[-80.0836,42.5524],[-80.1458,42.5654],[-80.3517,42.5979],[-80.395,42.6565],[-80.2756,42.7411],[-80.0229,42.8066],[-79.637,42.8531],[-80.1273,43.2586],[-80.0534,43.8084]]]},"properties":{"NAME":"Saugeen Complex","SUBJECTO":"Saugeen Complex","PARTOF":"Saugeen Complex","BORDERPRECISION":1,"LINK":null}},
{"type":"Feature","geometry":{"type":"Polygon","coordinates":[[[-84.7383,41.7239],[-84.7472,41.6882],[-84.5039,41.2629],[-84.0498,40.7366],[-83.6631,40.6075],[-83.6443,40.6013],[-82.4441,40.7857],[-82.2753,40.9131],[-81.9576,41.1531],[-81.9452,41.5088],[-82.1308,41.482],[-82.3677,41.4145],[-82.5676,41.4045],[-82.7303,41.4521],[-82.8449,41.4619],[-82.9112,41.4339],[-82.972,41.4279],[-83.0273,41.4439],[-82.969,41.473],[-82.7973,41.5153],[-82.748,41.5337],[-82.8211,41.5282],[-82.8514,41.5412],[-82.8389,41.5724],[-82.8578,41.5698],[-82.9079,41.5332],[-83.0337,41.5626],[-83.2351,41.6579],[-83.3715,41.7045],[-83.4428,41.7022],[-83.4499,41.7539],[-83.3928,41.8595],[-83.3365,41.9205],[-83.281,41.937],[-83.2634,41.9583],[-83.2838,41.9846],[-83.2637,42.0021],[-83.2031,42.0108],[-83.1777,42.03],[-83.1874,42.0596],[-83.1251,42.051],[-82.9907,42.0042],[-82.8454,41.9935],[-82.6895,42.0191],[-82.5859,42.0014],[-82.5347,41.9403],[-82.4842,41.9601],[-82.4689,41.9911],[-82.7685,42.2669],[-82.3638,43.0308],[-82.4647,43.1954],[-82.5636,43.5841],[-82.6581,43.8396],[-82.7481,43.962],[-82.8356,44.0345],[-82.9207,44.0573],[-83.0735,44.0305],[-83.294,43.9542],[-83.3839,43.9106],[-83.3434,43.8997],[-83.412,43.8178],[-83.5899,43.6651],[-83.7441,43.6207],[-83.7796,43.3357],[-84.4066,43.0422],[-84.4491,42.8943],[-84.7383,41.7239]]]},"properties":{"NAME":"Couture Complex","SUBJECTO":"Couture Complex","PARTOF":"Couture Complex","BORDERPRECISION":1,"LINK":null}},
{"type":"Feature","geometry":{"type":"Polygon","coordinates":[[[-72.7989,47.5565],[-74.1904,47.9657],[-76.0558,47.308],[-76.0601,47.3064],[-80.2996,45.9479],[-80.5333,45.65],[-80.4979,45.608],[-80.5089,45.5783],[-80.4899,45.5789],[-80.4408,45.6099],[-80.3974,45.6093],[-80.3596,45.5772],[-80.3549,45.5361],[-80.3831,45.4861],[-80.369,45.4517],[-80.3126,45.4329],[-80.2885,45.4068],[-80.2967,45.3734],[-80.2676,45.3507],[-80.2014,45.3389],[-80.1861,45.3493],[-80.2217,45.3821],[-80.2103,45.4016],[-80.1519,45.4077],[-80.0986,45.3957],[-80.0504,45.3653],[-80.0551,45.3129],[-80.1127,45.2384],[-80.087,45.1771],[-79.978,45.129],[-79.9671,45.1001],[-80.0543,45.0904],[-80.0421,45.0689],[-79.9307,45.0355],[-79.8941,45.0087],[-79.9323,44.9885],[-79.9181,44.9668],[-79.8513,44.9437],[-79.8117,44.9018],[-79.7991,44.8411],[-79.7775,44.806],[-79.7468,44.7964],[-79.7321,44.7985],[-79.7333,44.8122],[-79.7211,44.8215],[-79.6955,44.8263],[-79.6887,44.8308],[-79.7007,44.8349],[-79.7054,44.8369],[-79.7027,44.8367],[-79.7096,44.842],[-79.7262,44.8528],[-79.7375,44.8625],[-79.7436,44.8712],[-79.729,44.8777],[-79.6937,44.882],[-79.6759,44.8668],[-79.6753,44.8321],[-79.687,44.8096],[-79.7109,44.7993],[-79.7056,44.7794],[-79.6713,44.7498],[-79.7133,44.7393],[-79.8315,44.7478],[-79.8893,44.7671],[-79.8865,44.7973],[-79.8969,44.8113],[-79.9203,44.8093],[-79.9338,44.7989],[-79.9373,44.7801],[-79.9416,44.7695],[-79.9467,44.767],[-79.9497,44.7911],[-79.9507,44.8417],[-79.9944,44.8526],[-80.0435,44.8362],[-80.0808,44.8238],[-80.0878,44.774],[-80.0154,44.7031],[-80.0099,44.6184],[-80.0713,44.52],[-80.2243,44.5046],[-80.2916,44.5232],[-79.8213,43.8695],[-79.3675,43.6148],[-79.2667,43.669],[-79.1529,43.7724],[-78.7839,43.8661],[-78.7384,43.8777],[-78.0231,43.9847],[-77.6228,44.0102],[-77.5375,43.9542],[-77.4434,43.9344],[-77.3405,43.9509],[-77.2895,43.956],[-77.2904,43.9497],[-77.2937,43.9447],[-77.2992,43.9411],[-77.288,43.9445],[-77.2599,43.955],[-77.2529,43.9478],[-77.2669,43.923],[-77.2845,43.9173],[-77.3057,43.9308],[-77.3109,43.9403],[-77.3003,43.9459],[-77.3056,43.9487],[-77.327,43.9486],[-77.315,43.9253],[-77.2696,43.8786],[-77.2231,43.8513],[-77.1754,43.8433],[-77.0786,43.8628],[-76.9328,43.9097],[-76.8967,43.9355],[-76.9704,43.9402],[-77.0138,43.9353],[-77.0268,43.9209],[-77.0358,43.9129],[-77.041,43.911],[-77.0456,43.9124],[-77.0497,43.9168],[-76.9996,43.9669],[-76.8954,44.0626],[-76.8808,44.0927],[-76.9557,44.0571],[-77.0223,44.0402],[-77.0804,44.0419],[-77.1162,44.0343],[-77.1298,44.0172],[-77.1191,44.05],[-77.0844,44.1325],[-77.1274,44.1488],[-77.2484,44.0989],[-77.3098,44.0926],[-77.3118,44.13],[-77.3852,44.128],[-77.5301,44.0865],[-77.5398,44.0906],[-77.4144,44.14],[-77.3115,44.1629],[-77.2309,44.1592],[-77.152,44.168],[-77.0749,44.1893],[-77.0248,44.1998],[-77.0018,44.1995],[-76.9848,44.2085],[-76.9738,44.2269],[-76.9625,44.2396],[-76.951,44.2465],[-76.9758,44.2138],[-77.0372,44.1414],[-77.0341,44.1293],[-76.9667,44.1776],[-76.9325,44.1951],[-76.9316,44.1816],[-76.9198,44.1749],[-76.8972,44.1749],[-76.8855,44.1695],[-76.8848,44.1588],[-76.9327,44.1359],[-77.0292,44.1008],[-77.0633,44.0751],[-77.0349,44.0589],[-76.8758,44.1117],[-76.5862,44.2335],[-76.4486,44.2774],[-76.463,44.2435],[-76.4316,44.2484],[-76.3571,44.2601],[-76.1308,44.3273],[-76.017,44.3359],[-76.0154,44.2859],[-76.1035,44.2218],[-76.2811,44.1435],[-76.3478,44.0685],[-76.3035,43.9969],[-76.2624,43.9909],[-76.2245,44.0505],[-76.182,44.0718],[-76.1349,44.0547],[-76.1336,44.0267],[-76.1781,43.9877],[-76.1898,43.9661],[-76.1688,43.9617],[-76.1357,43.9739],[-76.0906,44.0026],[-76.0624,44.014],[-76.051,44.008],[-76.0854,43.9661],[-76.1655,43.8882],[-76.2189,43.8574],[-76.2455,43.8737],[-76.2689,43.8712],[-76.289,43.8498],[-76.2634,43.7932],[-76.192,43.7013],[-76.1739,43.6252],[-76.1812,43.6126],[-75.5943,43.6803],[-74.5817,43.8225],[-74.1251,44.2134],[-73.0816,44.7562],[-72.1685,44.8642],[-70.5596,45.3093],[-70.0379,46.1742],[-70.364,46.8772],[-70.871,47.0501],[-71.1032,47.1292],[-72.7989,47.5565]]]},"properties":{"NAME":"Point Peninsula","SUBJECTO":"Point Peninsula","PARTOF":"Point Peninsula","BORDERPRECISION":1,"LINK":null}},
{"type":"Feature","geometry":{"type":"Polygon","coordinates":[[[-75.5642,-12.8732],[-76.2381,-13.5679],[-76.2382,-13.9086],[-76.2418,-14.1056],[-76.0526,-14.4101],[-75.7853,-14.7272],[-75.2309,-15.2216],[-75.2001,-15.244],[-74.6214,-15.665],[-74.3834,-15.8232],[-74.2181,-15.3834],[-73.8897,-14.855],[-74.2181,-14.2949],[-74.6391,-14.1044],[-74.6305,-13.9054],[-75.5642,-12.8732]]]},"properties":{"NAME":"Nazca","SUBJECTO":"Nazca","PARTOF":"Nazca","BORDERPRECISION":1,"LINK":null}},
{"type":"Feature","geometry":{"type":"Polygon","coordinates":[[[21.8631,57.5967],[21.7247,57.5725],[21.5961,57.4433],[21.4825,57.3339],[21.4206,57.2894],[21.4156,57.0694],[21.2614,56.9228],[21.07,56.8458],[21.0494,56.6719],[21.0267,56.6142],[20.9955,56.5083],[20.9753,56.23],[21.0464,56.1092],[21.0672,55.9914],[21.0148,55.6971],[21.0185,55.634],[21.2163,55.3437],[21.2767,55.3228],[21.2661,55.2056],[21.2242,55.2],[21.1908,55.1492],[21.1748,55.0675],[21.2278,54.9844],[21.2422,54.9436],[21.1725,54.919],[21.9796,54.9915],[22.4494,55.4511],[22.8161,56.1438],[22.3173,56.8082],[21.9252,57.4971],[21.8631,57.5967]]]},"properties":{"NAME":"Curonians","SUBJECTO":"Curonians","PARTOF":"Baltic archeological cultures","BORDERPRECISION":1,"LINK":null}},
{"type":"Feature","geometry":{"type":"Polygon","coordinates":[[[49.669,40.2403],[49.8499,40.2722],[49.9137,40.3254],[50.0307,40.3467],[50.1264,40.3467],[50.3073,40.3254],[50.4668,40.2616],[50.4668,40.3254],[50.4243,40.4105],[50.3179,40.4956],[50.1902,40.5701],[50.0201,40.602],[49.8073,40.5807],[49.6052,40.6871],[49.6052,40.7615],[49.4775,40.836],[49.3499,40.953],[49.2861,41.0594],[49.2435,41.2934],[49.1159,41.4317],[49.0869,41.4528],[48.9989,41.5168],[48.8925,41.687],[48.6832,41.8359],[48.6623,41.9017],[48.5004,41.9287],[48.4195,42.0905],[48.2541,42.2484],[48.2217,42.2794],[48.1318,42.4053],[47.9699,42.5941],[47.844,42.6211],[47.7901,42.8548],[47.7361,42.8998],[47.5653,43.0077],[47.5833,43.1875],[47.6552,43.2775],[47.6013,43.3224],[47.5743,43.5023],[47.6732,43.6641],[47.7361,43.8619],[47.6642,43.8529],[47.6103,43.754],[47.5653,43.6012],[47.5203,43.5113],[47.4934,43.5832],[47.5383,43.6731],[47.5653,43.844],[47.4394,44.0328],[47.3315,44.1856],[47.2236,44.2036],[47.1427,44.3385],[46.9988,44.3565],[46.8459,44.4464],[46.81,44.5363],[46.8729,44.6802],[47.0258,44.7881],[47.1697,44.86],[47.2506,44.9859],[47.3945,45.1748],[47.4754,45.3186],[47.5563,45.4535],[47.6552,45.5434],[47.6013,45.6603],[47.6282,45.7322],[47.6732,45.7502],[47.7541,45.7143],[47.871,45.6783],[48.0149,45.7143],[48.3026,45.7682],[48.4825,45.8851],[48.6353,45.975],[48.7702,45.8851],[48.8331,45.9211],[48.8331,46.02],[48.8331,46.0829],[48.8871,46.0829],[49.0579,46.1369],[49.2378,46.2628],[49.3132,46.3527],[49.4086,46.4336],[49.5345,46.5415],[49.7233,46.5325],[49.757,46.5366],[46.8678,50.3384],[35.1751,49.2906],[28.8548,47.1522],[29.1566,46.6911],[28.2214,45.4841],[27.9442,44.9297],[28.0366,44.3753],[27.5849,43.7944],[28.1749,43.4455],[28.1871,43.4501],[28.3281,43.4375],[28.4457,43.4764],[28.4805,43.5923],[28.5101,43.7431],[28.5299,43.8435],[28.5731,44.1978],[28.6862,44.4881],[28.9182,44.7658],[29.0897,44.8757],[29.2616,44.8954],[29.4575,44.9151],[29.579,45.0575],[29.7108,45.2583],[29.6832,45.3748],[29.6159,45.4102],[29.5361,45.4522],[29.5004,45.5234],[29.6295,45.7504],[29.7297,45.77],[29.755,45.7768],[30.0688,45.8614],[30.4328,46.1757],[30.5205,46.2514],[30.8329,46.5766],[31.0872,46.6355],[31.5377,46.7014],[31.781,46.7019],[31.9513,46.8646],[32.1888,46.5922],[31.9259,46.4099],[32.1141,46.2156],[32.2022,46.1704],[32.5164,46.1256],[32.9729,46.1459],[33.3325,46.1661],[33.5279,46.1341],[33.6388,45.9268],[33.5395,45.8747],[33.1916,45.7898],[32.9023,45.6726],[32.5032,45.4451],[32.5753,45.3611],[32.6434,45.3806],[32.9263,45.3877],[33.0135,45.3814],[33.3979,45.2527],[33.5167,45.1235],[33.5594,44.9361],[35.0319,45.5343],[35.0081,45.6119],[34.1273,46.0639],[33.8391,46.1931],[34.0642,46.2649],[34.4957,46.2787],[34.6923,46.2531],[34.9068,46.273],[35.0464,46.3577],[35.2124,46.6371],[37.7735,48.6415],[38.4436,48.7755],[39.7839,48.7755],[40.32,48.2394],[39.2478,45.9609],[37.7741,44.7445],[37.8804,44.7189],[38.1092,44.4938],[38.277,44.4232],[38.5561,44.3851],[38.9237,44.2119],[39.4587,43.8329],[40.0981,43.3776],[40.2516,43.2682],[40.5571,43.1466],[40.9693,43.0767],[41.1226,43.0191],[41.4097,42.7882],[41.5027,42.6085],[41.6518,42.1206],[41.6805,41.7933],[42.7657,41.8692],[43.7671,41.8103],[44.7891,41.7501],[47.0109,41.3931],[48.5583,40.5599],[48.955,40.3218],[49.669,40.2403]]]},"properties":{"NAME":"Sarmates","SUBJECTO":"Sarmates","PARTOF":"Scythians","BORDERPRECISION":1,"LINK":null}},
{"type":"Feature","geometry":{"type":"Polygon","coordinates":[[[26.7387,41.3644],[26.8064,41.3511],[26.8046,41.3419],[27.9322,40.9575],[28.0264,41.0262],[28.1733,41.0579],[28.5962,40.947],[28.8278,40.9147],[28.9645,40.9892],[29.0811,41.2005],[29.0124,41.2548],[28.7402,41.3248],[28.3715,41.4331],[28.1044,41.593],[28.0698,41.625],[28.0182,41.7532],[28.0262,41.8824],[27.918,41.9777],[27.9134,42.0781],[27.7377,42.247],[27.7225,42.3162],[27.6079,42.4168],[27.4947,42.4009],[27.502,42.5163],[27.654,42.6837],[27.8362,42.7355],[27.8699,42.7999],[27.8873,43.0635],[28.0346,43.3919],[28.1749,43.4455],[27.5849,43.7944],[27.1852,43.2804],[27.1802,43.2551],[26.5724,47.1266],[21.7068,46.2492],[21.8973,43.3193],[22.9488,41.9145],[23.0361,41.7979],[26.2464,41.4605],[26.7387,41.3644]]]},"properties":{"NAME":"Daces","SUBJECTO":"Daces","PARTOF":"Daces","BORDERPRECISION":1,"LINK":null}},
{"type":"Feature","geometry":{"type":"MultiPolygon","coordinates":[[[[61.1641,37.6984],[66.1515,39.6933],[65.2107,42.8536],[68.5625,46.3592],[54.5373,51.0257],[46.8678,50.3384],[49.757,46.5366],[49.9481,46.5595],[50.2718,46.6854],[50.6315,46.9102],[50.8204,46.9192],[51.1171,47.063],[51.3689,47.09],[51.6746,47.0361],[51.7915,47.0091],[51.9353,46.8922],[52.1422,46.8382],[52.3759,46.8742],[52.4659,46.9102],[52.5558,46.9821],[52.8615,46.9372],[53.0234,46.9192],[53.1852,46.8652],[53.2302,46.7303],[53.2841,46.6764],[53.1672,46.5865],[53.1223,46.4966],[53.1852,46.4246],[53.2572,46.3167],[53.2032,46.1908],[53.1492,45.957],[53.0503,45.8312],[52.9245,45.7322],[52.8345,45.6423],[52.8435,45.5075],[53.0593,45.4535],[53.2122,45.3636],[53.2841,45.3276],[53.0593,45.3366],[52.6097,45.3996],[52.1062,45.3816],[51.9983,45.3816],[51.8454,45.4355],[51.7735,45.3906],[51.6296,45.3546],[51.5127,45.3726],[51.4588,45.3096],[51.3778,45.1748],[51.3419,45.0579],[51.216,45.0399],[51.0991,44.878],[51.189,44.7701],[51.3689,44.6802],[51.4858,44.6262],[51.5757,44.5543],[51.4138,44.5183],[51.3329,44.4824],[51.0901,44.5633],[50.8743,44.6262],[50.7214,44.6352],[50.5416,44.6442],[50.4067,44.6173],[50.3348,44.5633],[50.3258,44.3655],[50.3887,44.2935],[50.7035,44.2576],[50.9552,44.2036],[50.9912,44.0777],[51.171,43.7181],[51.261,43.6102],[51.3689,43.5562],[51.4588,43.3854],[51.4228,43.2595],[51.4228,43.1696],[51.5847,43.1786],[51.7375,43.1786],[51.8814,43.0527],[51.9803,42.9088],[52.0702,42.8279],[52.1601,42.8459],[52.295,42.8728],[52.3759,42.8009],[52.5828,42.8279],[52.7626,42.7559],[52.8345,42.648],[52.7536,42.5581],[52.7356,42.4232],[52.6727,42.2794],[52.5828,42.1894],[52.5198,42.0726],[52.5738,42.0186],[52.6007,41.9377],[52.5593,41.7578],[52.6826,41.6937],[52.7114,41.6075],[52.6922,41.5309],[52.855,41.3872],[52.97,41.1382],[52.9604,41.2723],[52.9317,41.3776],[52.97,41.5596],[52.9987,41.6841],[52.9412,41.7703],[52.9795,41.9044],[53.0657,42.0289],[53.2669,42.0864],[53.4584,42.096],[53.7362,42.1343],[53.9852,42.1055],[54.0235,42.0481],[54.0235,41.9523],[54.0235,41.8565],[54.1193,41.7799],[54.1385,41.6266],[54.1672,41.483],[54.3588,41.3872],[54.5982,41.2435],[54.7514,41.1382],[54.8281,40.9849],[54.8185,40.8796],[54.7227,40.8508],[54.6078,40.8125],[54.5024,40.8508],[54.4545,40.9179],[54.3683,40.8987],[54.3875,40.8029],[54.4545,40.7167],[54.4162,40.6593],[54.33,40.688],[54.2247,40.7263],[54.1097,40.6784],[53.9756,40.6497],[53.8416,40.6401],[53.7937,40.7263],[53.7649,40.87],[53.6979,40.8796],[53.65,40.8796],[53.6596,40.8125],[53.6117,40.7455],[53.4393,40.8029],[53.2573,40.7646],[53.1807,40.8413],[53.1519,40.8987],[53.0562,41.052],[53.0179,40.9466],[52.97,40.8221],[52.9508,40.7072],[52.9029,40.5635],[52.8263,40.4677],[52.8455,40.3336],[52.8455,40.1804],[52.9125,40.0463],[52.9891,39.9314],[53.0466,39.9984],[53.1903,39.9601],[53.3627,39.9601],[53.5063,39.9984],[53.6883,39.9792],[53.5925,39.893],[53.5159,39.7781],[53.5542,39.6536],[53.6691,39.644],[53.8128,39.5482],[53.7937,39.4908],[53.7362,39.5004],[53.5446,39.5387],[53.3722,39.5195],[53.3148,39.5674],[53.2477,39.4525],[53.2094,39.4046],[53.2477,39.2992],[53.3339,39.3854],[53.4967,39.3375],[53.5829,39.3184],[53.6596,39.3184],[53.6787,39.2513],[53.7745,39.1364],[53.9182,39.0502],[54.0331,38.9927],[54.0714,38.8969],[54.0331,38.7916],[53.9852,38.6575],[53.9373,38.5713],[53.9373,38.3318],[53.9373,38.1594],[53.8799,38.0254],[53.9278,37.8242],[53.9852,37.5177],[56.0174,38.0415],[56.8409,39.1394],[57.2526,39.2767],[58.2133,39.0022],[61.1641,37.6984]],[[61.3128,46.6819],[61.4658,46.7669],[61.6543,46.7689],[61.5615,46.5972],[61.3681,46.3552],[61.2891,46.2952],[61.2694,46.2516],[61.218,46.2215],[61.1588,46.1833],[61.1193,46.1039],[60.9989,46.0779],[61.0344,46.0149],[60.9989,45.9216],[61.0403,45.7386],[61.0206,45.4873],[61.1746,45.1876],[61.68,45.1068],[61.8616,45.0483],[61.7274,44.9338],[61.1094,44.7167],[60.9436,44.4411],[60.0769,43.6086],[59.7157,43.6693],[59.5054,43.9141],[59.2478,43.854],[59.1264,44.0022],[59.0079,43.9795],[59.0188,43.8611],[58.9102,43.8525],[58.8273,43.844],[58.7799,43.7471],[58.5963,43.7571],[58.3673,43.7371],[58.3446,43.8657],[58.3762,44.0391],[58.3999,44.1667],[58.2419,44.359],[58.2301,44.4521],[58.1985,44.5197],[58.2571,44.5766],[58.2967,44.6384],[58.2946,44.7083],[58.251,44.7864],[58.2321,44.8513],[58.2381,44.9031],[58.2722,44.9817],[58.3783,45.1775],[58.4041,45.253],[58.4492,45.3224],[58.5136,45.3857],[58.5601,45.4572],[58.5887,45.5371],[58.6113,45.5847],[58.6279,45.6002],[58.6553,45.7157],[58.6813,45.7836],[58.7207,45.8477],[58.7716,45.895],[58.8154,45.9312],[58.8806,45.9559],[58.9574,45.9682],[58.9816,45.9746],[59.0701,46.0012],[59.1432,46.0067],[59.1984,46.0231],[59.2636,46.0272],[59.3287,46.0259],[59.3662,45.9902],[59.3603,45.9326],[59.3011,45.8804],[59.2873,45.835],[59.4314,45.8034],[59.5498,45.9943],[59.5459,46.2393],[59.4807,46.3171],[59.5308,46.3427],[59.5488,46.3448],[59.577,46.3335],[59.6988,46.3313],[59.7494,46.3221],[59.7789,46.3015],[59.8008,46.2545],[59.8154,46.1814],[60.0187,46.213],[60.3,46.1638],[60.4787,46.2048],[60.5527,46.1549],[60.605,46.1269],[60.7235,46.1679],[60.7857,46.1518],[60.8241,46.2134],[60.8226,46.2432],[60.5665,46.2652],[60.456,46.2734],[60.2112,46.2871],[60.0787,46.4018],[60.0207,46.4494],[59.9977,46.5024],[60.0092,46.5606],[60.073,46.6188],[60.1891,46.6768],[60.2705,46.6997],[60.3174,46.6875],[60.3594,46.6353],[60.3963,46.5431],[60.4297,46.5289],[60.4596,46.5928],[60.5012,46.6118],[60.5546,46.5856],[60.6045,46.5781],[60.6512,46.5891],[60.7257,46.6258],[60.728,46.676],[60.6378,46.7208],[60.5231,46.7273],[60.5034,46.8057],[60.6574,46.8219],[60.8429,46.7733],[60.8587,46.6975],[60.7831,46.6327],[60.7994,46.569],[60.8462,46.5244],[60.9381,46.4898],[61.1233,46.5653],[61.2496,46.6115],[61.3128,46.6819]]],[[[59.2853,45.2752],[59.1333,45.1945],[59.0464,44.9547],[59.2379,44.7966],[59.461,45.0552],[59.4472,45.1876],[59.2853,45.2752]]],[[[59.7769,45.7014],[59.7631,45.6324],[59.7927,45.5896],[59.9131,45.5979],[60.0177,45.6587],[60.1145,45.689],[60.0671,45.7138],[59.9012,45.6959],[59.7769,45.7014]]]]},"properties":{"NAME":"Scythians","SUBJECTO":"Scythians","PARTOF":"Scythians","BORDERPRECISION":1,"LINK":null}},
{"type":"Feature","geometry":{"type":"Polygon","coordinates":[[[66.1515,39.6933],[66.3108,39.757],[72.281,40.9922],[72.4868,40.2374],[73.5848,40.0315],[77.3451,40.0315],[80.2198,41.4135],[77.5111,44.6392],[74.1537,45.2431],[74.1434,45.1029],[74.1356,45.0702],[74.101,45.0586],[74.0942,45.0401],[74.1195,44.9997],[74.1,44.9889],[74.0561,44.9944],[74.0172,45.0129],[74.0096,45.0338],[74.0156,45.0565],[73.9934,45.1124],[74.0077,45.1465],[73.9993,45.1887],[73.9807,45.2042],[73.8768,45.2393],[73.8397,45.2639],[73.7945,45.3077],[69.2847,46.1189],[68.5625,46.3592],[65.2107,42.8536],[66.1515,39.6933]],[[78.1363,42.6077],[78.3026,42.5884],[78.2924,42.5641],[78.158,42.5501],[78.0142,42.4875],[77.8707,42.4283],[77.8518,42.4022],[77.8539,42.3667],[77.7162,42.2404],[77.595,42.2004],[77.5146,42.1818],[77.1365,42.1682],[77.0229,42.173],[76.9215,42.1904],[76.5777,42.2914],[76.4321,42.3195],[76.3287,42.33],[76.2631,42.3276],[76.2272,42.3889],[76.2154,42.4352],[76.2265,42.4606],[76.4528,42.4886],[76.7471,42.5653],[76.965,42.6123],[77.1902,42.6469],[77.3374,42.6697],[77.5349,42.6513],[77.6841,42.7018],[78.0638,42.7267],[78.2488,42.7337],[78.1514,42.6718],[78.1189,42.6415],[78.1363,42.6077]]]},"properties":{"NAME":"Saces","SUBJECTO":"Saces","PARTOF":"Scythians","BORDERPRECISION":1,"LINK":null}},
{"type":"Feature","geometry":{"type":"Polygon","coordinates":[[[100.7103,51.086],[100.7303,51.1382],[100.7485,51.2223],[100.7704,51.2932],[100.7868,51.397],[100.7521,51.4468],[100.5593,51.6103],[100.525,51.5969],[100.4912,51.5558],[100.3797,51.4661],[100.3879,51.4406],[100.4021,51.3921],[100.3561,51.3516],[100.284,51.2504],[100.2962,51.1086],[100.2942,51.0938],[100.2478,50.7428],[100.2281,50.6539],[100.1938,50.594],[100.1795,50.5313],[100.1934,50.4938],[100.37,50.5383],[100.4443,50.5681],[100.4726,50.6032],[100.4734,50.6251],[100.4452,50.6589],[100.4716,50.7391],[100.5072,50.8087],[100.6882,50.983],[100.6847,51.0193],[100.7103,51.086]]]},"properties":{"NAME":"Hövsgöl Nuur","SUBJECTO":"Hövsgöl Nuur","PARTOF":"Hövsgöl Nuur","BORDERPRECISION":1,"LINK":null}},
{"type":"Feature","geometry":{"type":"Polygon","coordinates":[[[83.2447,27.3888],[84.3973,35.3944],[80.5349,36.1676],[75.5997,37.5372],[74.7514,36.5318],[74.2272,34.1789],[74.7508,33.6553],[75.7621,32.2294],[76.6042,31.042],[78.8687,29.3264],[80.6623,28.4496],[81.9567,27.8167],[83.2447,27.3888]]]},"properties":{"NAME":"Zhangzhung Kingdom","SUBJECTO":"Zhangzhung Kingdom","PARTOF":"Zhangzhung Kingdom","BORDERPRECISION":1,"LINK":null}},
{"type":"Feature","geometry":{"type":"Polygon","coordinates":[[[91.5711,22.5433],[91.6518,22.3569],[91.8459,21.9087],[91.946,21.3626],[92.0669,21.1151],[92.1237,20.9964],[92.1763,20.8866],[92.4034,20.614],[92.6628,20.4049],[92.8271,20.4243],[92.9215,20.3737],[92.9261,20.3489],[93.1145,20.5917],[92.9018,21.6087],[92.0413,23.115],[91.5711,22.5433]]]},"properties":{"NAME":"Arakan","SUBJECTO":"Arakan","PARTOF":"Arakan","BORDERPRECISION":1,"LINK":null}},
{"type":"Feature","geometry":{"type":"Polygon","coordinates":[[[60.6151,31.3165],[60.2034,29.8068],[60.4331,29.249],[60.6837,28.6402],[60.3406,27.8853],[59.8159,27.8478],[58.4192,27.7481],[58.3506,27.1991],[58.7444,25.536],[58.818,25.4789],[59.0315,25.3079],[59.3021,25.3402],[59.6546,25.3219],[60.2982,25.3232],[60.4796,25.2982],[60.7522,25.1844],[60.8583,25.0957],[61.344,25.0269],[61.57,25.0396],[61.8133,25.0533],[62.1383,25.1048],[62.4496,25.1626],[63.0181,25.1574],[63.4035,25.1646],[63.6503,25.3366],[64.0592,25.401],[64.1201,25.3122],[64.2383,25.2108],[64.425,25.1731],[64.8512,25.2058],[65.2157,25.2701],[65.7688,25.3093],[66.3001,25.4947],[66.4323,25.4886],[66.6205,25.3175],[66.7005,25.1144],[66.6481,24.9046],[66.6542,24.7839],[66.7017,24.7523],[66.9995,24.7148],[67.1536,24.6516],[67.2042,24.5882],[67.3159,24.0929],[67.486,23.9281],[67.6923,23.8142],[68.047,23.7641],[68.0722,23.6752],[68.3729,23.3264],[68.7908,23.0287],[68.8824,22.9971],[69.1072,22.8989],[69.3918,22.8394],[69.6649,22.7892],[70.0459,22.7773],[70.3102,22.8286],[70.3806,22.8606],[70.4106,22.7526],[70.1762,22.479],[69.9685,22.3515],[69.7692,22.2875],[69.4922,22.2488],[69.0142,22.305],[68.8942,22.2857],[69.1261,21.9685],[69.7522,21.3981],[70.2099,20.948],[70.4675,20.777],[70.8551,20.6508],[71.0244,20.6575],[71.3026,20.7724],[71.5289,20.8237],[71.8944,20.9897],[72.1209,21.1553],[72.2562,21.3526],[72.289,21.5496],[72.2557,21.6321],[72.131,21.7462],[72.1271,21.8287],[72.233,22.0196],[72.319,22.115],[72.6956,22.1285],[72.6846,22.0251],[79.8316,26.6935],[80.6623,28.4496],[78.8687,29.3264],[76.6042,31.042],[75.7621,32.2294],[74.7508,33.6553],[74.2272,34.1789],[74.7514,36.5318],[75.5997,37.5372],[76.6042,38.7277],[77.8394,39.6198],[77.7708,40.0315],[77.3451,40.0315],[73.5848,40.0315],[72.4868,40.2374],[72.281,40.9922],[66.3108,39.757],[66.1515,39.6933],[61.1641,37.6984],[60.3406,35.9828],[60.5465,35.0907],[60.9582,34.6103],[61.3013,32.8262],[60.6151,31.3165]]]},"properties":{"NAME":"Kushan Empire","SUBJECTO":"Kushan Empire","PARTOF":"Kushan Empire","BORDERPRECISION":1,"LINK":null}}
]}