{"type":"FeatureCollection", "features": [
{"type":"Feature","geometry":{"type":"Polygon","coordinates":[[[80.5629,5.9317],[81.8662,7.0846],[80.1096,9.6866],[79.8541,7.0612],[80.5629,5.9317]]]},"properties":{"NAME":"Simhala","SUBJECTO":"Simhala","PARTOF":"Simhala","BORDERPRECISION":1,"LINK":null}},
{"type":"Feature","geometry":{"type":"Polygon","coordinates":[[[-100.4936,20.8999],[-100.755,19.5883],[-98.6215,19.2062],[-99.1069,20.5863],[-100.4936,20.8999]]]},"properties":{"NAME":"Teotihuacán","SUBJECTO":"Teotihuacán","PARTOF":"Teotihuacán","BORDERPRECISION":1,"LINK":null}},
{"type":"Feature","geometry":{"type":"Polygon","coordinates":[[[-99.2109,17.7105],[-99.0158,16.8237],[-97.6855,16.3931],[-95.5014,16.5318],[-95.4321,17.4332],[-96.2059,17.8861],[-99.2109,17.7105]]]},"properties":{"NAME":"Monte Albán","SUBJECTO":"Monte Albán","PARTOF":"Monte Albán","BORDERPRECISION":1,"LINK":null}},
{"type":"Feature","geometry":{"type":"Polygon","coordinates":[[[-90.9348,19.3815],[-91.7297,18.4157],[-92.9379,18.5862],[-93.5879,15.7411],[-91.5157,14.0589],[-90.105,13.753],[-87.5706,15.908],[-88.9408,16.0334],[-86.9216,21.3006],[-90.2775,21.1414],[-90.9348,19.3815]]]},"properties":{"NAME":"Maya chiefdoms and states","SUBJECTO":"Maya chiefdoms and states","PARTOF":"Maya chiefdoms and states","BORDERPRECISION":1,"LINK":null}},
{"type":"Feature","geometry":{"type":"Polygon","coordinates":[[[31.0579,22.6813],[29.8468,20.1247],[29.9998,17.4129],[31.0579,13.1277],[31.7979,12.5222],[35.7178,13.2216],[35.9692,15.4825],[34.5278,20.1748],[33.3453,23.354],[31.0579,22.6813]]]},"properties":{"NAME":"Meroe","SUBJECTO":"Meroe","PARTOF":"Meroe","BORDERPRECISION":1,"LINK":null}},
{"type":"Feature","geometry":{"type":"Polygon","coordinates":[[[49.7129,14.7733],[48.9973,17.6066],[45.4329,17.7748],[44.6947,15.5333],[43.0533,14.6065],[44.0627,12.6136],[49.7129,14.7733]]]},"properties":{"NAME":"Qataban","SUBJECTO":"Qataban","PARTOF":"Qataban","BORDERPRECISION":1,"LINK":null}},
{"type":"Feature","geometry":{"type":"Polygon","coordinates":[[[49.7129,14.7733],[51.9504,15.5405],[52.8943,16.61],[54.9106,16.9701],[55.2904,17.6761],[53.6156,18.1409],[48.9973,17.6066],[49.7129,14.7733]]]},"properties":{"NAME":"Hadramaut","SUBJECTO":"Hadramaut","PARTOF":"Hadramaut","BORDERPRECISION":1,"LINK":null}},
{"type":"Feature","geometry":{"type":"Polygon","coordinates":[[[74.4214,14.3755],[77.3414,8.0533],[79.7899,10.2506],[79.9228,12.1062],[76.8787,11.3473],[74.4214,14.3755]]]},"properties":{"NAME":"Hindu kingdoms","SUBJECTO":"Hindu kingdoms","PARTOF":"Hindu kingdoms","BORDERPRECISION":1,"LINK":null}},
{"type":"Feature","geometry":{"type":"MultiPolygon","coordinates":[[[[37.7741,44.7445],[39.2478,45.9609],[39.7839,48.7755],[37.7735,48.6415],[35.2124,46.6371],[39.1941,47.243],[36.9599,45.2274],[37.7741,44.7445]]],[[[35.0319,45.5343],[33.3955,44.6005],[36.521,45.3883],[35.0319,45.5343]]]]},"properties":{"NAME":"Bosporan Kingdom","SUBJECTO":"Bosporan Kingdom","PARTOF":"Bosporan Kingdom","BORDERPRECISION":1,"LINK":null}},
{"type":"Feature","geometry":{"type":"Polygon","coordinates":[[[14.091,41.171],[12.2284,42.7326],[11.2153,43.4079],[11.1048,42.5491],[14.091,41.171]]]},"properties":{"NAME":"Rome","SUBJECTO":"Rome","PARTOF":"Rome","BORDERPRECISION":1,"LINK":null}},
{"type":"Feature","geometry":{"type":"MultiPolygon","coordinates":[[[[11.2153,43.4079],[10.3394,45.0249],[8.9246,45.0923],[8.6717,44.4174],[11.1048,42.5491],[11.2153,43.4079]]],[[[9.4322,42.7941],[8.5004,42.3598],[9.173,41.3499],[9.4322,42.7941]]]]},"properties":{"NAME":"Greek city-states","SUBJECTO":"Greek city-states","PARTOF":"Greek city-states","BORDERPRECISION":1,"LINK":null}},
{"type":"Feature","geometry":{"type":"MultiPolygon","coordinates":[[[[-7.2278,37.2259],[-5.6606,36.008],[-4.4466,36.722],[-2.2388,36.7284],[0.1726,38.7383],[-0.1606,39.886],[-7.2278,37.2259]]],[[[8.6961,38.9958],[9.6483,39.4572],[9.3062,41.1844],[8.1595,40.7847],[8.6961,38.9958]]],[[[13.8095,37.9664],[12.4541,37.766],[13.6083,37.2687],[13.8095,37.9664]]],[[[11.0991,33.5372],[10.0195,34.0815],[11.1251,35.2406],[10.5115,36.0862],[11.0238,37.0683],[10.3928,36.7166],[9.7322,37.2824],[1.0576,36.4619],[-2.0353,35.0546],[-4.593,35.1512],[-5.565,35.8623],[-6.753,34.1234],[-1.5858,33.2345],[3.3999,34.4472],[7.5097,34.4472],[10.0026,32.426],[13.4386,31.1459],[18.8286,29.7984],[19.1245,30.1989],[11.0991,33.5372]]]]},"properties":{"NAME":"Carthaginian Empire","SUBJECTO":"Carthaginian Empire","PARTOF":"Carthaginian Empire","BORDERPRECISION":1,"LINK":null}},
{"type":"Feature","geometry":{"type":"MultiPolygon","coordinates":[[[[13.6083,37.2687],[15.3013,37.0579],[15.4537,38.1674],[13.8095,37.9664],[13.6083,37.2687]]],[[[16.4203,41.2787],[14.8987,40.2415],[16.1772,38.931],[15.7852,37.9097],[17.1807,39.0222],[16.9487,40.4811],[18.5226,40.0941],[16.4203,41.2787]]]]},"properties":{"NAME":"Greek city-states","SUBJECTO":"Greek city-states","PARTOF":"Greek city-states","BORDERPRECISION":1,"LINK":null}},
{"type":"Feature","geometry":{"type":"Polygon","coordinates":[[[45.4329,17.7748],[43.7947,18.6598],[41.6286,18.0472],[42.7637,16.6455],[43.0533,14.6065],[44.6947,15.5333],[45.4329,17.7748]]]},"properties":{"NAME":"Saba","SUBJECTO":"Saba","PARTOF":"Saba","BORDERPRECISION":1,"LINK":null}},
{"type":"Feature","geometry":{"type":"Polygon","coordinates":[[[79.9228,12.1062],[80.3002,15.6457],[83.6847,18.0834],[84.246,21.3644],[83.1529,21.706],[82.1964,23.414],[81.1033,23.2774],[79.8736,19.1099],[75.9793,19.7931],[75.911,20.6812],[78.3022,21.501],[77.8923,22.0476],[75.2278,21.2961],[74.3397,21.706],[73.1129,20.8271],[73.0642,18.0317],[74.4214,14.3755],[76.8787,11.3473],[79.9228,12.1062]]]},"properties":{"NAME":"Hindu kingdoms and republics","SUBJECTO":"Hindu kingdoms and republics","PARTOF":"Hindu kingdoms and republics","BORDERPRECISION":1,"LINK":null}},
{"type":"Feature","geometry":{"type":"Polygon","coordinates":[[[83.6847,18.0834],[88.053,21.9387],[90.2746,21.7783],[90.5641,22.9795],[91.5711,22.5433],[93.7725,26.5004],[87.9264,26.0641],[83.2447,27.3888],[78.8687,29.3264],[77.6305,29.914],[76.0477,24.2338],[74.8862,24.8487],[72.6956,22.1285],[73.1129,20.8271],[74.3397,21.706],[75.2278,21.2961],[77.8923,22.0476],[78.3022,21.501],[75.911,20.6812],[75.9793,19.7931],[79.8736,19.1099],[81.1033,23.2774],[82.1964,23.414],[83.1529,21.706],[84.246,21.3644],[83.6847,18.0834]]]},"properties":{"NAME":"Magadha","SUBJECTO":"Magadha","PARTOF":"Magadha","BORDERPRECISION":1,"LINK":null}},
{"type":"Feature","geometry":{"type":"Polygon","coordinates":[[[77.6305,29.914],[74.3397,31.4757],[68.1909,27.3082],[68.5325,25.4636],[67.486,23.9281],[70.3806,22.8606],[68.8942,22.2857],[70.4675,20.777],[71.8944,20.9897],[72.6956,22.1285],[74.8862,24.8487],[76.0477,24.2338],[77.6305,29.914]]]},"properties":{"NAME":"Hindu kingdoms and republics","SUBJECTO":"Hindu kingdoms and republics","PARTOF":"Hindu kingdoms and republics","BORDERPRECISION":1,"LINK":null}},
{"type":"Feature","geometry":{"type":"Polygon","coordinates":[[[107.036,40.7037],[106.0433,37.5611],[104.3963,37.218],[104.7394,36.6004],[101.5828,28.7088],[102.1318,28.0226],[105.232,27.9993],[107.1331,28.6746],[109.1144,30.1776],[109.8659,31.749],[105.1519,32.9104],[105.0835,33.457],[108.7045,33.5936],[109.456,34.6184],[107.8846,37.4878],[110.2075,40.5622],[107.036,40.7037]]]},"properties":{"NAME":"Qin","SUBJECTO":"Qin","PARTOF":"Qin","BORDERPRECISION":1,"LINK":null}},
{"type":"Feature","geometry":{"type":"Polygon","coordinates":[[[107.1331,28.6746],[117.1761,25.2586],[118.4742,26.625],[119.6007,26.6928],[121.2597,28.1823],[121.7744,29.7645],[119.9437,30.1162],[121.5689,30.7101],[121.645,31.688],[119.0032,34.9395],[122.3929,37.3006],[120.6581,37.7365],[118.9546,37.0771],[118.8752,37.9494],[117.4395,38.6028],[121.368,40.8706],[122.1079,40.3537],[121.2165,38.757],[124.1041,39.8848],[124.091,41.2667],[122.5002,41.8096],[113.3178,41.5956],[107.6216,42.0902],[107.036,40.7037],[110.2075,40.5622],[107.8846,37.4878],[109.456,34.6184],[108.7045,33.5936],[105.0835,33.457],[105.1519,32.9104],[109.8659,31.749],[109.1144,30.1776],[107.1331,28.6746]]]},"properties":{"NAME":"Zhow states","SUBJECTO":"Zhow states","PARTOF":"Zhow states","BORDERPRECISION":1,"LINK":null}},
{"type":"Feature","geometry":{"type":"Polygon","coordinates":[[[117.1761,25.2586],[116.4521,23.2502],[118.8129,24.8494],[119.6007,26.6928],[118.4742,26.625],[117.1761,25.2586]]]},"properties":{"NAME":"Yue","SUBJECTO":"Yue","PARTOF":"Yue","BORDERPRECISION":1,"LINK":null}},
{"type":"Feature","geometry":{"type":"Polygon","coordinates":[[[51.417,36.4557],[48.8372,37.511],[49.669,40.2403],[46.9106,40.1298],[43.3909,39.3453],[44.6947,36.669],[51.417,36.4557]]]},"properties":{"NAME":"Atropatene","SUBJECTO":"Atropatene","PARTOF":"Atropatene","BORDERPRECISION":1,"LINK":null}},
{"type":"Feature","geometry":{"type":"Polygon","coordinates":[[[46.9106,40.1298],[44.8256,40.7672],[41.7657,40.1961],[38.4035,39.4008],[38.4718,38.581],[41.4008,38.4532],[43.3909,39.3453],[46.9106,40.1298]]]},"properties":{"NAME":"Armenia","SUBJECTO":"Armenia","PARTOF":"Armenia","BORDERPRECISION":1,"LINK":null}},
{"type":"Feature","geometry":{"type":"Polygon","coordinates":[[[44.8256,40.7672],[44.484,41.4504],[41.6805,41.7933],[40.0067,40.9563],[41.7657,40.1961],[44.8256,40.7672]]]},"properties":{"NAME":"Colchis","SUBJECTO":"Colchis","PARTOF":"Colchis","BORDERPRECISION":1,"LINK":null}},
{"type":"Feature","geometry":{"type":"Polygon","coordinates":[[[41.7657,40.1961],[40.0067,40.9563],[33.5555,41.9825],[31.2177,41.0541],[29.1612,41.2164],[29.8827,40.7464],[28.4777,40.3951],[38.4718,38.581],[38.4035,39.4008],[41.7657,40.1961]]]},"properties":{"NAME":"Cappadocia","SUBJECTO":"Cappadocia","PARTOF":"Cappadocia","BORDERPRECISION":1,"LINK":null}},
{"type":"Feature","geometry":{"type":"MultiPolygon","coordinates":[[[[33.3453,23.354],[33.6572,24.018],[35.1899,24.3999],[32.3185,29.5402],[35.0875,30.4244],[37.2148,32.6889],[38.7931,32.8948],[41.0577,32.8948],[47.614,29.2722],[49.2222,30.4775],[51.6113,27.827],[54.6461,26.3913],[56.4309,27.1066],[57.4649,25.7048],[61.344,25.0269],[66.4323,25.4886],[67.486,23.9281],[68.5325,25.4636],[68.1909,27.3082],[74.3397,31.4757],[73.7931,34.3451],[70.5138,36.668],[67.0256,42.5138],[62.5807,39.8872],[53.9852,37.5177],[53.7997,36.679],[51.417,36.4557],[44.6947,36.669],[43.3909,39.3453],[41.4008,38.4532],[38.4718,38.581],[28.4777,40.3951],[26.7653,40.3769],[26.0641,39.4555],[26.9575,39.5483],[26.3932,38.1044],[28.0142,36.5272],[30.3949,36.118],[30.9053,36.7942],[33.1713,35.9709],[36.0824,36.6215],[35.8731,34.4223],[34.1953,31.2381],[30.996,31.4689],[28.9664,30.7848],[21.6734,32.8156],[19.9921,31.3508],[22.0921,31.7539],[25.4428,30.6817],[25.4548,28.9775],[28.4062,27.7434],[31.2061,24.2483],[31.0579,22.6813],[33.3453,23.354]]],[[[33.7326,34.9086],[34.4582,35.6446],[32.1437,35.0425],[32.8167,34.5386],[33.7326,34.9086]]],[[[24.0132,35.2104],[26.2735,35.3127],[23.6967,35.6981],[24.0132,35.2104]]],[[[29.6832,45.3748],[28.2214,45.4841],[28.0366,44.3753],[26.3109,44.3198],[25.2178,42.8851],[19.607,41.7615],[19.3691,40.2603],[21.1724,38.3478],[23.1163,38.1574],[21.2284,37.9049],[22.3903,36.5244],[22.9826,36.6148],[22.6423,37.5849],[23.4181,37.4693],[22.8981,37.9],[23.9873,37.7634],[22.4905,38.8769],[23.2361,39.2032],[22.4921,40.4983],[23.9066,39.9972],[23.6347,40.7728],[25.0189,41.0171],[26.5565,40.4983],[26.1409,40.0447],[27.4742,40.9628],[28.9645,40.9892],[27.502,42.5163],[29.6832,45.3748]]]]},"properties":{"NAME":"Empire of Alexander","SUBJECTO":"Empire of Alexander","PARTOF":"Empire of Alexander","BORDERPRECISION":1,"LINK":null}},
{"type":"Feature","geometry":{"type":"MultiPolygon","coordinates":[[[[-7.4275,55.0638],[-10.1597,54.1331],[-10.1598,53.3741],[-8.9236,53.1606],[-10.4692,52.2066],[-9.8191,51.4346],[-6.406,52.2144],[-5.7849,54.7374],[-7.4275,55.0638]]],[[[-0.2037,53.5233],[-2.245,55.811],[-3.895,55.9851],[-1.9446,57.4017],[-4.1484,57.5545],[-3.0284,58.4057],[-4.9256,58.567],[-6.0435,56.4748],[-5.5702,55.7505],[-4.7107,56.1313],[-5.1114,54.7941],[-3.1525,54.8381],[-2.9145,53.2671],[-4.4919,52.991],[-4.1236,52.3733],[-5.2488,51.8602],[-2.7502,51.644],[-5.7778,50.1341],[1.335,51.1207],[0.2542,51.4536],[1.5857,52.65],[0.0055,52.7867],[-0.2037,53.5233]]]]},"properties":{"NAME":"Celts","SUBJECTO":"Celts","PARTOF":"Celts","BORDERPRECISION":1,"LINK":null}},
{"type":"Feature","geometry":{"type":"Polygon","coordinates":[[[14.091,41.171],[14.8246,41.4122],[14.2326,42.0484],[12.2284,42.7326],[14.091,41.171]]]},"properties":{"NAME":"Sabines","SUBJECTO":"Sabines","PARTOF":"Sabines","BORDERPRECISION":1,"LINK":null}},
{"type":"Feature","geometry":{"type":"Polygon","coordinates":[[[-76.2381,-13.5679],[-75.2309,-15.2216],[-74.673,-14.8919],[-75.5642,-12.8732],[-76.2381,-13.5679]]]},"properties":{"NAME":"Paracas","SUBJECTO":"Paracas","PARTOF":"Paracas","BORDERPRECISION":1,"LINK":null}},
{"type":"Feature","geometry":{"type":"Polygon","coordinates":[[[-69.8561,-16.5057],[-70.3442,-17.1353],[-69.8349,-17.7224],[-68.7315,-17.682],[-68.7951,-16.3836],[-69.8561,-16.5057]]]},"properties":{"NAME":"Wankarani","SUBJECTO":"Wankarani","PARTOF":"Wankarani","BORDERPRECISION":1,"LINK":null}},
{"type":"Feature","geometry":{"type":"Polygon","coordinates":[[[34.5278,20.1748],[37.1357,21.1281],[35.1899,24.3999],[33.6572,24.018],[33.3453,23.354],[34.5278,20.1748]]]},"properties":{"NAME":"Blemmyes","SUBJECTO":"Blemmyes","PARTOF":"Blemmyes","BORDERPRECISION":1,"LINK":null}},
{"type":"Feature","geometry":{"type":"Polygon","coordinates":[[[21.8631,57.5967],[21.1725,54.919],[22.8161,56.1438],[21.8631,57.5967]]]},"properties":{"NAME":"Curonians","SUBJECTO":"Curonians","PARTOF":"Baltic archeological cultures","BORDERPRECISION":1,"LINK":null}},
{"type":"Feature","geometry":{"type":"Polygon","coordinates":[[[83.2447,27.3888],[84.3973,35.3944],[75.5997,37.5372],[74.2272,34.1789],[76.6042,31.042],[78.8687,29.3264],[83.2447,27.3888]]]},"properties":{"NAME":"Zhangzhung Kingdom","SUBJECTO":"Zhangzhung Kingdom","PARTOF":"Zhangzhung Kingdom","BORDERPRECISION":1,"LINK":null}}
]}