{"type":"FeatureCollection", "features": [
{"type":"Feature","geometry":{"type":"Polygon","coordinates":[[[43.2945,35.6686],[41.9761,37.6841],[35.6649,36.1335],[35.7162,34.3124],[40.9559,33.4348],[41.1541,35.1267],[43.2945,35.6686]]]},"properties":{"NAME":"city-states","SUBJECTO":"city-states","PARTOF":"city-states","BORDERPRECISION":1,"LINK":null}},
{"type":"Feature","geometry":{"type":"Polygon","coordinates":[[[40.9559,33.4348],[47.614,29.2722],[50.1324,30.0664],[49.3067,31.8156],[45.6154,35.1628],[43.2945,35.6686],[41.1541,35.1267],[40.9559,33.4348]]]},"properties":{"NAME":"Ur","SUBJECTO":"Ur","PARTOF":"Ur","BORDERPRECISION":1,"LINK":null}},
{"type":"Feature","geometry":{"type":"Polygon","coordinates":[[[50.1324,30.0664],[52.8908,27.0523],[56.6678,27.0499],[58.3687,25.5479],[57.8408,28.9969],[49.3067,31.8156],[50.1324,30.0664]]]},"properties":{"NAME":"Elam","SUBJECTO":"Elam","PARTOF":"Elam","BORDERPRECISION":1,"LINK":null}},
{"type":"Feature","geometry":{"type":"Polygon","coordinates":[[[32.648,29.8522],[33.5576,30.9677],[29.3594,30.8111],[31.108,24.9955],[30.5971,19.8022],[33.7373,24.4995],[32.648,29.8522]]]},"properties":{"NAME":"Egypt","SUBJECTO":"Egypt","PARTOF":"Egypt","BORDERPRECISION":1,"LINK":null}},
{"type":"Feature","geometry":{"type":"Polygon","coordinates":[[[72.6956,22.1285],[73.2311,23.7208],[70.0743,25.4746],[70.3082,28.0468],[72.2958,28.9821],[78.8432,28.6313],[78.8432,30.7359],[70.7758,32.022],[67.619,28.9821],[64.813,28.5144],[63.293,26.8776],[63.0181,25.1574],[66.4323,25.4886],[70.3806,22.8606],[68.8942,22.2857],[70.4675,20.777],[72.6956,22.1285]]]},"properties":{"NAME":"Indus valley civilization","SUBJECTO":"Indus valley civilization","PARTOF":"Indus valley civilization","BORDERPRECISION":1,"LINK":null}},
{"type":"Feature","geometry":{"type":"Polygon","coordinates":[[[43.2945,35.6686],[45.6154,35.1628],[46.5364,35.8478],[44.272,37.848],[41.9761,37.6841],[43.2945,35.6686]]]},"properties":{"NAME":"Hurrian Kingdoms","SUBJECTO":"Hurrian Kingdoms","PARTOF":"Hurrian Kingdoms","BORDERPRECISION":1,"LINK":null}},
{"type":"Feature","geometry":{"type":"Polygon","coordinates":[[[24.6935,34.9405],[26.2735,35.3127],[23.5294,35.5696],[24.6935,34.9405]]]},"properties":{"NAME":"Minoan","SUBJECTO":"Minoan","PARTOF":"Minoan","BORDERPRECISION":1,"LINK":null}}
]}