{"type":"FeatureCollection", "features": [
{"type":"Feature","geometry":{"type":"Polygon","coordinates":[[[80.5629,5.9317],[81.8662,7.0846],[80.1096,9.6866],[79.8541,7.0612],[80.5629,5.9317]]]},"properties":{"NAME":"Simhala","SUBJECTO":"Simhala","PARTOF":"Simhala","BORDERPRECISION":1,"LINK":null}},
{"type":"Feature","geometry":{"type":"MultiPolygon","coordinates":[[[[-58.1395,48.5991],[-59.1566,47.6701],[-54.7826,47.7112],[-55.9039,47.064],[-55.4079,46.9479],[-54.2114,47.8036],[-54.0824,46.9895],[-53.0696,46.7313],[-52.7352,47.5457],[-53.8817,48.1893],[-53.1239,48.5958],[-54.1296,48.8357],[-53.5091,49.2819],[-55.1073,49.2788],[-56.0671,50.1033],[-56.7326,49.6884],[-55.5608,51.5574],[-57.3556,50.5952],[-58.6805,48.7026],[-58.1395,48.5991]]],[[[-60.8141,45.6444],[-59.8072,46.0812],[-61.072,45.9878],[-60.6271,47.1329],[-61.3806,46.3314],[-60.8141,45.6444]]]]},"properties":{"NAME":"Paleo-Inuit","SUBJECTO":"Paleo-Inuit","PARTOF":"Paleo-Inuit","BORDERPRECISION":1,"LINK":null}},
{"type":"Feature","geometry":{"type":"MultiPolygon","coordinates":[[[[-7.4275,55.0638],[-8.3454,55.0953],[-8.5901,54.2028],[-10.1597,54.1331],[-10.1598,53.3741],[-8.9236,53.1606],[-10.4692,52.2066],[-9.8191,51.4346],[-6.406,52.2144],[-5.7849,54.7374],[-7.4275,55.0638]]],[[[-0.2037,53.5233],[-2.245,55.811],[-3.895,55.9851],[-2.7209,56.1782],[-1.9446,57.4017],[-4.1484,57.5545],[-3.0284,58.4057],[-4.9256,58.567],[-6.0435,56.4748],[-5.2707,56.5441],[-5.5702,55.7505],[-4.7107,56.1313],[-5.1114,54.7941],[-3.1525,54.8381],[-2.9145,53.2671],[-4.4919,52.991],[-4.1236,52.3733],[-5.2488,51.8602],[-2.7502,51.644],[-5.7778,50.1341],[1.335,51.1207],[0.2542,51.4536],[1.5857,52.65],[0.0055,52.7867],[-0.2037,53.5233]]]]},"properties":{"NAME":"Celts","SUBJECTO":"Celts","PARTOF":"Celts","BORDERPRECISION":1,"LINK":null}},
{"type":"Feature","geometry":{"type":"MultiPolygon","coordinates":[[[[-7.2278,37.2259],[-5.6606,36.008],[-4.4466,36.722],[-2.2388,36.7284],[0.1726,38.7383],[-0.1606,39.886],[-1.6065,38.3835],[-7.2278,37.2259]]],[[[8.8196,38.9769],[9.6483,39.4572],[9.3062,41.1844],[8.1595,40.7847],[8.8196,38.9769]]],[[[13.6083,37.2687],[13.8095,37.9664],[12.4541,37.766],[13.6083,37.2687]]],[[[10.9565,33.5751],[10.0195,34.0815],[11.1251,35.2406],[10.5115,36.0862],[11.0238,37.0683],[10.3928,36.7166],[9.7322,37.2824],[7.9132,36.7752],[6.3229,37.0906],[1.0576,36.4619],[-2.0353,35.0546],[-4.593,35.1512],[-5.565,35.8623],[-6.753,34.1234],[-4.0112,33.3018],[-1.5858,33.2345],[3.3999,34.4472],[7.5097,34.4472],[10.0026,32.426],[13.4386,31.1459],[18.8286,29.7984],[19.1245,30.1989],[15.8433,31.285],[15.0098,32.3634],[12.5648,32.7396],[10.9565,33.5751]]]]},"properties":{"NAME":"Carthaginian Empire","SUBJECTO":"Carthaginian Empire","PARTOF":"Carthaginian Empire","BORDERPRECISION":1,"LINK":null}},
{"type":"Feature","geometry":{"type":"MultiPolygon","coordinates":[[[[13.6083,37.2687],[14.622,36.7761],[15.3013,37.0579],[15.4537,38.1674],[13.8095,37.9664],[13.6083,37.2687]]],[[[15.572,40.7467],[14.8987,40.2415],[15.6662,40.0919],[16.1772,38.931],[15.7852,37.9097],[17.1807,39.0222],[16.5321,39.6975],[16.9487,40.4811],[18.3649,39.7467],[18.5226,40.0941],[16.1506,41.0052],[15.572,40.7467]]]]},"properties":{"NAME":"Greek colonies","SUBJECTO":"Greek city-states","PARTOF":"Greek city-states","BORDERPRECISION":1,"LINK":null}},
{"type":"Feature","geometry":{"type":"Polygon","coordinates":[[[112.0673,28.419],[115.8962,28.7005],[121.7744,29.7645],[119.9437,30.1162],[121.5689,30.7101],[121.645,31.688],[119.0032,34.9395],[119.9138,36.1434],[122.2556,36.7337],[122.3929,37.3006],[120.6581,37.7365],[118.9546,37.0771],[118.8752,37.9494],[117.4395,38.6028],[119.3855,39.8434],[116.9826,40.3506],[114.3196,40.0185],[107.2811,36.64],[107.2283,35.5568],[104.3248,34.408],[104.5625,33.8731],[106.0482,34.2891],[105.2756,33.4572],[106.6424,32.5658],[104.6814,29.8322],[104.8002,28.0494],[105.8105,27.2174],[108.0694,27.0676],[109.6732,29.1785],[110.9806,29.2379],[112.0673,28.419]]]},"properties":{"NAME":"Zhou states","SUBJECTO":"Zhou states","PARTOF":"Zhou states","BORDERPRECISION":1,"LINK":null}},
{"type":"Feature","geometry":{"type":"MultiPolygon","coordinates":[[[[72.7809,35.0622],[73.0901,38.8501],[75.0435,42.4313],[74.5551,43.2453],[70.6483,43.8964],[69.1833,43.0825],[67.881,43.0825],[67.881,43.8964],[66.4159,45.0359],[63.6486,45.687],[61.1094,44.7167],[60.0769,43.6086],[59.4882,43.9101],[57.9512,43.0825],[56.8117,39.1757],[54.0331,38.9927],[53.9845,36.7819],[51.7955,36.4323],[48.8372,37.511],[49.669,40.2403],[46.9106,40.1298],[44.8256,40.7672],[44.484,41.4504],[41.6805,41.7933],[40.361,40.9634],[38.314,40.9209],[33.5555,41.9825],[31.2177,41.0541],[29.1612,41.2164],[29.8827,40.7464],[29.0524,40.3347],[26.7653,40.3769],[26.0641,39.4555],[26.9575,39.5483],[26.9974,38.4001],[26.3932,38.1044],[28.0142,36.5272],[30.3949,36.118],[30.9053,36.7942],[33.1713,35.9709],[36.0824,36.6215],[35.8731,34.4223],[34.1953,31.2381],[32.5972,30.9639],[30.996,31.4689],[28.9664,30.7848],[25.2582,31.4379],[21.6734,32.8156],[20.0684,32.0371],[19.9921,31.3508],[22.0869,30.5978],[28.623,29.973],[29.9687,28.4351],[29.9206,25.0709],[30.5449,22.7465],[33.3453,23.354],[33.6572,24.018],[35.1899,24.3999],[32.3185,29.5402],[32.648,29.8522],[34.2412,27.7589],[35.0734,29.4189],[34.7639,28.0967],[37.0053,25.5347],[38.4172,26.3158],[38.58,27.2925],[35.0875,30.4244],[37.2148,32.6889],[38.7931,32.8948],[41.0577,32.8948],[47.614,29.2722],[49.2222,30.4775],[50.1324,30.0664],[51.6113,27.827],[54.6461,26.3913],[56.4309,27.1066],[57.4649,25.7048],[61.344,25.0269],[66.4323,25.4886],[67.486,23.9281],[68.5325,25.4636],[68.1909,27.3082],[70.9618,29.1863],[70.8111,31.6876],[72.7809,35.0622]]],[[[25.0189,41.0171],[26.5565,40.4983],[26.1409,40.0447],[27.4742,40.9628],[29.0811,41.2005],[27.502,42.5163],[24.623,41.8648],[25.0189,41.0171]]],[[[33.792,34.9574],[34.4582,35.6446],[32.1437,35.0425],[32.8167,34.5386],[33.792,34.9574]]]]},"properties":{"NAME":"Achaemenid Empire","SUBJECTO":"Achaemenid Empire","PARTOF":"Achaemenid Empire","BORDERPRECISION":1,"LINK":null}},
{"type":"Feature","geometry":{"type":"MultiPolygon","coordinates":[[[[7.9795,43.9649],[3.1994,43.8142],[2.4785,43.1414],[2.6283,41.6195],[3.8075,43.4672],[5.8286,43.0208],[7.9795,43.9649]]],[[[9.4322,42.7941],[8.5004,42.3598],[9.173,41.3499],[9.4322,42.7941]]]]},"properties":{"NAME":"Greek colonies","SUBJECTO":"Greek city-states","PARTOF":"Greek city-states","BORDERPRECISION":1,"LINK":null}},
{"type":"Feature","geometry":{"type":"Polygon","coordinates":[[[30.5449,22.7465],[30.2417,19.2096],[31.1512,16.3802],[32.768,16.077],[34.2838,16.4812],[34.5278,20.1748],[33.3453,23.354],[30.5449,22.7465]]]},"properties":{"NAME":"Kush","SUBJECTO":"Kush","PARTOF":"Kush","BORDERPRECISION":1,"LINK":null}},
{"type":"Feature","geometry":{"type":"Polygon","coordinates":[[[-95.7317,17.4707],[-96.6353,16.6954],[-95.948,15.8884],[-94.8347,16.3192],[-93.6941,15.8265],[-93.6487,17.2203],[-95.7317,17.4707]]]},"properties":{"NAME":"Zapotec","SUBJECTO":"Zapotec","PARTOF":"Zapotec","BORDERPRECISION":1,"LINK":null}},
{"type":"Feature","geometry":{"type":"MultiPolygon","coordinates":[[[[132.4219,32.9292],[132.6988,32.5489],[133.241,33.2991],[133.9986,33.1483],[134.5404,34.0127],[132.7843,33.9075],[132.1211,33.3475],[132.4219,32.9292]]],[[[130.5541,30.97],[131.831,32.6931],[131.5688,33.4861],[130.6444,33.7],[129.3434,33.1514],[130.4965,32.557],[130.0601,31.2166],[130.7325,31.4783],[130.5541,30.97]]],[[[136.6123,34.7471],[135.8153,35.5177],[132.9808,35.4449],[130.7793,33.9669],[135.2057,34.6171],[135.0629,33.69],[135.7557,33.3423],[136.8986,34.2587],[136.6123,34.7471]]]]},"properties":{"NAME":"Yayoi","SUBJECTO":"Yayoi","PARTOF":"Yayoi","BORDERPRECISION":1,"LINK":null}},
{"type":"Feature","geometry":{"type":"Polygon","coordinates":[[[-93.6487,17.2203],[-92.5942,17.9934],[-93.0238,18.5677],[-94.242,18.2402],[-95.8557,18.8055],[-96.3439,17.9377],[-95.7317,17.4707],[-93.6487,17.2203]]]},"properties":{"NAME":"Olmec","SUBJECTO":"Olmec","PARTOF":"Olmec","BORDERPRECISION":1,"LINK":null}},
{"type":"Feature","geometry":{"type":"Polygon","coordinates":[[[-76.2381,-13.5679],[-75.2309,-15.2216],[-74.673,-14.8919],[-74.6305,-13.9054],[-75.5642,-12.8732],[-76.2381,-13.5679]]]},"properties":{"NAME":"Paracas","SUBJECTO":"Paracas","PARTOF":"Paracas","BORDERPRECISION":1,"LINK":null}},
{"type":"Feature","geometry":{"type":"Polygon","coordinates":[[[-69.8561,-16.5057],[-70.3442,-17.1353],[-69.8349,-17.7224],[-68.7315,-17.682],[-68.7951,-16.3836],[-69.8561,-16.5057]]]},"properties":{"NAME":"Wankarani","SUBJECTO":"Wankarani","PARTOF":"Wankarani","BORDERPRECISION":1,"LINK":null}},
{"type":"Feature","geometry":{"type":"Polygon","coordinates":[[[63.6792,52.1876],[48.5708,53.3178],[38.3052,53.5914],[34.9053,51.4763],[31.5603,50.9062],[30.592,50.1602],[27.2981,50.9306],[27.8604,48.0551],[44.1571,48.3944],[47.3825,47.2547],[54.003,48.8433],[61.9816,47.8277],[63.6792,52.1876]]]},"properties":{"NAME":"Scythians","SUBJECTO":"Scythians","PARTOF":"Scythians","BORDERPRECISION":1,"LINK":null}},
{"type":"Feature","geometry":{"type":"Polygon","coordinates":[[[67.486,23.9281],[69.1072,22.8989],[70.3806,22.8606],[68.8942,22.2857],[70.4675,20.777],[71.8944,20.9897],[72.6956,22.1285],[73.5727,16.0379],[77.3414,8.0533],[79.7899,10.2506],[80.3002,15.6457],[82.0814,16.4627],[83.8319,18.1437],[82.0743,21.1538],[82.1985,22.5203],[80.2108,24.8806],[81.0183,26.4335],[82.6954,26.3714],[83.4331,25.7678],[87.7484,25.6228],[83.2447,27.3888],[78.8687,29.3264],[75.2062,31.3621],[72.7809,35.0622],[70.8111,31.6876],[70.9618,29.1863],[68.1909,27.3082],[68.5325,25.4636],[67.486,23.9281]]]},"properties":{"NAME":"Hindu kingdoms","SUBJECTO":"Hindu kingdoms","PARTOF":"Hindu kingdoms","BORDERPRECISION":1,"LINK":null}},
{"type":"Feature","geometry":{"type":"Polygon","coordinates":[[[126.4368,53.4944],[118.1177,53.1729],[99.9255,52.4699],[100.0235,51.7601],[97.0636,50.4936],[83.2058,45.3608],[81.4233,43.0242],[96.9627,38.9619],[108.5333,39.7939],[120.373,44.1909],[122.2118,44.1909],[132.3432,49.2151],[126.4368,53.4944]]]},"properties":{"NAME":"Xiongnu","SUBJECTO":"Xiongnu","PARTOF":"Xiongnu","BORDERPRECISION":1,"LINK":null}},
{"type":"Feature","geometry":{"type":"Polygon","coordinates":[[[25.1956,65.268],[25.2515,65.4169],[25.1861,65.2427],[25.1956,65.268]]]},"properties":{"NAME":"Magadha","SUBJECTO":"Magadha","PARTOF":"Magadha","BORDERPRECISION":1,"LINK":null}},
{"type":"Feature","geometry":{"type":"Polygon","coordinates":[[[12.4214,42.2918],[11.9601,42.0074],[14.3069,40.8522],[12.4214,42.2918]]]},"properties":{"NAME":"Roman Republic","SUBJECTO":"Roman Republic","PARTOF":"Roman Republic","BORDERPRECISION":1,"LINK":null}},
{"type":"Feature","geometry":{"type":"Polygon","coordinates":[[[13.1081,42.9172],[11.8342,43.665],[12.4278,42.4283],[13.5749,42.3901],[13.1081,42.9172]]]},"properties":{"NAME":"Sabini","SUBJECTO":"Sabini","PARTOF":"Sabini","BORDERPRECISION":1,"LINK":null}},
{"type":"Feature","geometry":{"type":"MultiPolygon","coordinates":[[[[24.623,41.8648],[21.0808,41.3439],[19.607,41.7615],[19.417,41.3453],[19.3691,40.2603],[21.1595,39.0048],[21.1724,38.3478],[23.1163,38.1574],[21.2284,37.9049],[22.3903,36.5244],[22.9826,36.6148],[22.6423,37.5849],[23.4181,37.4693],[22.8981,37.9],[23.9873,37.7634],[22.4905,38.8769],[23.2361,39.2032],[22.4921,40.4983],[23.9066,39.9972],[23.6347,40.7728],[25.0189,41.0171],[24.623,41.8648]]],[[[23.8795,35.5524],[23.4669,35.3179],[24.6935,34.9405],[26.2427,35.1449],[23.8795,35.5524]]],[[[23.6605,38.4036],[24.5272,37.9674],[24.1319,38.6534],[22.8699,38.8372],[23.6605,38.4036]]]]},"properties":{"NAME":"Greek city-states","SUBJECTO":"Greek city-states","PARTOF":"Greek city-states","BORDERPRECISION":1,"LINK":null}},
{"type":"Feature","geometry":{"type":"Polygon","coordinates":[[[12.5646,44.072],[12.4832,45.4623],[11.6436,45.6477],[11.0518,45.0748],[9.2041,45.407],[10.2287,43.7871],[11.5515,43.5507],[12.5646,44.072]]]},"properties":{"NAME":"Boii","SUBJECTO":"Boii","PARTOF":"Boii","BORDERPRECISION":1,"LINK":null}},
{"type":"Feature","geometry":{"type":"Polygon","coordinates":[[[12.4214,42.2918],[12.4278,42.4283],[11.8342,43.665],[13.1081,42.9172],[13.7316,43.3742],[12.5646,44.072],[11.5515,43.5507],[10.2287,43.7871],[11.9601,42.0074],[12.4214,42.2918]]]},"properties":{"NAME":"Etrurians","SUBJECTO":"Etrurians","PARTOF":"Etrurians","BORDERPRECISION":1,"LINK":null}},
{"type":"Feature","geometry":{"type":"Polygon","coordinates":[[[16.1506,41.0052],[13.639,42.0389],[15.572,40.7467],[16.1506,41.0052]]]},"properties":{"NAME":"Samnites","SUBJECTO":"Samnites","PARTOF":"Samnites","BORDERPRECISION":1,"LINK":null}},
{"type":"Feature","geometry":{"type":"Polygon","coordinates":[[[33.3453,23.354],[34.5278,20.1748],[37.1357,21.1281],[35.1899,24.3999],[33.6572,24.018],[33.3453,23.354]]]},"properties":{"NAME":"Blemmyes","SUBJECTO":"Blemmyes","PARTOF":"Blemmyes","BORDERPRECISION":1,"LINK":null}},
{"type":"Feature","geometry":{"type":"Polygon","coordinates":[[[21.8631,57.5967],[21.1725,54.919],[22.8161,56.1438],[21.8631,57.5967]]]},"properties":{"NAME":"Curonians","SUBJECTO":"Curonians","PARTOF":"Baltic archeological cultures","BORDERPRECISION":1,"LINK":null}},
{"type":"Feature","geometry":{"type":"Polygon","coordinates":[[[83.2447,27.3888],[84.3973,35.3944],[75.5997,37.5372],[74.2272,34.1789],[76.6042,31.042],[78.8687,29.3264],[83.2447,27.3888]]]},"properties":{"NAME":"Zhangzhung Kingdom","SUBJECTO":"Zhangzhung Kingdom","PARTOF":"Zhangzhung Kingdom","BORDERPRECISION":1,"LINK":null}},
{"type":"Feature","geometry":{"type":"Polygon","coordinates":[[[83.8319,18.1437],[86.6324,20.2036],[86.8187,21.1865],[88.053,21.9387],[88.8809,21.5149],[89.8697,22.1332],[90.211,21.806],[90.5664,22.5612],[90.671,21.987],[90.788,22.5612],[91.6067,22.4611],[92.2833,24.4554],[91.0526,27.6198],[87.7484,25.6228],[83.4331,25.7678],[82.6954,26.3714],[81.0183,26.4335],[80.2108,24.8806],[82.1985,22.5203],[82.0743,21.1538],[83.8319,18.1437]]]},"properties":{"NAME":"Magadha","SUBJECTO":"Magadha","PARTOF":"Magadha","BORDERPRECISION":1,"LINK":null}},
{"type":"Feature","geometry":{"type":"Polygon","coordinates":[[[126.4103,37.5939],[127.0002,36.9297],[126.2861,36.96],[126.4664,36.5632],[129.2901,37.3288],[127.4408,39.6237],[129.4778,40.682],[129.6413,41.6558],[131.5842,43.2127],[132.9528,42.6695],[134.5686,43.2122],[138.6491,47.1055],[128.4373,44.869],[123.0549,42.3519],[121.0653,38.7503],[124.1041,39.8848],[125.2961,39.3643],[124.7697,37.9359],[126.4103,37.5939]]]},"properties":{"NAME":"Gojoseon","SUBJECTO":"Gojoseon","PARTOF":"Gojoseon","BORDERPRECISION":1,"LINK":null}},
{"type":"Feature","geometry":{"type":"Polygon","coordinates":[[[33.5803,46.0362],[32.5032,45.4451],[33.6602,44.5237],[36.521,45.3883],[35.0634,45.3401],[33.5803,46.0362]]]},"properties":{"NAME":"Greek colonies","SUBJECTO":"Greek city-states","PARTOF":"Greek city-states","BORDERPRECISION":1,"LINK":null}}
]}