{"type":"FeatureCollection", "features": [
{"type":"Feature","geometry":{"type":"Polygon","coordinates":[[[80.5629,5.9317],[81.8662,7.0846],[80.1096,9.6866],[79.8541,7.0612],[80.5629,5.9317]]]},"properties":{"NAME":"Simhala","SUBJECTO":"Simhala","PARTOF":"Simhala","BORDERPRECISION":1,"LINK":null}},
{"type":"Feature","geometry":{"type":"MultiPolygon","coordinates":[[[[-58.1395,48.5991],[-59.1566,47.6701],[-54.7826,47.7112],[-55.4079,46.9479],[-54.2114,47.8036],[-53.0696,46.7313],[-52.7352,47.5457],[-53.8817,48.1893],[-53.1239,48.5958],[-54.1296,48.8357],[-53.5091,49.2819],[-55.1073,49.2788],[-56.0671,50.1033],[-56.7326,49.6884],[-55.5608,51.5574],[-57.3556,50.5952],[-58.1395,48.5991]]],[[[-60.8141,45.6444],[-59.8072,46.0812],[-61.072,45.9878],[-60.6271,47.1329],[-61.3806,46.3314],[-60.8141,45.6444]]]]},"properties":{"NAME":"Paleo-Inuit","SUBJECTO":"Paleo-Inuit","PARTOF":"Paleo-Inuit","BORDERPRECISION":1,"LINK":null}},
{"type":"Feature","geometry":{"type":"MultiPolygon","coordinates":[[[[-7.2278,37.2259],[-5.6606,36.008],[-2.2388,36.7284],[0.1726,38.7383],[-0.1606,39.886],[-1.6065,38.3835],[-7.2278,37.2259]]],[[[8.8196,38.9769],[9.6483,39.4572],[9.3062,41.1844],[8.1595,40.7847],[8.8196,38.9769]]],[[[13.6083,37.2687],[13.8095,37.9664],[12.4541,37.766],[13.6083,37.2687]]],[[[10.9565,33.5751],[10.0195,34.0815],[11.1251,35.2406],[10.5115,36.0862],[11.0238,37.0683],[9.7322,37.2824],[1.0576,36.4619],[-2.0353,35.0546],[-4.593,35.1512],[-5.565,35.8623],[-6.753,34.1234],[-1.5858,33.2345],[3.3999,34.4472],[7.5097,34.4472],[10.0026,32.426],[13.4386,31.1459],[19.1245,30.1989],[10.9565,33.5751]]]]},"properties":{"NAME":"Carthaginian Empire","SUBJECTO":"Carthaginian Empire","PARTOF":"Carthaginian Empire","BORDERPRECISION":1,"LINK":null}},
{"type":"Feature","geometry":{"type":"MultiPolygon","coordinates":[[[[13.6083,37.2687],[15.3013,37.0579],[15.4537,38.1674],[13.8095,37.9664],[13.6083,37.2687]]],[[[15.572,40.7467],[14.8987,40.2415],[16.1772,38.931],[15.7852,37.9097],[17.1807,39.0222],[16.9487,40.4811],[18.5226,40.0941],[16.1506,41.0052],[15.572,40.7467]]]]},"properties":{"NAME":"Greek city-states","SUBJECTO":"Greek city-states","PARTOF":"Greek city-states","BORDERPRECISION":1,"LINK":null}},
{"type":"Feature","geometry":{"type":"Polygon","coordinates":[[[43.0533,14.6065],[44.6947,15.5333],[45.4329,17.7748],[43.7947,18.6598],[41.6286,18.0472],[42.7637,16.6455],[43.0533,14.6065]]]},"properties":{"NAME":"Saba","SUBJECTO":"Saba","PARTOF":"Saba","BORDERPRECISION":1,"LINK":null}},
{"type":"Feature","geometry":{"type":"Polygon","coordinates":[[[112.0673,28.419],[121.7744,29.7645],[119.9437,30.1162],[121.5689,30.7101],[121.645,31.688],[119.0032,34.9395],[122.3929,37.3006],[120.6581,37.7365],[118.9546,37.0771],[118.8752,37.9494],[117.4395,38.6028],[119.3855,39.8434],[114.3196,40.0185],[107.2811,36.64],[107.2283,35.5568],[104.3248,34.408],[104.5625,33.8731],[106.0482,34.2891],[105.2756,33.4572],[106.6424,32.5658],[104.6814,29.8322],[104.8002,28.0494],[105.8105,27.2174],[108.0694,27.0676],[109.6732,29.1785],[112.0673,28.419]]]},"properties":{"NAME":"Zhou states","SUBJECTO":"Zhou states","PARTOF":"Zhou states","BORDERPRECISION":1,"LINK":null}},
{"type":"Feature","geometry":{"type":"Polygon","coordinates":[[[71.4023,32.8701],[70.619,34.2554],[72.7809,35.0622],[73.0901,38.8501],[75.0435,42.4313],[74.5551,43.2453],[70.6483,43.8964],[67.881,43.0825],[66.4159,45.0359],[63.6486,45.687],[57.9512,43.0825],[56.8117,39.1757],[54.0331,38.9927],[53.9845,36.7819],[51.7955,36.4323],[48.8372,37.511],[49.669,40.2403],[46.9106,40.1298],[44.484,41.4504],[41.6805,41.7933],[40.361,40.9634],[38.314,40.9209],[33.5555,41.9825],[31.2177,41.0541],[29.1612,41.2164],[29.8827,40.7464],[29.0524,40.3347],[26.7653,40.3769],[26.3932,38.1044],[28.0142,36.5272],[30.3949,36.118],[30.9053,36.7942],[33.1713,35.9709],[36.0824,36.6215],[35.8731,34.4223],[34.1953,31.2381],[30.996,31.4689],[28.9664,30.7848],[21.6734,32.8156],[19.9921,31.3508],[22.0869,30.5978],[28.623,29.973],[29.9687,28.4351],[30.5449,22.7465],[33.3453,23.354],[33.6572,24.018],[35.1899,24.3999],[32.3185,29.5402],[34.2412,27.7589],[35.0734,29.4189],[34.7639,28.0967],[37.0053,25.5347],[38.4172,26.3158],[38.58,27.2925],[35.0875,30.4244],[37.2148,32.6889],[38.7931,32.8948],[41.0577,32.8948],[47.614,29.2722],[49.2222,30.4775],[51.6113,27.827],[54.6461,26.3913],[56.4309,27.1066],[57.4649,25.7048],[61.344,25.0269],[66.4323,25.4886],[67.486,23.9281],[68.5325,25.4636],[68.1909,27.3082],[70.9618,29.1863],[70.8111,31.6876],[71.4023,32.8701]]]},"properties":{"NAME":"Achaemenid Empire","SUBJECTO":"Achaemenid Empire","PARTOF":"Achaemenid Empire","BORDERPRECISION":1,"LINK":null}},
{"type":"Feature","geometry":{"type":"MultiPolygon","coordinates":[[[[7.9795,43.9649],[3.1994,43.8142],[2.6283,41.6195],[3.8075,43.4672],[5.8286,43.0208],[7.9795,43.9649]]],[[[9.4322,42.7941],[8.5004,42.3598],[9.173,41.3499],[9.4322,42.7941]]]]},"properties":{"NAME":"Greek city-states","SUBJECTO":"Greek city-states","PARTOF":"Greek city-states","BORDERPRECISION":1,"LINK":null}},
{"type":"Feature","geometry":{"type":"Polygon","coordinates":[[[30.5449,22.7465],[30.2417,19.2096],[31.1512,16.3802],[34.2838,16.4812],[34.5278,20.1748],[33.3453,23.354],[30.5449,22.7465]]]},"properties":{"NAME":"Meroe","SUBJECTO":"Meroe","PARTOF":"Meroe","BORDERPRECISION":1,"LINK":null}},
{"type":"Feature","geometry":{"type":"Polygon","coordinates":[[[83.4727,25.4406],[81.7607,25.5483],[80.7095,25.6833],[80.6451,25.7157],[80.2802,24.7488],[82.1985,22.5203],[82.5712,20.3463],[84.8694,20.4705],[85.8012,22.3339],[83.9998,23.5762],[83.6995,25.5499],[83.4727,25.4406]]]},"properties":{"NAME":"Magadha","SUBJECTO":"Magadha","PARTOF":"Magadha","BORDERPRECISION":1,"LINK":null}},
{"type":"Feature","geometry":{"type":"Polygon","coordinates":[[[-93.0238,18.5677],[-95.8557,18.8055],[-96.3439,17.9377],[-95.3186,17.1556],[-93.1508,17.2396],[-92.5942,17.9934],[-93.0238,18.5677]]]},"properties":{"NAME":"Olmec","SUBJECTO":"Olmec","PARTOF":"Olmec","BORDERPRECISION":1,"LINK":null}},
{"type":"Feature","geometry":{"type":"MultiPolygon","coordinates":[[[[24.0548,40.2609],[23.6347,40.7728],[25.0189,41.0171],[24.623,41.8648],[21.0808,41.3439],[19.607,41.7615],[19.3691,40.2603],[21.1724,38.3478],[23.1163,38.1574],[21.2284,37.9049],[22.3903,36.5244],[22.6423,37.5849],[23.4181,37.4693],[22.8981,37.9],[23.9873,37.7634],[22.4905,38.8769],[23.2361,39.2032],[22.4921,40.4983],[24.0548,40.2609]]],[[[23.9568,35.5277],[24.6935,34.9405],[26.2427,35.1449],[23.9568,35.5277]]]]},"properties":{"NAME":"Greek city-states","SUBJECTO":"Greek city-states","PARTOF":"Greek city-states","BORDERPRECISION":1,"LINK":null}},
{"type":"Feature","geometry":{"type":"Polygon","coordinates":[[[12.4055,41.9559],[12.1765,41.8688],[12.4629,41.6748],[12.4055,41.9559]]]},"properties":{"NAME":"Rome","SUBJECTO":"Rome","PARTOF":"Rome","BORDERPRECISION":1,"LINK":null}},
{"type":"Feature","geometry":{"type":"Polygon","coordinates":[[[13.1081,42.9172],[11.8342,43.665],[12.4278,42.4283],[13.5749,42.3901],[13.1081,42.9172]]]},"properties":{"NAME":"Sabini","SUBJECTO":"Sabini","PARTOF":"Sabini","BORDERPRECISION":1,"LINK":null}},
{"type":"Feature","geometry":{"type":"Polygon","coordinates":[[[12.5646,44.072],[12.4832,45.4623],[9.2041,45.407],[10.2287,43.7871],[12.5646,44.072]]]},"properties":{"NAME":"Boii","SUBJECTO":"Boii","PARTOF":"Boii","BORDERPRECISION":1,"LINK":null}},
{"type":"Feature","geometry":{"type":"Polygon","coordinates":[[[12.4055,41.9559],[12.4278,42.4283],[11.8342,43.665],[13.1081,42.9172],[13.7316,43.3742],[12.5646,44.072],[10.2287,43.7871],[12.1765,41.8688],[12.4055,41.9559]]]},"properties":{"NAME":"Etrurians","SUBJECTO":"Etrurians","PARTOF":"Etrurians","BORDERPRECISION":1,"LINK":null}},
{"type":"Feature","geometry":{"type":"Polygon","coordinates":[[[16.1506,41.0052],[13.639,42.0389],[15.572,40.7467],[16.1506,41.0052]]]},"properties":{"NAME":"Samnites","SUBJECTO":"Samnites","PARTOF":"Samnites","BORDERPRECISION":1,"LINK":null}},
{"type":"Feature","geometry":{"type":"Polygon","coordinates":[[[33.3453,23.354],[34.5278,20.1748],[37.1357,21.1281],[35.1899,24.3999],[33.6572,24.018],[33.3453,23.354]]]},"properties":{"NAME":"Blemmyes","SUBJECTO":"Blemmyes","PARTOF":"Blemmyes","BORDERPRECISION":1,"LINK":null}},
{"type":"Feature","geometry":{"type":"Polygon","coordinates":[[[21.8631,57.5967],[21.1725,54.919],[22.8161,56.1438],[21.8631,57.5967]]]},"properties":{"NAME":"Curonians","SUBJECTO":"Curonians","PARTOF":"Baltic archeological cultures","BORDERPRECISION":1,"LINK":null}},
{"type":"Feature","geometry":{"type":"MultiPolygon","coordinates":[[[[67.486,23.9281],[70.3806,22.8606],[68.8942,22.2857],[70.8551,20.6508],[72.6956,22.1285],[72.9043,20.5352],[76.9197,21.154],[84.661,18.9354],[86.8138,20.3797],[87.1546,21.5253],[88.3771,21.5773],[88.7173,23.3857],[88.3917,25.3391],[84.5845,26.9436],[84.4955,26.5159],[84.7471,26.3261],[84.1109,25.9941],[83.9976,25.6935],[83.6995,25.5499],[83.9998,23.5762],[85.8012,22.3339],[84.8694,20.4705],[82.5712,20.3463],[82.1985,22.5203],[80.2802,24.7488],[78.8499,25.4169],[77.5719,27.7122],[76.6882,28.7157],[77.1859,30.1796],[73.8815,32.9383],[71.4023,32.8701],[70.8111,31.6876],[70.9618,29.1863],[68.1909,27.3082],[68.5325,25.4636],[67.486,23.9281]],[[76.296,21.4501],[74.4041,21.7231],[74.3389,22.5992],[76.981,23.6491],[77.7965,22.569],[76.296,21.4501]]],[[[79.667,28.9361],[79.5815,28.5325],[81.9567,27.8167],[79.667,28.9361]]]]},"properties":{"NAME":"Hindu kingdoms","SUBJECTO":"Hindu kingdoms","PARTOF":"Hindu kingdoms","BORDERPRECISION":1,"LINK":null}},
{"type":"Feature","geometry":{"type":"Polygon","coordinates":[[[71.4023,32.8701],[73.8815,32.9383],[72.7809,35.0622],[70.619,34.2554],[71.4023,32.8701]]]},"properties":{"NAME":"Gandhāra","SUBJECTO":"Gandhāra","PARTOF":"Hindu kingdoms","BORDERPRECISION":1,"LINK":null}},
{"type":"Feature","geometry":{"type":"Polygon","coordinates":[[[76.296,21.4501],[77.7965,22.569],[76.981,23.6491],[74.3389,22.5992],[74.4041,21.7231],[76.296,21.4501]]]},"properties":{"NAME":"Avanti","SUBJECTO":"Avanti","PARTOF":"Hindu kingdoms","BORDERPRECISION":1,"LINK":null}},
{"type":"Feature","geometry":{"type":"Polygon","coordinates":[[[79.667,28.9361],[79.8186,29.6516],[78.4052,30.4235],[77.1859,30.1796],[76.6882,28.7157],[77.5719,27.7122],[78.889,27.6118],[79.5815,28.5325],[79.667,28.9361]]]},"properties":{"NAME":"Kuru","SUBJECTO":"Kuru","PARTOF":"Hindu kingdoms","BORDERPRECISION":1,"LINK":null}},
{"type":"Feature","geometry":{"type":"Polygon","coordinates":[[[83.6995,25.5499],[83.9976,25.6935],[84.1109,25.9941],[83.592,26.2138],[82.3453,26.5824],[81.5698,25.8117],[81.7607,25.5483],[83.4727,25.4406],[83.6995,25.5499]]]},"properties":{"NAME":"Kasi","SUBJECTO":"Kasi","PARTOF":"Hindu kingdoms","BORDERPRECISION":1,"LINK":null}},
{"type":"Feature","geometry":{"type":"Polygon","coordinates":[[[79.5815,28.5325],[78.889,27.6118],[79.4338,26.6776],[80.4336,25.9392],[80.3765,25.9905],[81.5698,25.8117],[82.3453,26.5824],[81.9567,27.8167],[79.5815,28.5325]]]},"properties":{"NAME":"Pancala","SUBJECTO":"Pancala","PARTOF":"Hindu kingdoms","BORDERPRECISION":1,"LINK":null}},
{"type":"Feature","geometry":{"type":"Polygon","coordinates":[[[84.5845,26.9436],[81.9567,27.8167],[82.3453,26.5824],[83.592,26.2138],[83.8413,26.8379],[84.4316,26.5641],[84.4955,26.5159],[84.5845,26.9436]]]},"properties":{"NAME":"Kosala","SUBJECTO":"Kosala","PARTOF":"Hindu kingdoms","BORDERPRECISION":1,"LINK":null}},
{"type":"Feature","geometry":{"type":"Polygon","coordinates":[[[81.7607,25.5483],[81.5698,25.8117],[80.3765,25.9905],[80.4336,25.9392],[80.543,25.8408],[80.5305,25.7733],[80.6451,25.7157],[80.7095,25.6833],[81.7607,25.5483]]]},"properties":{"NAME":"Vatsa","SUBJECTO":"Vatsa","PARTOF":"Hindu kingdoms","BORDERPRECISION":1,"LINK":null}},
{"type":"Feature","geometry":{"type":"Polygon","coordinates":[[[84.4955,26.5159],[84.4316,26.5641],[83.8413,26.8379],[83.592,26.2138],[84.1109,25.9941],[84.7471,26.3261],[84.4955,26.5159]]]},"properties":{"NAME":"Malla","SUBJECTO":"Malla","PARTOF":"Malla","BORDERPRECISION":1,"LINK":null}},
{"type":"Feature","geometry":{"type":"Polygon","coordinates":[[[80.6451,25.7157],[80.5305,25.7733],[80.543,25.8408],[80.4336,25.9392],[79.4338,26.6776],[78.889,27.6118],[77.5719,27.7122],[78.8499,25.4169],[80.2802,24.7488],[80.6451,25.7157]]]},"properties":{"NAME":"Surasena","SUBJECTO":"Surasena","PARTOF":"Hindu kingdoms","BORDERPRECISION":1,"LINK":null}}
]}